{
"type": "FeatureCollection",
"name": "Eze_Canu_IGN_dpto_geo",
"crs": { "type": "name", "properties": { "name": "urn:ogc:def:crs:OGC:1.3:CRS84" } },
"features": [
{ "type": "Feature", "properties": { "gid": 4360, "fna": "Municipio Ezeiza", "gna": "Municipio", "nam": "Ezeiza", "in1": "060270", "fdc": "ARBA - Gerencia de Servicios Catastrales", "sag": "IGN" }, "geometry": { "type": "MultiPolygon", "coordinates": [ [ [ [ -58.520506634999947, -34.741055539999934 ], [ -58.520541, -34.741235 ], [ -58.520592682999961, -34.741491291999978 ], [ -58.520615629999952, -34.741605081999978 ], [ -58.520687, -34.741959 ], [ -58.520871, -34.74274 ], [ -58.520954, -34.743145 ], [ -58.521117, -34.743897 ], [ -58.521174, -34.744136 ], [ -58.521288, -34.744585 ], [ -58.52144, -34.745253 ], [ -58.521637, -34.746094 ], [ -58.521717, -34.746565 ], [ -58.521834, -34.747038 ], [ -58.521927, -34.747537 ], [ -58.521951208999951, -34.747697565999943 ], [ -58.521995, -34.747988 ], [ -58.522119, -34.748643 ], [ -58.522197, -34.748994 ], [ -58.522257, -34.749291 ], [ -58.522293, -34.749504 ], [ -58.522403, -34.750155 ], [ -58.522475, -34.750664 ], [ -58.522585, -34.75122 ], [ -58.522764, -34.752175 ], [ -58.522828, -34.752695 ], [ -58.522918, -34.75335 ], [ -58.52296, -34.754072 ], [ -58.523019, -34.754618 ], [ -58.52302, -34.755001 ], [ -58.52304, -34.755734 ], [ -58.52309, -34.756399 ], [ -58.523132, -34.75711 ], [ -58.523172, -34.757709 ], [ -58.523245, -34.758649 ], [ -58.523283, -34.759152 ], [ -58.523329, -34.759737 ], [ -58.523372998999946, -34.760373 ], [ -58.523435, -34.761136 ], [ -58.523457, -34.761909 ], [ -58.523528, -34.762862 ], [ -58.523561, -34.763593 ], [ -58.523615, -34.764363 ], [ -58.52367, -34.7652 ], [ -58.523826, -34.767381 ], [ -58.523867566999968, -34.768120720999946 ], [ -58.523973, -34.769997 ], [ -58.524035, -34.770998 ], [ -58.52414, -34.773139 ], [ -58.524151618999952, -34.773331586999973 ], [ -58.524502, -34.779139 ], [ -58.524458, -34.779966 ], [ -58.524403, -34.780185 ], [ -58.524326, -34.7805 ], [ -58.524211, -34.781074 ], [ -58.524032, -34.781554 ], [ -58.523767, -34.781952 ], [ -58.523481, -34.782445 ], [ -58.523241, -34.782773 ], [ -58.522718, -34.783521 ], [ -58.522253, -34.784165 ], [ -58.521857, -34.784739 ], [ -58.521750535999956, -34.784869016999949 ], [ -58.521631, -34.785015 ], [ -58.520956, -34.785945 ], [ -58.52066, -34.786299 ], [ -58.519423, -34.78802 ], [ -58.518514, -34.789305 ], [ -58.518261, -34.789686 ], [ -58.517506, -34.790835 ], [ -58.517036, -34.791654 ], [ -58.516522, -34.792765 ], [ -58.516274, -34.793214 ], [ -58.515873, -34.794027 ], [ -58.515607, -34.794617 ], [ -58.514397, -34.797831 ], [ -58.514334067999982, -34.798105678999946 ], [ -58.512715024999977, -34.805172266999932 ], [ -58.511828376999972, -34.809042192999982 ], [ -58.511704, -34.809617 ], [ -58.511601, -34.810126 ], [ -58.511102022999978, -34.813141321999979 ], [ -58.511043, -34.813498 ], [ -58.510882, -34.814427 ], [ -58.510570886999972, -34.815765406999958 ], [ -58.510031, -34.818088 ], [ -58.509177, -34.822157 ], [ -58.508776, -34.824598 ], [ -58.508688998999958, -34.825087 ], [ -58.508511222999971, -34.826635711999984 ], [ -58.508273, -34.828711 ], [ -58.507996706999961, -34.830729693999956 ], [ -58.507914735999975, -34.831328603999964 ], [ -58.507912279999971, -34.831346547999942 ], [ -58.507754, -34.832503 ], [ -58.507400998999969, -34.836832 ], [ -58.507373377999954, -34.837107527999933 ], [ -58.507313225999951, -34.837854397999934 ], [ -58.507143, -34.839968 ], [ -58.507083910999938, -34.840278983999951 ], [ -58.506854, -34.841489 ], [ -58.506779611999946, -34.841656971999953 ], [ -58.506756455999948, -34.841772216999971 ], [ -58.50672745199995, -34.842239556999971 ], [ -58.506703905999984, -34.842618960999971 ], [ -58.506695806999971, -34.842749462999961 ], [ -58.506584, -34.844551 ], [ -58.506398535999949, -34.844786915999975 ], [ -58.506323, -34.844883 ], [ -58.506260818999976, -34.845083168999963 ], [ -58.506159604999937, -34.845408984999949 ], [ -58.505963517999987, -34.846040210999945 ], [ -58.505716, -34.846837 ], [ -58.504585197999972, -34.849907682999969 ], [ -58.503231, -34.853585 ], [ -58.502908614999967, -34.85457443599995 ], [ -58.502852, -34.854959 ], [ -58.502843552999934, -34.855531108999969 ], [ -58.502841, -34.855704 ], [ -58.502667706999944, -34.858556518999933 ], [ -58.502587, -34.859885 ], [ -58.502352, -34.863889 ], [ -58.502276832999939, -34.869547422999972 ], [ -58.502293660999953, -34.86996617899996 ], [ -58.502938, -34.874026 ], [ -58.503854, -34.879747 ], [ -58.50411, -34.881357 ], [ -58.504578, -34.883587 ], [ -58.504938, -34.884974 ], [ -58.505365, -34.886229 ], [ -58.505886, -34.887922 ], [ -58.506319127999973, -34.889356468999949 ], [ -58.506492, -34.889929 ], [ -58.510333, -34.901681 ], [ -58.510241, -34.901833 ], [ -58.510196, -34.901901 ], [ -58.508995, -34.903645 ], [ -58.508122998999966, -34.904741 ], [ -58.507504, -34.905596 ], [ -58.507339, -34.905792 ], [ -58.507082, -34.906101 ], [ -58.506059, -34.907626 ], [ -58.50599, -34.907719 ], [ -58.505486, -34.908395 ], [ -58.504676, -34.909574 ], [ -58.503602, -34.91147 ], [ -58.502613, -34.913207 ], [ -58.501703, -34.914825 ], [ -58.500942, -34.916128 ], [ -58.500830061999977, -34.916337677999934 ], [ -58.500059, -34.917782 ], [ -58.492037654999933, -34.927505707999956 ], [ -58.49186, -34.927632 ], [ -58.491185331999986, -34.92810921399996 ], [ -58.490155, -34.928838 ], [ -58.490508686999931, -34.929105426999968 ], [ -58.490889814999946, -34.929393601999948 ], [ -58.491914, -34.930168 ], [ -58.511506, -34.946652 ], [ -58.531017, -34.964141 ], [ -58.534276, -34.961535 ], [ -58.543021, -34.96836 ], [ -58.550553486999945, -34.97423621799993 ], [ -58.552989625999942, -34.976136689999976 ], [ -58.553065414999935, -34.976195814999983 ], [ -58.553170019999982, -34.976277418999985 ], [ -58.549297702999979, -34.979729125999938 ], [ -58.549198, -34.979818 ], [ -58.551923998999939, -34.990204 ], [ -58.552738230999978, -34.993304992999981 ], [ -58.554120998999963, -34.998684293999929 ], [ -58.556238132999965, -35.006920457999968 ], [ -58.556271017999961, -35.00704838799993 ], [ -58.556963336999956, -35.006580310999937 ], [ -58.561334, -35.00344 ], [ -58.576922, -34.99203 ], [ -58.584012697999981, -34.986906556999941 ], [ -58.585733307999988, -34.985663315999943 ], [ -58.591134, -34.981761 ], [ -58.596227966999948, -34.978075703999934 ], [ -58.596456119999971, -34.977910642999973 ], [ -58.619839, -34.960994 ], [ -58.619959022999979, -34.960896672999979 ], [ -58.620113153999966, -34.960771689999945 ], [ -58.620151, -34.960741 ], [ -58.617081, -34.958711 ], [ -58.614143, -34.956769 ], [ -58.611037, -34.953939 ], [ -58.611022524999953, -34.953925675999983 ], [ -58.605693, -34.94902 ], [ -58.604961109999977, -34.948351057999957 ], [ -58.599728445999972, -34.943568438999932 ], [ -58.599054, -34.942952 ], [ -58.599057636999987, -34.942947262999951 ], [ -58.60070191799997, -34.94080585599994 ], [ -58.601131, -34.94029 ], [ -58.601451, -34.939847 ], [ -58.601579, -34.93969 ], [ -58.601844, -34.939332 ], [ -58.601978, -34.93917 ], [ -58.602288, -34.938772 ], [ -58.602475, -34.938518 ], [ -58.602632, -34.938303 ], [ -58.602829, -34.938059 ], [ -58.603138, -34.93767 ], [ -58.603284, -34.937475 ], [ -58.60349, -34.937198 ], [ -58.603711, -34.936914 ], [ -58.603854, -34.936703 ], [ -58.604177, -34.936297 ], [ -58.604337, -34.936074 ], [ -58.604545, -34.935807 ], [ -58.604673, -34.935687 ], [ -58.604854, -34.935458 ], [ -58.605045998999969, -34.935192 ], [ -58.605211, -34.935089 ], [ -58.606284, -34.933697 ], [ -58.606459637999933, -34.933462311999961 ], [ -58.606748, -34.933077 ], [ -58.607255, -34.932423 ], [ -58.608574, -34.930722 ], [ -58.608618, -34.930665 ], [ -58.608744, -34.930501 ], [ -58.608801, -34.930427 ], [ -58.608854, -34.930359 ], [ -58.608911, -34.930284 ], [ -58.609033, -34.930126 ], [ -58.609151, -34.929973 ], [ -58.609277, -34.929809 ], [ -58.609333, -34.929736 ], [ -58.609387, -34.929666 ], [ -58.609444, -34.929592 ], [ -58.609502, -34.929517 ], [ -58.609628998999938, -34.929352 ], [ -58.609769, -34.92917 ], [ -58.609899, -34.929001 ], [ -58.609958, -34.928924 ], [ -58.610012, -34.928854 ], [ -58.610063, -34.928788 ], [ -58.61012, -34.928713 ], [ -58.610178, -34.928639 ], [ -58.610233998999945, -34.928566 ], [ -58.610289, -34.928495 ], [ -58.610344, -34.928423 ], [ -58.610403, -34.928346 ], [ -58.610519, -34.928195 ], [ -58.610626, -34.928057 ], [ -58.610746, -34.927901 ], [ -58.610803, -34.927827 ], [ -58.61086, -34.927754 ], [ -58.610914, -34.927683 ], [ -58.610973998999953, -34.927606 ], [ -58.611031, -34.927533 ], [ -58.611087, -34.92746 ], [ -58.611142, -34.927388 ], [ -58.611198, -34.927315 ], [ -58.611257, -34.927239 ], [ -58.611316, -34.927163 ], [ -58.611376, -34.927085 ], [ -58.611539998999945, -34.926872 ], [ -58.611706, -34.926653 ], [ -58.610654, -34.92522 ], [ -58.611095, -34.924871 ], [ -58.611734998999964, -34.924494 ], [ -58.611824, -34.924458 ], [ -58.612293, -34.924354 ], [ -58.612479843999949, -34.924274252999965 ], [ -58.612521908999952, -34.924256298999978 ], [ -58.612624364999931, -34.924212569999952 ], [ -58.61263007499997, -34.924210132999974 ], [ -58.612942, -34.924077 ], [ -58.613301014999934, -34.923969682999939 ], [ -58.613417649999974, -34.923934817999964 ], [ -58.613507, -34.923913 ], [ -58.613634, -34.923898 ], [ -58.61378, -34.923894 ], [ -58.613859, -34.923888 ], [ -58.613899210999932, -34.92386591199994 ], [ -58.613903236999931, -34.923865688999967 ], [ -58.614078, -34.923856 ], [ -58.614245, -34.923793 ], [ -58.614352, -34.923693 ], [ -58.614500132999979, -34.923619600999984 ], [ -58.614522835999935, -34.923608351999974 ], [ -58.614545060999944, -34.923605881999947 ], [ -58.614589, -34.923601 ], [ -58.614594490999934, -34.92360040899996 ], [ -58.61463568399995, -34.92359597199993 ], [ -58.614672374999941, -34.923603687999957 ], [ -58.614807, -34.923632 ], [ -58.615020229999971, -34.92365945499995 ], [ -58.615027711999971, -34.92366041799994 ], [ -58.61505703499995, -34.92367762899994 ], [ -58.615257, -34.923795 ], [ -58.615275106999945, -34.92378343799993 ], [ -58.61534, -34.923742 ], [ -58.615427, -34.923779 ], [ -58.615484042999981, -34.923704775999965 ], [ -58.615528, -34.923713 ], [ -58.616059, -34.923893 ], [ -58.616157237999971, -34.923868351999943 ], [ -58.616337998999938, -34.923823 ], [ -58.616485, -34.923678 ], [ -58.616586, -34.923597 ], [ -58.617306, -34.923102 ], [ -58.617333605999931, -34.923092555999972 ], [ -58.617540697999971, -34.923021708999954 ], [ -58.617876, -34.922907 ], [ -58.618055, -34.922835 ], [ -58.618179, -34.922763 ], [ -58.618261, -34.922705 ], [ -58.618404998999949, -34.922482 ], [ -58.618453, -34.922273 ], [ -58.618445, -34.922145 ], [ -58.618308, -34.922055 ], [ -58.618319, -34.921867 ], [ -58.618401, -34.921673 ], [ -58.618633, -34.921542 ], [ -58.618823, -34.921461 ], [ -58.619059, -34.921327 ], [ -58.619203998999978, -34.921214 ], [ -58.619392, -34.921036 ], [ -58.619805, -34.920707 ], [ -58.620235, -34.92045 ], [ -58.620644, -34.920228 ], [ -58.621007, -34.92005 ], [ -58.621343, -34.919918 ], [ -58.621828, -34.919772 ], [ -58.622494482999969, -34.919602940999937 ], [ -58.62250841499997, -34.919599406999964 ], [ -58.622528860999978, -34.919608899999957 ], [ -58.622542, -34.919615 ], [ -58.622665, -34.919686 ], [ -58.622853, -34.919791 ], [ -58.623072, -34.919822 ], [ -58.623282, -34.919832 ], [ -58.623522, -34.919774 ], [ -58.623533556999973, -34.919768157999954 ], [ -58.623567958999956, -34.919750767999972 ], [ -58.623704, -34.919682 ], [ -58.623783508999963, -34.919656266999937 ], [ -58.623945, -34.919604 ], [ -58.624142873999972, -34.919534663999968 ], [ -58.624267743999951, -34.919490908999933 ], [ -58.624316, -34.919474 ], [ -58.624741197999981, -34.919307704999937 ], [ -58.624742998999977, -34.919307 ], [ -58.624803688999975, -34.919290267999941 ], [ -58.624927, -34.919178 ], [ -58.625387, -34.91896 ], [ -58.625655704999986, -34.918927518999965 ], [ -58.62566, -34.918927 ], [ -58.625781176999965, -34.918876824999984 ], [ -58.625916, -34.918821 ], [ -58.626268909999965, -34.918539240999962 ], [ -58.626283274999935, -34.918527771999948 ], [ -58.626357636999956, -34.918468402999963 ], [ -58.626401477999934, -34.918433399999969 ], [ -58.626412, -34.918425 ], [ -58.626468, -34.918389 ], [ -58.626591, -34.918344 ], [ -58.626656, -34.918345 ], [ -58.627056, -34.918654 ], [ -58.627185, -34.91876 ], [ -58.627705, -34.919265 ], [ -58.627853, -34.919408 ], [ -58.627926956999943, -34.919483037999953 ], [ -58.628177984999979, -34.919737735999945 ], [ -58.628194998999959, -34.919755 ], [ -58.629673, -34.917852 ], [ -58.629862, -34.917621 ], [ -58.631461, -34.915665 ], [ -58.632457, -34.914407 ], [ -58.634291, -34.91201 ], [ -58.634629998999969, -34.911566 ], [ -58.636749035999969, -34.908763505999957 ], [ -58.637122371999965, -34.908269756999971 ], [ -58.637284, -34.908056 ], [ -58.638239, -34.906774 ], [ -58.638278, -34.906722 ], [ -58.640318, -34.904012 ], [ -58.642944097999987, -34.900636986999984 ], [ -58.643276944999968, -34.900209217999929 ], [ -58.643537, -34.899875 ], [ -58.64599, -34.896702 ], [ -58.648467, -34.893531 ], [ -58.649488, -34.892214 ], [ -58.650330950999944, -34.891087460999984 ], [ -58.650158258999966, -34.891019266999933 ], [ -58.650288, -34.890849 ], [ -58.650019, -34.890717 ], [ -58.64962, -34.89055 ], [ -58.648714, -34.890319 ], [ -58.647861, -34.890077 ], [ -58.647395053999958, -34.889959416999943 ], [ -58.64733, -34.889943 ], [ -58.647236311999961, -34.889891896999984 ], [ -58.647080850999942, -34.889807099999985 ], [ -58.646856998999965, -34.889685 ], [ -58.646763, -34.88948 ], [ -58.646588, -34.889027 ], [ -58.646361, -34.888627 ], [ -58.646453901999962, -34.888448272999938 ], [ -58.646432, -34.88833 ], [ -58.646466998999983, -34.888002 ], [ -58.646504, -34.887253 ], [ -58.646352, -34.886841 ], [ -58.6461, -34.886422 ], [ -58.646039847999987, -34.886345090999953 ], [ -58.645823998999958, -34.886186 ], [ -58.6456, -34.885719 ], [ -58.645585575999974, -34.885483127999976 ], [ -58.645584233999955, -34.885461171999964 ], [ -58.645566, -34.885163 ], [ -58.645579322999936, -34.884992102999945 ], [ -58.645595, -34.884791 ], [ -58.645600642999966, -34.884616766999955 ], [ -58.645611, -34.884297 ], [ -58.645688, -34.883948 ], [ -58.645901, -34.883529 ], [ -58.645968, -34.883307 ], [ -58.645945, -34.883053 ], [ -58.64574, -34.88282 ], [ -58.645472998999935, -34.882258 ], [ -58.645416, -34.881718 ], [ -58.645413911999981, -34.881512360999977 ], [ -58.645412, -34.881324 ], [ -58.645354432999966, -34.881156996999948 ], [ -58.645311, -34.881031 ], [ -58.645325, -34.880913749999934 ], [ -58.645367, -34.880562 ], [ -58.645268537999982, -34.880299433999937 ], [ -58.645205, -34.88013 ], [ -58.644864, -34.879762 ], [ -58.644465, -34.87889 ], [ -58.644307, -34.878283 ], [ -58.644133, -34.87778 ], [ -58.644026, -34.877406 ], [ -58.643983, -34.877168 ], [ -58.644, -34.876895 ], [ -58.644122, -34.876731 ], [ -58.64441, -34.876482 ], [ -58.64450222399995, -34.876410503999978 ], [ -58.644717, -34.876244 ], [ -58.644724318999977, -34.876229937999938 ], [ -58.644844, -34.876 ], [ -58.644856, -34.875795 ], [ -58.644699, -34.875624 ], [ -58.644436, -34.875459 ], [ -58.644203, -34.875127 ], [ -58.644163249999963, -34.875063463999936 ], [ -58.643832, -34.874534 ], [ -58.643819, -34.874098 ], [ -58.643839, -34.873742 ], [ -58.643845641999974, -34.873602270999982 ], [ -58.643862195999986, -34.873254016999965 ], [ -58.643866, -34.873174 ], [ -58.643806, -34.87296 ], [ -58.643687, -34.872821 ], [ -58.64368241699998, -34.872818321999944 ], [ -58.643456, -34.872686 ], [ -58.64314, -34.87243 ], [ -58.642671, -34.872115 ], [ -58.64255, -34.871887 ], [ -58.64251756699997, -34.871724832999973 ], [ -58.642507599999988, -34.871675 ], [ -58.642496482999945, -34.871619416999977 ], [ -58.642499, -34.871481 ], [ -58.642488998999966, -34.871426 ], [ -58.642457, -34.871343 ], [ -58.642458, -34.871261 ], [ -58.642448, -34.871206 ], [ -58.642416, -34.871123 ], [ -58.642421, -34.870821 ], [ -58.642432, -34.870793 ], [ -58.642433, -34.870738 ], [ -58.642445, -34.870711 ], [ -58.642446, -34.870629 ], [ -58.642458, -34.870601 ], [ -58.642458, -34.870574 ], [ -58.642505, -34.870465 ], [ -58.642505, -34.870437 ], [ -58.642517, -34.87041 ], [ -58.642517, -34.870373 ], [ -58.642525326999987, -34.870354263999957 ], [ -58.642529, -34.870346 ], [ -58.64254, -34.870309 ], [ -58.642563, -34.870273 ], [ -58.642564, -34.870245 ], [ -58.642575, -34.870209 ], [ -58.642576, -34.870181 ], [ -58.642588, -34.870145 ], [ -58.642588, -34.870144712999945 ], [ -58.642588, -34.870117 ], [ -58.642611, -34.870063 ], [ -58.642612, -34.870008 ], [ -58.642635, -34.869972 ], [ -58.642635, -34.869944 ], [ -58.642647, -34.869917 ], [ -58.642648, -34.86988 ], [ -58.642659, -34.869853 ], [ -58.642659, -34.869825 ], [ -58.642683, -34.869771 ], [ -58.642683, -34.869734 ], [ -58.642706, -34.869679 ], [ -58.642718, -34.869643 ], [ -58.642718, -34.869615 ], [ -58.64273, -34.869588 ], [ -58.642731, -34.86956 ], [ -58.642754, -34.869506 ], [ -58.642755, -34.869442 ], [ -58.642766, -34.869414 ], [ -58.642742123999938, -34.86920906499995 ], [ -58.642774, -34.86914 ], [ -58.642838, -34.869006 ], [ -58.642796, -34.868848 ], [ -58.642734, -34.868723 ], [ -58.64264499899997, -34.868593 ], [ -58.642451, -34.868454 ], [ -58.642302, -34.86825 ], [ -58.642105, -34.86809 ], [ -58.641796, -34.867979 ], [ -58.641614, -34.867894 ], [ -58.641425, -34.867784 ], [ -58.641255, -34.86762 ], [ -58.641076, -34.867403 ], [ -58.640946, -34.86722 ], [ -58.64088, -34.86704 ], [ -58.640811998999936, -34.866916 ], [ -58.640729, -34.866836 ], [ -58.640592, -34.866728 ], [ -58.640412, -34.866651 ], [ -58.640148, -34.866501 ], [ -58.639867, -34.866306 ], [ -58.639790533999985, -34.866216695999981 ], [ -58.639737, -34.866103 ], [ -58.639719, -34.866066 ], [ -58.639676, -34.865992 ], [ -58.639632, -34.865937 ], [ -58.639621998999985, -34.865891 ], [ -58.6396, -34.865872 ], [ -58.639578, -34.865845 ], [ -58.639556, -34.865808 ], [ -58.639513, -34.865752 ], [ -58.639491, -34.865716 ], [ -58.639469, -34.865688 ], [ -58.639448, -34.865633 ], [ -58.639426998999966, -34.865568 ], [ -58.639414, -34.865542 ], [ -58.6394, -34.86551 ], [ -58.639398, -34.86548 ], [ -58.639382, -34.865437 ], [ -58.639407998999957, -34.865357 ], [ -58.63942, -34.86533 ], [ -58.639421, -34.865275 ], [ -58.639484, -34.865042 ], [ -58.63969, -34.864669 ], [ -58.639935, -34.864397 ], [ -58.639956, -34.864096 ], [ -58.639919, -34.863873 ], [ -58.639689, -34.863401 ], [ -58.639624004999973, -34.863314774999935 ], [ -58.639621, -34.863285 ], [ -58.639602998999976, -34.863184 ], [ -58.639517, -34.863067 ], [ -58.639529, -34.863016 ], [ -58.639389, -34.862851 ], [ -58.639268, -34.862768 ], [ -58.639085, -34.862691 ], [ -58.638888, -34.862648 ], [ -58.63880299899995, -34.862587 ], [ -58.638618, -34.862542 ], [ -58.6384, -34.862414 ], [ -58.638185, -34.862274 ], [ -58.637931, -34.862105 ], [ -58.637599, -34.861842 ], [ -58.637251, -34.861565 ], [ -58.63711404299994, -34.861455956999976 ], [ -58.636938, -34.861086 ], [ -58.636927827999955, -34.861059222999984 ], [ -58.63681, -34.860749 ], [ -58.63671, -34.860445 ], [ -58.636574, -34.86011 ], [ -58.636493, -34.859705 ], [ -58.63649269299998, -34.859703466999974 ], [ -58.636447, -34.859624 ], [ -58.636435740999957, -34.859565926999949 ], [ -58.636428, -34.859526 ], [ -58.63643475899994, -34.859493749999956 ], [ -58.636462998999946, -34.859359 ], [ -58.636451057999977, -34.859204747999968 ], [ -58.636451, -34.859204 ], [ -58.63642899499996, -34.85907 ], [ -58.636424412999986, -34.859051234999981 ], [ -58.636407, -34.85898 ], [ -58.636365, -34.858892 ], [ -58.636289, -34.858823 ], [ -58.636255, -34.858733 ], [ -58.63616, -34.858629 ], [ -58.636065, -34.858488 ], [ -58.635958463999941, -34.85841051899996 ], [ -58.635944, -34.8584 ], [ -58.635774, -34.858247 ], [ -58.635588, -34.858111 ], [ -58.635367, -34.857934 ], [ -58.635188, -34.85779 ], [ -58.634902, -34.8576 ], [ -58.634698, -34.857506 ], [ -58.634678925999935, -34.85749917499993 ], [ -58.63463196899994, -34.857459449999965 ], [ -58.634291, -34.857171 ], [ -58.634074, -34.856938 ], [ -58.633505, -34.856204 ], [ -58.632932998999934, -34.85562 ], [ -58.632581998999967, -34.855287 ], [ -58.632295, -34.85486 ], [ -58.631981, -34.85441 ], [ -58.631921585999976, -34.85435081199995 ], [ -58.631917, -34.854331 ], [ -58.631888, -34.854227 ], [ -58.631805, -34.854094 ], [ -58.631728, -34.85401 ], [ -58.631604, -34.85392 ], [ -58.631492, -34.853827 ], [ -58.631367, -34.853737 ], [ -58.631237956999939, -34.853684209999983 ], [ -58.631235, -34.853683 ], [ -58.63108, -34.853624 ], [ -58.630899, -34.853573 ], [ -58.630824571999938, -34.853560904999938 ], [ -58.630722721999973, -34.853461788999937 ], [ -58.63039, -34.853138 ], [ -58.630248, -34.852856 ], [ -58.630221, -34.852481 ], [ -58.630319998999937, -34.852097 ], [ -58.630521, -34.851703 ], [ -58.63064, -34.851359 ], [ -58.630615, -34.850885 ], [ -58.630416, -34.850404 ], [ -58.630189127999984, -34.850106230999984 ], [ -58.630128, -34.850026 ], [ -58.630003, -34.849763 ], [ -58.629780254999957, -34.849296706999951 ], [ -58.629768481999974, -34.849272060999965 ], [ -58.629604777999987, -34.849041032999935 ], [ -58.629592, -34.849023 ], [ -58.629571513999963, -34.848982934999981 ], [ -58.629524, -34.84889 ], [ -58.629397, -34.848658 ], [ -58.629359616999977, -34.848612714999945 ], [ -58.629274, -34.848509 ], [ -58.629177, -34.84835 ], [ -58.629114, -34.848211 ], [ -58.628915998999958, -34.847894 ], [ -58.628539, -34.847318 ], [ -58.628515, -34.847181 ], [ -58.628576, -34.846995 ], [ -58.6287, -34.846803 ], [ -58.628732, -34.846683 ], [ -58.628657, -34.846571 ], [ -58.628533, -34.846488 ], [ -58.628124, -34.846175 ], [ -58.627945, -34.846026 ], [ -58.62779, -34.84592 ], [ -58.627621, -34.845784 ], [ -58.627529, -34.845717 ], [ -58.627333, -34.845519 ], [ -58.627208, -34.845423 ], [ -58.627097, -34.845347 ], [ -58.626944, -34.845272 ], [ -58.626789998999982, -34.845216 ], [ -58.62664, -34.845147 ], [ -58.626566052999976, -34.845124738999971 ], [ -58.62626, -34.845076 ], [ -58.625996548999979, -34.844957879999981 ], [ -58.625967357999968, -34.844944791999978 ], [ -58.625957559999961, -34.844940398999938 ], [ -58.625834, -34.844885 ], [ -58.625185, -34.844482 ], [ -58.62495, -34.84422 ], [ -58.624854, -34.843959 ], [ -58.624827004999986, -34.84388256799997 ], [ -58.624711633999937, -34.843555913999978 ], [ -58.624688, -34.843489 ], [ -58.624718815999984, -34.84331057199995 ], [ -58.624769, -34.84302 ], [ -58.624771240999962, -34.84292751299995 ], [ -58.624781734999942, -34.842494450999936 ], [ -58.624784, -34.842401 ], [ -58.624760177999974, -34.84229462199994 ], [ -58.624726, -34.842142 ], [ -58.624670270999957, -34.84203236999997 ], [ -58.624619545999963, -34.841932582999959 ], [ -58.624566, -34.841861 ], [ -58.624477, -34.841765 ], [ -58.624403, -34.841681 ], [ -58.624312, -34.841586 ], [ -58.624186, -34.841421 ], [ -58.624157, -34.841336 ], [ -58.624118, -34.841219 ], [ -58.624101, -34.841116 ], [ -58.624072, -34.840985 ], [ -58.624038, -34.840847 ], [ -58.623992, -34.840675 ], [ -58.623929, -34.840447 ], [ -58.623899, -34.840318 ], [ -58.623853, -34.840198 ], [ -58.623804, -34.840061 ], [ -58.623736, -34.839918 ], [ -58.623681, -34.839769 ], [ -58.623502, -34.839582 ], [ -58.623248, -34.839281 ], [ -58.623009, -34.838837 ], [ -58.622911, -34.838408 ], [ -58.622817, -34.838044 ], [ -58.622742286999937, -34.83791348799997 ], [ -58.62261, -34.837761 ], [ -58.622498863999965, -34.837602233999974 ], [ -58.622402998999974, -34.837503 ], [ -58.622142, -34.837298 ], [ -58.622002, -34.837121 ], [ -58.621899, -34.836856 ], [ -58.621889017999933, -34.836838048999937 ], [ -58.621779, -34.836661 ], [ -58.621628, -34.836454 ], [ -58.621407998999985, -34.836174 ], [ -58.621372732999987, -34.83613571799998 ], [ -58.621256, -34.836009 ], [ -58.621134511999969, -34.835814981999931 ], [ -58.621122, -34.835795 ], [ -58.620943, -34.835571 ], [ -58.620799, -34.835205 ], [ -58.620721, -34.834801 ], [ -58.620674604999977, -34.834662544999958 ], [ -58.620594, -34.834422 ], [ -58.620550426999955, -34.834282826999981 ], [ -58.62046, -34.833994 ], [ -58.620324633999985, -34.833695629999966 ], [ -58.620269, -34.833573 ], [ -58.620228118999933, -34.833393969999975 ], [ -58.620227840999974, -34.833393090999948 ], [ -58.620182, -34.833192 ], [ -58.620139368999958, -34.833119712999974 ], [ -58.62009, -34.833036 ], [ -58.619952258999945, -34.832800507999934 ], [ -58.619885, -34.832511 ], [ -58.619816, -34.832296 ], [ -58.619735, -34.832109 ], [ -58.619655, -34.83194 ], [ -58.619649318999961, -34.831913623999981 ], [ -58.619641, -34.831875 ], [ -58.619627, -34.831809 ], [ -58.619599, -34.831628 ], [ -58.61966, -34.831389 ], [ -58.619715, -34.831171 ], [ -58.619722, -34.830942 ], [ -58.619706, -34.8307 ], [ -58.619651815999987, -34.830486651999934 ], [ -58.61965177999997, -34.83048630199994 ], [ -58.619651691999934, -34.830486058999952 ], [ -58.619642, -34.830448 ], [ -58.619566, -34.830289 ], [ -58.619471, -34.83013 ], [ -58.619337, -34.830004 ], [ -58.619151, -34.82994 ], [ -58.619088998999985, -34.829924232999929 ], [ -58.61886, -34.829866 ], [ -58.618758644999957, -34.829813896999951 ], [ -58.618611, -34.829738 ], [ -58.618447960999958, -34.829681125999969 ], [ -58.618396, -34.829663 ], [ -58.618095, -34.829455 ], [ -58.618033170999979, -34.829393170999936 ], [ -58.617892, -34.829252 ], [ -58.617755110999951, -34.829143432999956 ], [ -58.617747, -34.829137 ], [ -58.617744995999942, -34.82913063999996 ], [ -58.617643, -34.828807 ], [ -58.61757, -34.828444 ], [ -58.617526, -34.828082 ], [ -58.617499, -34.827838 ], [ -58.617495, -34.827552 ], [ -58.617409, -34.827292 ], [ -58.617304, -34.826966 ], [ -58.61724, -34.826685 ], [ -58.61712, -34.82639 ], [ -58.617148, -34.826135 ], [ -58.617121, -34.825919 ], [ -58.617085, -34.825724 ], [ -58.61696535599998, -34.825656802999958 ], [ -58.616939, -34.825642 ], [ -58.616931712999985, -34.825621069999954 ], [ -58.616887606999967, -34.825494392999929 ], [ -58.616853, -34.825395 ], [ -58.616760175999957, -34.825242112999945 ], [ -58.6167, -34.825143 ], [ -58.616695534999963, -34.825122775999944 ], [ -58.616648998999949, -34.824912 ], [ -58.616589980999947, -34.824791150999943 ], [ -58.616523, -34.824654 ], [ -58.616457669999932, -34.824387955999953 ], [ -58.61644, -34.824316 ], [ -58.616422977999946, -34.824261838999973 ], [ -58.616209, -34.823581 ], [ -58.616103842999962, -34.823121757999957 ], [ -58.616081170999962, -34.823022745999936 ], [ -58.616081191999967, -34.82302145999995 ], [ -58.616110349999985, -34.822939593999934 ], [ -58.616235050999933, -34.822589471999947 ], [ -58.616587, -34.822406 ], [ -58.616863, -34.822198 ], [ -58.616906694999955, -34.822059026999966 ], [ -58.616942274999985, -34.821945862999939 ], [ -58.616985364999948, -34.821808810999983 ], [ -58.617001994999953, -34.821755917999951 ], [ -58.617007, -34.82174 ], [ -58.617002316999958, -34.821730129999935 ], [ -58.616971917999933, -34.821666050999966 ], [ -58.61695, -34.821553 ], [ -58.616877, -34.82132 ], [ -58.616809466999939, -34.821134024999935 ], [ -58.616746998999986, -34.820962 ], [ -58.616607, -34.820605 ], [ -58.616437, -34.820272 ], [ -58.616289, -34.820086 ], [ -58.616246772999943, -34.820042094999963 ], [ -58.616138, -34.819929 ], [ -58.616123644999959, -34.819910869999944 ], [ -58.615872534999937, -34.819593726999983 ], [ -58.615868, -34.819588 ], [ -58.615864803999955, -34.819578264999961 ], [ -58.615759, -34.819256 ], [ -58.615696, -34.818985 ], [ -58.61562, -34.81872 ], [ -58.615506, -34.818527 ], [ -58.615379, -34.818353 ], [ -58.615192, -34.818108 ], [ -58.615028, -34.817949 ], [ -58.614946757999974, -34.817870265999943 ], [ -58.614866, -34.817792 ], [ -58.614666, -34.817668 ], [ -58.614373, -34.817531 ], [ -58.614198715999976, -34.817459740999936 ], [ -58.61417, -34.817448 ], [ -58.613992696999958, -34.817423736999956 ], [ -58.61398, -34.817422 ], [ -58.613972783999941, -34.817420256999981 ], [ -58.613715, -34.817358 ], [ -58.613524, -34.817299 ], [ -58.613445276999983, -34.817271708999954 ], [ -58.613374, -34.817247 ], [ -58.613200648999964, -34.817117870999937 ], [ -58.61319597399995, -34.817114388999983 ], [ -58.613177998999959, -34.817101 ], [ -58.613027, -34.816955 ], [ -58.612969892999956, -34.816881753999951 ], [ -58.612889, -34.816778 ], [ -58.612806, -34.816632 ], [ -58.612704, -34.816521 ], [ -58.612642923999942, -34.816469230999928 ], [ -58.612599, -34.816432 ], [ -58.61259539699995, -34.816409029999932 ], [ -58.612575, -34.816279 ], [ -58.612483, -34.816185 ], [ -58.612335, -34.816075 ], [ -58.612084, -34.815828 ], [ -58.61145, -34.815208 ], [ -58.611332, -34.81501 ], [ -58.61088, -34.81455 ], [ -58.610835, -34.81451 ], [ -58.610567, -34.814277 ], [ -58.610118365999938, -34.813916605999964 ], [ -58.610084, -34.813889 ], [ -58.61007342299996, -34.813867168999934 ], [ -58.609959, -34.813631 ], [ -58.609865955999965, -34.813466319999975 ], [ -58.609846, -34.813431 ], [ -58.609842162999939, -34.813402078999957 ], [ -58.609833, -34.813333 ], [ -58.609781875999943, -34.813262212999973 ], [ -58.609768, -34.813243 ], [ -58.609744189999958, -34.813200017999975 ], [ -58.609691, -34.813104 ], [ -58.609592762999966, -34.813040620999971 ], [ -58.609496227999955, -34.812978340999962 ], [ -58.609474, -34.812964 ], [ -58.609321, -34.812879 ], [ -58.60911398099995, -34.812874066999939 ], [ -58.608873, -34.812798 ], [ -58.608790918999944, -34.812785664999979 ], [ -58.608507, -34.812743 ], [ -58.608429827999942, -34.81272576899994 ], [ -58.608086, -34.812649 ], [ -58.607858944999975, -34.812579811999967 ], [ -58.607853, -34.812578 ], [ -58.607849359999932, -34.812575550999952 ], [ -58.607823413999938, -34.812558095999975 ], [ -58.607633, -34.81243 ], [ -58.607551279999939, -34.812282904999961 ], [ -58.607528, -34.812241 ], [ -58.607444732999966, -34.812081787999944 ], [ -58.607346, -34.811893 ], [ -58.607276, -34.81176 ], [ -58.607145, -34.811672 ], [ -58.606952, -34.811333 ], [ -58.606959, -34.811177 ], [ -58.606958628999962, -34.811175476999949 ], [ -58.606929, -34.811054 ], [ -58.606828, -34.810932 ], [ -58.606819844999961, -34.810921919999942 ], [ -58.606789497999955, -34.81088441299994 ], [ -58.606739, -34.810822 ], [ -58.606595, -34.810707 ], [ -58.606366, -34.810662 ], [ -58.606112, -34.810634 ], [ -58.605991807999942, -34.810604100999967 ], [ -58.605911, -34.810584 ], [ -58.605752, -34.81054 ], [ -58.605742573999976, -34.810536318999937 ], [ -58.605647, -34.810499 ], [ -58.605403, -34.810448 ], [ -58.605201998999974, -34.810367 ], [ -58.605082, -34.81032 ], [ -58.604841457999953, -34.810214095999982 ], [ -58.604789, -34.810191 ], [ -58.604562, -34.810053 ], [ -58.604347, -34.809888 ], [ -58.604271, -34.809806 ], [ -58.604237624999939, -34.809779415999969 ], [ -58.604099, -34.809669 ], [ -58.603979, -34.809623 ], [ -58.603849, -34.809594 ], [ -58.603729, -34.809584 ], [ -58.603581, -34.809592 ], [ -58.603448, -34.809661 ], [ -58.603365458999974, -34.809690734999947 ], [ -58.603287, -34.809719 ], [ -58.603184793999958, -34.809709863999956 ], [ -58.603108, -34.809703 ], [ -58.602883, -34.809743 ], [ -58.602780786999972, -34.809793123999953 ], [ -58.602675, -34.809845 ], [ -58.602654791999953, -34.809844673999976 ], [ -58.602551, -34.809843 ], [ -58.60248, -34.809904 ], [ -58.602444466999941, -34.809956491999969 ], [ -58.602436, -34.809969 ], [ -58.602381, -34.81013 ], [ -58.602299, -34.810295 ], [ -58.60215, -34.810395 ], [ -58.602042661999974, -34.810467565999943 ], [ -58.602008, -34.810491 ], [ -58.601873, -34.810602 ], [ -58.601713, -34.810779 ], [ -58.601544, -34.810942 ], [ -58.601507539999943, -34.811005007999938 ], [ -58.601441, -34.81112 ], [ -58.601271, -34.811229 ], [ -58.60120419499998, -34.81126962999997 ], [ -58.601110392999942, -34.811326678999933 ], [ -58.6011, -34.811333 ], [ -58.600872, -34.81145 ], [ -58.600694234999935, -34.81145 ], [ -58.600661, -34.81145 ], [ -58.600435, -34.811425 ], [ -58.600277, -34.81139 ], [ -58.600083, -34.811309 ], [ -58.599844, -34.81118 ], [ -58.599793896999984, -34.811148762999949 ], [ -58.599682, -34.811079 ], [ -58.599588505999975, -34.810994216999973 ], [ -58.599537, -34.81085 ], [ -58.599350622999964, -34.81046710399994 ], [ -58.599344, -34.810381 ], [ -58.599291, -34.81016 ], [ -58.599224, -34.810033 ], [ -58.599121, -34.80987 ], [ -58.598999, -34.809669 ], [ -58.598824998999987, -34.809401 ], [ -58.598756, -34.809247 ], [ -58.59869, -34.809037 ], [ -58.598596, -34.808841 ], [ -58.598468, -34.808699 ], [ -58.598324, -34.808525 ], [ -58.598219, -34.808441 ], [ -58.598174, -34.808331 ], [ -58.598081503999936, -34.808245977999945 ], [ -58.598075, -34.80824 ], [ -58.598027, -34.80813 ], [ -58.598063998999976, -34.807893 ], [ -58.598156, -34.807731 ], [ -58.598160717999974, -34.807724955999959 ], [ -58.598235840999962, -34.807628730999966 ], [ -58.598245, -34.807617 ], [ -58.598291, -34.807438 ], [ -58.598256, -34.807287 ], [ -58.598041, -34.807145 ], [ -58.598007269999982, -34.807133547999968 ], [ -58.597826, -34.807072 ], [ -58.597462, -34.806923 ], [ -58.597201, -34.806695 ], [ -58.597180243999958, -34.806600243999981 ], [ -58.597178, -34.80659 ], [ -58.597166998999967, -34.806539 ], [ -58.597154, -34.806477 ], [ -58.597115874999986, -34.806261914999936 ], [ -58.597101, -34.806178 ], [ -58.59713530199997, -34.805896870999959 ], [ -58.597147, -34.805883 ], [ -58.597272, -34.805555 ], [ -58.597411, -34.805397 ], [ -58.597506128999953, -34.80529490999993 ], [ -58.597515510999983, -34.805294759999981 ], [ -58.597563, -34.805294 ], [ -58.597637, -34.805211 ], [ -58.597676, -34.805083 ], [ -58.59766, -34.804952 ], [ -58.597586, -34.804831 ], [ -58.597549018999985, -34.804806218999943 ], [ -58.597489, -34.804766 ], [ -58.597376, -34.804671 ], [ -58.597224, -34.804609 ], [ -58.597029, -34.804614 ], [ -58.596881, -34.804612 ], [ -58.596708, -34.804654 ], [ -58.596585, -34.804696 ], [ -58.596467110999981, -34.804741984999964 ], [ -58.596444, -34.804751 ], [ -58.596326, -34.804812 ], [ -58.596204, -34.804885 ], [ -58.596065, -34.804983 ], [ -58.596048679999967, -34.805017970999984 ], [ -58.596002, -34.805118 ], [ -58.595941, -34.805245 ], [ -58.595842, -34.805435 ], [ -58.595801800999936, -34.805495936999932 ], [ -58.595773713999961, -34.805538512999931 ], [ -58.595716, -34.805626 ], [ -58.59566694199998, -34.805659333999984 ], [ -58.59560313999998, -34.80570268699995 ], [ -58.59556, -34.805732 ], [ -58.595519477999972, -34.805740931999935 ], [ -58.595374, -34.805773 ], [ -58.595184, -34.805794 ], [ -58.595054, -34.805809 ], [ -58.59490541599996, -34.805804825999928 ], [ -58.594876, -34.805804 ], [ -58.594714, -34.805752 ], [ -58.594587, -34.805676 ], [ -58.594479, -34.805573 ], [ -58.594459, -34.80547 ], [ -58.59439, -34.805363 ], [ -58.594306, -34.805275 ], [ -58.594268, -34.805093 ], [ -58.594275, -34.804953 ], [ -58.594293242999981, -34.80485135899994 ], [ -58.594321, -34.804821 ], [ -58.594336758999987, -34.804800758999932 ], [ -58.594373073999975, -34.80475411599997 ], [ -58.594539, -34.804541 ], [ -58.594624694999936, -34.804503353999962 ], [ -58.594712, -34.804465 ], [ -58.594788602999984, -34.804451612999969 ], [ -58.595124, -34.804393 ], [ -58.595519, -34.804305 ], [ -58.595704254999987, -34.804242226999975 ], [ -58.595748511999943, -34.80422723099997 ], [ -58.595761, -34.804223 ], [ -58.595768335999935, -34.804209919999948 ], [ -58.595829769999966, -34.804100381999945 ], [ -58.595867, -34.804034 ], [ -58.595961, -34.803864 ], [ -58.595904, -34.803686 ], [ -58.595798, -34.80356 ], [ -58.595665, -34.803487 ], [ -58.59545, -34.803409 ], [ -58.595231, -34.803291 ], [ -58.594985, -34.803163 ], [ -58.594783, -34.803028 ], [ -58.594474, -34.802688 ], [ -58.594327, -34.802446 ], [ -58.594280998999977, -34.802281 ], [ -58.594279569999969, -34.80214584099997 ], [ -58.594278490999955, -34.802043908999963 ], [ -58.59428, -34.802023 ], [ -58.594321, -34.801874 ], [ -58.594334, -34.801757 ], [ -58.594307, -34.801615 ], [ -58.594215, -34.801497 ], [ -58.594131, -34.80138 ], [ -58.594036, -34.801225 ], [ -58.593923202999974, -34.801122660999965 ], [ -58.593885, -34.801088 ], [ -58.593738, -34.800984 ], [ -58.593561, -34.800882 ], [ -58.593360532999952, -34.800789831999964 ], [ -58.5933, -34.800762 ], [ -58.593112, -34.80067 ], [ -58.592951, -34.800554 ], [ -58.59264, -34.800277 ], [ -58.592522, -34.800119 ], [ -58.592486916999974, -34.800044567999976 ], [ -58.592482, -34.799811 ], [ -58.592469736999988, -34.799733532999937 ], [ -58.592542, -34.799555 ], [ -58.592575, -34.799383 ], [ -58.592576832999953, -34.799371204999943 ], [ -58.592598, -34.799235 ], [ -58.592558, -34.799097 ], [ -58.592549662999943, -34.799087423999936 ], [ -58.592457, -34.798981 ], [ -58.592395991999979, -34.798916978999955 ], [ -58.592376, -34.798896 ], [ -58.59234665799994, -34.798878081999931 ], [ -58.59234618499994, -34.798877730999948 ], [ -58.592345859999966, -34.798877562999962 ], [ -58.592245, -34.798816 ], [ -58.592085, -34.798755 ], [ -58.591901, -34.798665 ], [ -58.591745998999954, -34.798626 ], [ -58.591604, -34.798548 ], [ -58.59149, -34.798539 ], [ -58.591409, -34.798488 ], [ -58.591296998999951, -34.798436 ], [ -58.591003, -34.798338 ], [ -58.590819, -34.798291 ], [ -58.59058, -34.798202 ], [ -58.590351, -34.798145 ], [ -58.590219, -34.798086 ], [ -58.590115892999961, -34.798036940999964 ], [ -58.590095, -34.798027 ], [ -58.589963, -34.797931 ], [ -58.589944572999968, -34.797916891999932 ], [ -58.589834998999947, -34.797833 ], [ -58.589802647999932, -34.797798059999934 ], [ -58.58976, -34.797752 ], [ -58.58974233899994, -34.797645402999933 ], [ -58.589732, -34.797583 ], [ -58.589728, -34.797413 ], [ -58.589744018999966, -34.797267304999934 ], [ -58.589749, -34.797222 ], [ -58.589815657999964, -34.797093683999947 ], [ -58.589829, -34.797068 ], [ -58.589957, -34.796934 ], [ -58.590097, -34.796857 ], [ -58.590281, -34.796764 ], [ -58.590344555999934, -34.796736295999949 ], [ -58.590515, -34.796662 ], [ -58.59058902299995, -34.796603524999966 ], [ -58.590714122999941, -34.796504701999936 ], [ -58.590734, -34.796489 ], [ -58.590896, -34.796301 ], [ -58.590922440999975, -34.796223672999929 ], [ -58.590922960999933, -34.796206758999972 ], [ -58.59093, -34.795978 ], [ -58.590762, -34.795751 ], [ -58.590534, -34.795541 ], [ -58.590223, -34.795306 ], [ -58.589799, -34.794936 ], [ -58.589204, -34.794452 ], [ -58.588701, -34.793948 ], [ -58.588446, -34.793723 ], [ -58.588173, -34.793455 ], [ -58.587907, -34.7932 ], [ -58.587682, -34.792937 ], [ -58.587542, -34.792727 ], [ -58.587501, -34.792395 ], [ -58.587512367999977, -34.792257548999942 ], [ -58.587523, -34.792129 ], [ -58.587524691999931, -34.792125559999931 ], [ -58.587616, -34.79194 ], [ -58.587863, -34.791725 ], [ -58.588172, -34.791581 ], [ -58.58843, -34.791383 ], [ -58.588480154999957, -34.791112335999969 ], [ -58.588488, -34.79107 ], [ -58.588485755999955, -34.791009516999964 ], [ -58.588519, -34.79083 ], [ -58.588524, -34.790576 ], [ -58.58851126199994, -34.790430231999949 ], [ -58.588506, -34.79037 ], [ -58.588499747999947, -34.790323456999943 ], [ -58.588479, -34.790169 ], [ -58.588463078999951, -34.790086905999942 ], [ -58.588460686999952, -34.789767558999984 ], [ -58.588459695999973, -34.789635167999961 ], [ -58.588455587999931, -34.78908665299997 ], [ -58.588453, -34.788741 ], [ -58.588418, -34.788315 ], [ -58.588278, -34.787852 ], [ -58.588149, -34.787336 ], [ -58.588008, -34.786907 ], [ -58.587936, -34.786576 ], [ -58.587784, -34.786261 ], [ -58.587572, -34.785985 ], [ -58.587288, -34.785673 ], [ -58.586672, -34.785341 ], [ -58.586141, -34.784934 ], [ -58.585446, -34.783838 ], [ -58.584713, -34.783393 ], [ -58.584475, -34.783085 ], [ -58.584364, -34.782744 ], [ -58.584331, -34.782338 ], [ -58.584390074999988, -34.782227275999958 ], [ -58.584645469999941, -34.78174858999995 ], [ -58.584864, -34.781339 ], [ -58.585079, -34.781141 ], [ -58.585429, -34.781084 ], [ -58.585795, -34.780979 ], [ -58.585907283999973, -34.780937088999963 ], [ -58.58597928599994, -34.78091021399996 ], [ -58.586154, -34.780845 ], [ -58.58627, -34.78058 ], [ -58.58634, -34.780372 ], [ -58.586166, -34.780144 ], [ -58.585686, -34.779675 ], [ -58.585063, -34.779279 ], [ -58.584447, -34.778792 ], [ -58.584286, -34.778612 ], [ -58.583845, -34.778174 ], [ -58.583627, -34.777902 ], [ -58.58322, -34.7776 ], [ -58.582946, -34.777562 ], [ -58.582525, -34.777453 ], [ -58.582127, -34.777413 ], [ -58.581866, -34.77731 ], [ -58.58156, -34.777 ], [ -58.581308, -34.776753 ], [ -58.581076, -34.776533 ], [ -58.580746998999984, -34.776384 ], [ -58.580395998999961, -34.77643 ], [ -58.580074, -34.776682 ], [ -58.579764, -34.777052 ], [ -58.579414, -34.777354 ], [ -58.578888, -34.77784 ], [ -58.578505, -34.778119 ], [ -58.578139, -34.77821 ], [ -58.577794, -34.77825 ], [ -58.577559, -34.77818 ], [ -58.576961, -34.778034 ], [ -58.576425, -34.777805 ], [ -58.575804, -34.777386 ], [ -58.575784932999966, -34.777370021999957 ], [ -58.57526699899995, -34.776936 ], [ -58.574602, -34.77636 ], [ -58.573741, -34.775782 ], [ -58.573466, -34.775662 ], [ -58.573116, -34.775602 ], [ -58.572538, -34.775451 ], [ -58.572171, -34.775224 ], [ -58.57208, -34.774997 ], [ -58.571996, -34.774372 ], [ -58.572023, -34.774027 ], [ -58.572030407999932, -34.773927279999953 ], [ -58.572048998999946, -34.773677 ], [ -58.572178445999953, -34.773490741999979 ], [ -58.572220303999984, -34.773430512999937 ], [ -58.572229, -34.773418 ], [ -58.572407, -34.773269 ], [ -58.57269, -34.773054 ], [ -58.573153, -34.772876 ], [ -58.573335, -34.772828 ], [ -58.573724, -34.77292 ], [ -58.574274, -34.773083 ], [ -58.574752, -34.773133 ], [ -58.574894388999951, -34.773049704999949 ], [ -58.575024, -34.773028 ], [ -58.57513, -34.772937 ], [ -58.575208, -34.772757 ], [ -58.575231, -34.772549 ], [ -58.575188998999977, -34.772391 ], [ -58.575101, -34.772257 ], [ -58.574957, -34.772153 ], [ -58.57481, -34.772047 ], [ -58.574566, -34.771949 ], [ -58.574366, -34.77185 ], [ -58.574213, -34.771732 ], [ -58.574126, -34.771617 ], [ -58.574051, -34.771481 ], [ -58.573974690999933, -34.771314016999952 ], [ -58.573966, -34.771295 ], [ -58.573916633999943, -34.771107782999934 ], [ -58.573913, -34.771094 ], [ -58.573846, -34.770828000999984 ], [ -58.573803998999949, -34.770666 ], [ -58.57379872599995, -34.770602130999976 ], [ -58.573795, -34.770557 ], [ -58.5738, -34.770411 ], [ -58.573817361999943, -34.77035060999998 ], [ -58.573907142999985, -34.770299947999945 ], [ -58.574063, -34.770212 ], [ -58.574307, -34.770115 ], [ -58.574539, -34.769978 ], [ -58.574715412999979, -34.769753691999938 ], [ -58.57475999899998, -34.769697 ], [ -58.574770726999986, -34.769632632999958 ], [ -58.574798, -34.769469 ], [ -58.574836, -34.769197 ], [ -58.574869, -34.76883 ], [ -58.574834, -34.768529 ], [ -58.574707, -34.768312 ], [ -58.574381, -34.768041 ], [ -58.574183, -34.767822 ], [ -58.574105, -34.767615 ], [ -58.574151, -34.767298 ], [ -58.574142, -34.767064 ], [ -58.574003, -34.76689 ], [ -58.573816, -34.766777 ], [ -58.573554, -34.766712 ], [ -58.573131, -34.766734 ], [ -58.572793, -34.766753 ], [ -58.57209, -34.766839 ], [ -58.571671, -34.766845 ], [ -58.570884, -34.76683 ], [ -58.570835, -34.766819 ], [ -58.570385, -34.766691 ], [ -58.570192, -34.766516 ], [ -58.570059, -34.766206 ], [ -58.57005, -34.765961 ], [ -58.569838, -34.765708 ], [ -58.569732, -34.765617 ], [ -58.569503, -34.765548 ], [ -58.569233, -34.765562 ], [ -58.569009, -34.765665 ], [ -58.568749, -34.765829 ], [ -58.568518, -34.765932 ], [ -58.568194, -34.765956 ], [ -58.567864, -34.765907 ], [ -58.567596, -34.765754 ], [ -58.567545, -34.765586 ], [ -58.567575, -34.765403 ], [ -58.567604329999938, -34.765276233999941 ], [ -58.567604, -34.765232 ], [ -58.567643545999942, -34.765099238999937 ], [ -58.567671, -34.764959 ], [ -58.567756, -34.764709 ], [ -58.567813119999983, -34.764560975999984 ], [ -58.56792, -34.764284 ], [ -58.568040895999957, -34.76418449199997 ], [ -58.56818, -34.76407 ], [ -58.568419, -34.763873 ], [ -58.568538819999958, -34.763764042999981 ], [ -58.568587116999936, -34.763720124999963 ], [ -58.568794, -34.763532 ], [ -58.568997, -34.763248 ], [ -58.569178, -34.762913 ], [ -58.569238, -34.76259 ], [ -58.56934, -34.76212 ], [ -58.569336, -34.761992 ], [ -58.569186, -34.761662 ], [ -58.569021, -34.761437 ], [ -58.568795, -34.761284 ], [ -58.568581, -34.761165 ], [ -58.568375, -34.760984 ], [ -58.568276, -34.760827 ], [ -58.568245998999942, -34.760621 ], [ -58.56831, -34.760421 ], [ -58.568367, -34.760221 ], [ -58.56835, -34.760049 ], [ -58.568327, -34.759838 ], [ -58.568345, -34.759549 ], [ -58.568362998999987, -34.759293 ], [ -58.568326, -34.759131 ], [ -58.568246998999939, -34.758991 ], [ -58.568155, -34.758829 ], [ -58.568002, -34.758699 ], [ -58.567797998999936, -34.758611 ], [ -58.567538, -34.758446 ], [ -58.567392, -34.758306 ], [ -58.56726, -34.758087 ], [ -58.567095, -34.757879 ], [ -58.566983, -34.757761 ], [ -58.566789, -34.757647 ], [ -58.566507, -34.757566 ], [ -58.566232, -34.757451 ], [ -58.565924, -34.757325 ], [ -58.565698, -34.757272 ], [ -58.565482, -34.757286 ], [ -58.565063, -34.757331 ], [ -58.564799, -34.757334 ], [ -58.564482, -34.757336 ], [ -58.564104, -34.757353 ], [ -58.563678, -34.757376 ], [ -58.563247, -34.757332 ], [ -58.562849, -34.757327 ], [ -58.562532998999984, -34.757274 ], [ -58.562075, -34.75724 ], [ -58.561603, -34.757277 ], [ -58.561082, -34.757338 ], [ -58.560643, -34.757344 ], [ -58.560382, -34.757257 ], [ -58.560115, -34.757059 ], [ -58.559977, -34.756874 ], [ -58.559832, -34.75665 ], [ -58.559673, -34.75647 ], [ -58.559555, -34.75629 ], [ -58.559381, -34.756188 ], [ -58.559167, -34.756113 ], [ -58.558963998999957, -34.75611 ], [ -58.55881, -34.7562 ], [ -58.558576, -34.756481 ], [ -58.558336, -34.756706 ], [ -58.558097, -34.756865 ], [ -58.557805, -34.756984 ], [ -58.557499, -34.757103 ], [ -58.557187, -34.757177 ], [ -58.556781, -34.757216 ], [ -58.55656, -34.757136 ], [ -58.556395, -34.756928 ], [ -58.556132, -34.756518 ], [ -58.555925, -34.756217 ], [ -58.555748, -34.755953 ], [ -58.555522, -34.755756 ], [ -58.555127, -34.755545 ], [ -58.554672, -34.755317 ], [ -58.554319, -34.75504 ], [ -58.554201, -34.754844 ], [ -58.554065, -34.754443 ], [ -58.553919, -34.754303 ], [ -58.55376, -34.754095 ], [ -58.553522998999938, -34.75378 ], [ -58.553298, -34.753533 ], [ -58.553254, -34.753326 ], [ -58.55317, -34.753097 ], [ -58.553149, -34.752802 ], [ -58.553043, -34.752599 ], [ -58.552837, -34.752009 ], [ -58.552635, -34.751634 ], [ -58.552478, -34.751343 ], [ -58.552332, -34.751174 ], [ -58.552179, -34.751044 ], [ -58.551972, -34.750947 ], [ -58.551763, -34.750917 ], [ -58.551406, -34.750907 ], [ -58.551148, -34.750965 ], [ -58.551054358999977, -34.751033589999963 ], [ -58.550991, -34.75108 ], [ -58.550909913999988, -34.751176401999942 ], [ -58.550916, -34.751247 ], [ -58.55095, -34.751346 ], [ -58.551018, -34.751479 ], [ -58.551087, -34.751582 ], [ -58.551217, -34.7517 ], [ -58.551292, -34.751809 ], [ -58.551364, -34.751894 ], [ -58.551414, -34.75199 ], [ -58.551438, -34.75211 ], [ -58.551416, -34.752267 ], [ -58.551401440999939, -34.752340428999958 ], [ -58.551393, -34.752383 ], [ -58.551324, -34.752499 ], [ -58.551228, -34.752604 ], [ -58.551008, -34.752738 ], [ -58.550846, -34.752812 ], [ -58.550629, -34.752864 ], [ -58.550498, -34.752891 ], [ -58.550383603999933, -34.752904198999943 ], [ -58.55029, -34.752915 ], [ -58.550116, -34.752877 ], [ -58.550033989999974, -34.75282657899993 ], [ -58.549981, -34.752794 ], [ -58.549855, -34.752733 ], [ -58.549744, -34.752697 ], [ -58.549617, -34.752697 ], [ -58.549504, -34.752729 ], [ -58.549372, -34.752771 ], [ -58.549295, -34.75283 ], [ -58.549215, -34.752904 ], [ -58.549149, -34.753009 ], [ -58.549017998999943, -34.753215 ], [ -58.548917, -34.753367 ], [ -58.548816, -34.753501 ], [ -58.548704, -34.753644 ], [ -58.548516, -34.753813 ], [ -58.548273, -34.753937 ], [ -58.548153, -34.753971 ], [ -58.547964998999987, -34.754059 ], [ -58.547855, -34.75413 ], [ -58.547754, -34.754282 ], [ -58.547749, -34.754561 ], [ -58.547758, -34.754706 ], [ -58.547778, -34.754805 ], [ -58.547741, -34.755012 ], [ -58.547674, -34.755092 ], [ -58.547496, -34.75527 ], [ -58.547297, -34.755448 ], [ -58.547097, -34.755608 ], [ -58.546898, -34.75575 ], [ -58.546732, -34.755892 ], [ -58.54661, -34.755981 ], [ -58.54651, -34.756079 ], [ -58.546355, -34.756239 ], [ -58.546221, -34.756382 ], [ -58.546143, -34.75648 ], [ -58.54605399899998, -34.756596 ], [ -58.545975, -34.756703 ], [ -58.545941, -34.756811 ], [ -58.54597, -34.757019 ], [ -58.545979, -34.757136 ], [ -58.545954, -34.75728 ], [ -58.545886, -34.757432 ], [ -58.545829, -34.757549 ], [ -58.545773, -34.757647 ], [ -58.545717, -34.757755 ], [ -58.545649, -34.757871 ], [ -58.545706156999984, -34.757996143999947 ], [ -58.545641, -34.758144 ], [ -58.54572, -34.758273 ], [ -58.545954, -34.758393 ], [ -58.546083802999988, -34.758572654999966 ], [ -58.546016, -34.758723 ], [ -58.545882, -34.758892 ], [ -58.545585998999968, -34.758997 ], [ -58.545444, -34.758977 ], [ -58.545341618999942, -34.758945166999979 ], [ -58.545325, -34.75894 ], [ -58.545108, -34.758847 ], [ -58.544936, -34.758683 ], [ -58.54484, -34.758537 ], [ -58.544755, -34.758428 ], [ -58.544605, -34.758273 ], [ -58.544421, -34.758127 ], [ -58.544292, -34.758017 ], [ -58.544150179999974, -34.757911459999946 ], [ -58.54412, -34.757889 ], [ -58.543921, -34.757843 ], [ -58.543758, -34.757868 ], [ -58.543615, -34.757911 ], [ -58.542925, -34.758136 ], [ -58.542695, -34.758169 ], [ -58.542389, -34.758184 ], [ -58.542105, -34.758198 ], [ -58.541933529999937, -34.758158557999934 ], [ -58.54175283099994, -34.758116992999931 ], [ -58.54169, -34.758085 ], [ -58.54141494299995, -34.757965960999968 ], [ -58.540761, -34.757641 ], [ -58.540722734999974, -34.757627971999966 ], [ -58.540470841999934, -34.75754220999994 ], [ -58.540294, -34.757482 ], [ -58.540107096999975, -34.757359127999962 ], [ -58.539862, -34.757198 ], [ -58.53957252899994, -34.756991133999975 ], [ -58.539452, -34.756905 ], [ -58.539279, -34.756839 ], [ -58.539038, -34.756855 ], [ -58.53874099899997, -34.756968 ], [ -58.53827, -34.75708 ], [ -58.537887, -34.757075 ], [ -58.53761874199995, -34.756988874999934 ], [ -58.537507, -34.756953 ], [ -58.537160911999933, -34.756706660999953 ], [ -58.537108, -34.756669 ], [ -58.536679, -34.756258 ], [ -58.536554137999985, -34.756096592999938 ], [ -58.536433, -34.75594 ], [ -58.535982, -34.75552 ], [ -58.535781463999967, -34.755307007999932 ], [ -58.535765974999947, -34.755246602999932 ], [ -58.535743, -34.755157 ], [ -58.535793, -34.754974 ], [ -58.535957, -34.754859 ], [ -58.536155, -34.754756 ], [ -58.536466, -34.754693 ], [ -58.536753, -34.754512 ], [ -58.53696, -34.754248 ], [ -58.537027, -34.753892 ], [ -58.536996387999977, -34.753818467999963 ], [ -58.53693, -34.753659 ], [ -58.536786, -34.753435 ], [ -58.536633998999946, -34.753238 ], [ -58.536543, -34.753053 ], [ -58.536531356999944, -34.752991263999945 ], [ -58.5365, -34.752825 ], [ -58.536597, -34.752664 ], [ -58.536816, -34.752472 ], [ -58.537091, -34.752186 ], [ -58.537089287999947, -34.752084980999939 ], [ -58.537086125999963, -34.751898421999954 ], [ -58.537206, -34.751731 ], [ -58.53756, -34.751465 ], [ -58.537693, -34.751385 ], [ -58.538132, -34.751246 ], [ -58.538293, -34.751186 ], [ -58.538424, -34.751085 ], [ -58.53854599899995, -34.750875 ], [ -58.538521, -34.750613 ], [ -58.538391, -34.750198 ], [ -58.538363, -34.749968 ], [ -58.538348, -34.749777 ], [ -58.538349998999934, -34.749655 ], [ -58.538367, -34.749532 ], [ -58.538399133999974, -34.749384181999972 ], [ -58.538407, -34.749348 ], [ -58.538477, -34.749144 ], [ -58.53854599899995, -34.748946 ], [ -58.538591, -34.748803 ], [ -58.538652982999963, -34.748664231999953 ], [ -58.538658, -34.748653 ], [ -58.538715, -34.748461 ], [ -58.538734587999954, -34.748359250999954 ], [ -58.538751, -34.748274 ], [ -58.538798, -34.748098 ], [ -58.538856998999961, -34.747954 ], [ -58.538860128999943, -34.747943173999943 ], [ -58.538878778999958, -34.747878644999957 ], [ -58.538878481999973, -34.747866088999956 ], [ -58.538873, -34.747634 ], [ -58.538873905999935, -34.747491326999977 ], [ -58.538853, -34.747403 ], [ -58.538827, -34.74717 ], [ -58.538793880999947, -34.746996703999969 ], [ -58.538784, -34.746945 ], [ -58.538761611999973, -34.746855445999984 ], [ -58.538749, -34.746805 ], [ -58.538690918999976, -34.746762338999929 ], [ -58.538636, -34.746722 ], [ -58.538580539999941, -34.746663143999967 ], [ -58.538538, -34.746618 ], [ -58.538358, -34.746508 ], [ -58.538147, -34.746447 ], [ -58.538054184999964, -34.746433055999944 ], [ -58.537934, -34.746415 ], [ -58.537635, -34.746321 ], [ -58.537451, -34.746213 ], [ -58.537244, -34.74605 ], [ -58.537038, -34.745893 ], [ -58.536983745999976, -34.74584963999996 ], [ -58.536789, -34.745694 ], [ -58.536541, -34.74556 ], [ -58.536473471999955, -34.745479340999964 ], [ -58.536433, -34.745431 ], [ -58.536237, -34.745383 ], [ -58.536029998999936, -34.745354 ], [ -58.535867, -34.745343 ], [ -58.535747, -34.745332 ], [ -58.535249998999973, -34.745339 ], [ -58.534917767999957, -34.745366177999983 ], [ -58.534651, -34.745388 ], [ -58.534573836999982, -34.745378075999952 ], [ -58.53434, -34.745348 ], [ -58.534052, -34.745357 ], [ -58.533606, -34.745353 ], [ -58.533288, -34.745363 ], [ -58.533242788999985, -34.745368183999972 ], [ -58.533111119999944, -34.745383283999956 ], [ -58.53307, -34.745388 ], [ -58.532883, -34.745423 ], [ -58.532712, -34.745463 ], [ -58.532534, -34.745527 ], [ -58.532459845999938, -34.745546420999972 ], [ -58.532366, -34.745571 ], [ -58.53232030199996, -34.745580204999953 ], [ -58.532226998999931, -34.745599 ], [ -58.532125776999976, -34.745622985999944 ], [ -58.532016, -34.745649 ], [ -58.531918695999934, -34.745652806999942 ], [ -58.531786, -34.745658 ], [ -58.53168121899995, -34.745652719999953 ], [ -58.531528, -34.745645 ], [ -58.531334499999957, -34.74557987999998 ], [ -58.53132, -34.745575 ], [ -58.53119, -34.745486 ], [ -58.531097421999959, -34.745411646999969 ], [ -58.531063, -34.745384 ], [ -58.530922, -34.745238 ], [ -58.530822, -34.745126 ], [ -58.530685998999957, -34.745076 ], [ -58.530627998999933, -34.74489 ], [ -58.530501, -34.744712 ], [ -58.530358, -34.744575 ], [ -58.530188, -34.744489 ], [ -58.529989, -34.744405 ], [ -58.529798, -34.744349 ], [ -58.529633762999936, -34.744323109999982 ], [ -58.52932, -34.744256 ], [ -58.528793, -34.74429 ], [ -58.528496492999977, -34.744350362999967 ], [ -58.528434, -34.744355 ], [ -58.528109, -34.744361 ], [ -58.52778, -34.74434 ], [ -58.527572, -34.744301 ], [ -58.527455768999971, -34.744268291999958 ], [ -58.52718, -34.744125 ], [ -58.526599, -34.743742 ], [ -58.526375519999931, -34.743579189999934 ], [ -58.526308, -34.74353 ], [ -58.525915, -34.743179 ], [ -58.525425, -34.743012 ], [ -58.524939, -34.742864 ], [ -58.52426, -34.742344 ], [ -58.523596, -34.741902 ], [ -58.52309, -34.741506 ], [ -58.522516, -34.741204 ], [ -58.522063, -34.740927 ], [ -58.521727, -34.740888 ], [ -58.521281, -34.740916 ], [ -58.520958, -34.740953 ], [ -58.520566003999932, -34.741042351999965 ], [ -58.520554368999967, -34.741045003999943 ], [ -58.52055, -34.741046 ], [ -58.520535945999939, -34.741049090999979 ], [ -58.520528937999984, -34.741050632999929 ], [ -58.520506634999947, -34.741055539999934 ] ] ] ] } },
{ "type": "Feature", "properties": { "gid": 4363, "fna": "Municipio Cañuelas", "gna": "Municipio", "nam": "Cañuelas", "in1": "060134", "fdc": "ARBA - Gerencia de Servicios Catastrales", "sag": "IGN" }, "geometry": { "type": "MultiPolygon", "coordinates": [ [ [ [ -58.642944097999987, -34.900636986999984 ], [ -58.640318, -34.904012 ], [ -58.638278, -34.906722 ], [ -58.638239, -34.906774 ], [ -58.637284, -34.908056 ], [ -58.637122371999965, -34.908269756999971 ], [ -58.636749035999969, -34.908763505999957 ], [ -58.634629998999969, -34.911566 ], [ -58.634291, -34.91201 ], [ -58.632457, -34.914407 ], [ -58.631461, -34.915665 ], [ -58.629862, -34.917621 ], [ -58.629673, -34.917852 ], [ -58.628194998999959, -34.919755 ], [ -58.628177984999979, -34.919737735999945 ], [ -58.627926956999943, -34.919483037999953 ], [ -58.627853, -34.919408 ], [ -58.627705, -34.919265 ], [ -58.627185, -34.91876 ], [ -58.627056, -34.918654 ], [ -58.626656, -34.918345 ], [ -58.626591, -34.918344 ], [ -58.626468, -34.918389 ], [ -58.626412, -34.918425 ], [ -58.626401477999934, -34.918433399999969 ], [ -58.626357636999956, -34.918468402999963 ], [ -58.626283274999935, -34.918527771999948 ], [ -58.626268909999965, -34.918539240999962 ], [ -58.625916, -34.918821 ], [ -58.625781176999965, -34.918876824999984 ], [ -58.62566, -34.918927 ], [ -58.625655704999986, -34.918927518999965 ], [ -58.625387, -34.91896 ], [ -58.624927, -34.919178 ], [ -58.624803688999975, -34.919290267999941 ], [ -58.624742998999977, -34.919307 ], [ -58.624741197999981, -34.919307704999937 ], [ -58.624316, -34.919474 ], [ -58.624267743999951, -34.919490908999933 ], [ -58.624142873999972, -34.919534663999968 ], [ -58.623945, -34.919604 ], [ -58.623783508999963, -34.919656266999937 ], [ -58.623704, -34.919682 ], [ -58.623567958999956, -34.919750767999972 ], [ -58.623533556999973, -34.919768157999954 ], [ -58.623522, -34.919774 ], [ -58.623282, -34.919832 ], [ -58.623072, -34.919822 ], [ -58.622853, -34.919791 ], [ -58.622665, -34.919686 ], [ -58.622542, -34.919615 ], [ -58.622528860999978, -34.919608899999957 ], [ -58.62250841499997, -34.919599406999964 ], [ -58.622494482999969, -34.919602940999937 ], [ -58.621828, -34.919772 ], [ -58.621343, -34.919918 ], [ -58.621007, -34.92005 ], [ -58.620644, -34.920228 ], [ -58.620235, -34.92045 ], [ -58.619805, -34.920707 ], [ -58.619392, -34.921036 ], [ -58.619203998999978, -34.921214 ], [ -58.619059, -34.921327 ], [ -58.618823, -34.921461 ], [ -58.618633, -34.921542 ], [ -58.618401, -34.921673 ], [ -58.618319, -34.921867 ], [ -58.618308, -34.922055 ], [ -58.618445, -34.922145 ], [ -58.618453, -34.922273 ], [ -58.618404998999949, -34.922482 ], [ -58.618261, -34.922705 ], [ -58.618179, -34.922763 ], [ -58.618055, -34.922835 ], [ -58.617876, -34.922907 ], [ -58.617540697999971, -34.923021708999954 ], [ -58.617333605999931, -34.923092555999972 ], [ -58.617306, -34.923102 ], [ -58.616586, -34.923597 ], [ -58.616485, -34.923678 ], [ -58.616337998999938, -34.923823 ], [ -58.616157237999971, -34.923868351999943 ], [ -58.616059, -34.923893 ], [ -58.615528, -34.923713 ], [ -58.615484042999981, -34.923704775999965 ], [ -58.615427, -34.923779 ], [ -58.61534, -34.923742 ], [ -58.615275106999945, -34.92378343799993 ], [ -58.615257, -34.923795 ], [ -58.61505703499995, -34.92367762899994 ], [ -58.615027711999971, -34.92366041799994 ], [ -58.615020229999971, -34.92365945499995 ], [ -58.614807, -34.923632 ], [ -58.614672374999941, -34.923603687999957 ], [ -58.61463568399995, -34.92359597199993 ], [ -58.614594490999934, -34.92360040899996 ], [ -58.614589, -34.923601 ], [ -58.614545060999944, -34.923605881999947 ], [ -58.614522835999935, -34.923608351999974 ], [ -58.614500132999979, -34.923619600999984 ], [ -58.614352, -34.923693 ], [ -58.614245, -34.923793 ], [ -58.614078, -34.923856 ], [ -58.613903236999931, -34.923865688999967 ], [ -58.613899210999932, -34.92386591199994 ], [ -58.613859, -34.923888 ], [ -58.61378, -34.923894 ], [ -58.613634, -34.923898 ], [ -58.613507, -34.923913 ], [ -58.613417649999974, -34.923934817999964 ], [ -58.613301014999934, -34.923969682999939 ], [ -58.612942, -34.924077 ], [ -58.61263007499997, -34.924210132999974 ], [ -58.612624364999931, -34.924212569999952 ], [ -58.612521908999952, -34.924256298999978 ], [ -58.612479843999949, -34.924274252999965 ], [ -58.612293, -34.924354 ], [ -58.611824, -34.924458 ], [ -58.611734998999964, -34.924494 ], [ -58.611095, -34.924871 ], [ -58.610654, -34.92522 ], [ -58.611706, -34.926653 ], [ -58.611539998999945, -34.926872 ], [ -58.611376, -34.927085 ], [ -58.611316, -34.927163 ], [ -58.611257, -34.927239 ], [ -58.611198, -34.927315 ], [ -58.611142, -34.927388 ], [ -58.611087, -34.92746 ], [ -58.611031, -34.927533 ], [ -58.610973998999953, -34.927606 ], [ -58.610914, -34.927683 ], [ -58.61086, -34.927754 ], [ -58.610803, -34.927827 ], [ -58.610746, -34.927901 ], [ -58.610626, -34.928057 ], [ -58.610519, -34.928195 ], [ -58.610403, -34.928346 ], [ -58.610344, -34.928423 ], [ -58.610289, -34.928495 ], [ -58.610233998999945, -34.928566 ], [ -58.610178, -34.928639 ], [ -58.61012, -34.928713 ], [ -58.610063, -34.928788 ], [ -58.610012, -34.928854 ], [ -58.609958, -34.928924 ], [ -58.609899, -34.929001 ], [ -58.609769, -34.92917 ], [ -58.609628998999938, -34.929352 ], [ -58.609502, -34.929517 ], [ -58.609444, -34.929592 ], [ -58.609387, -34.929666 ], [ -58.609333, -34.929736 ], [ -58.609277, -34.929809 ], [ -58.609151, -34.929973 ], [ -58.609033, -34.930126 ], [ -58.608911, -34.930284 ], [ -58.608854, -34.930359 ], [ -58.608801, -34.930427 ], [ -58.608744, -34.930501 ], [ -58.608618, -34.930665 ], [ -58.608574, -34.930722 ], [ -58.607255, -34.932423 ], [ -58.606748, -34.933077 ], [ -58.606459637999933, -34.933462311999961 ], [ -58.606284, -34.933697 ], [ -58.605211, -34.935089 ], [ -58.605045998999969, -34.935192 ], [ -58.604854, -34.935458 ], [ -58.604673, -34.935687 ], [ -58.604545, -34.935807 ], [ -58.604337, -34.936074 ], [ -58.604177, -34.936297 ], [ -58.603854, -34.936703 ], [ -58.603711, -34.936914 ], [ -58.60349, -34.937198 ], [ -58.603284, -34.937475 ], [ -58.603138, -34.93767 ], [ -58.602829, -34.938059 ], [ -58.602632, -34.938303 ], [ -58.602475, -34.938518 ], [ -58.602288, -34.938772 ], [ -58.601978, -34.93917 ], [ -58.601844, -34.939332 ], [ -58.601579, -34.93969 ], [ -58.601451, -34.939847 ], [ -58.601131, -34.94029 ], [ -58.60070191799997, -34.94080585599994 ], [ -58.599057636999987, -34.942947262999951 ], [ -58.599054, -34.942952 ], [ -58.599728445999972, -34.943568438999932 ], [ -58.604961109999977, -34.948351057999957 ], [ -58.605693, -34.94902 ], [ -58.611022524999953, -34.953925675999983 ], [ -58.611037, -34.953939 ], [ -58.614143, -34.956769 ], [ -58.617081, -34.958711 ], [ -58.620151, -34.960741 ], [ -58.620113153999966, -34.960771689999945 ], [ -58.619959022999979, -34.960896672999979 ], [ -58.619839, -34.960994 ], [ -58.596456119999971, -34.977910642999973 ], [ -58.596227966999948, -34.978075703999934 ], [ -58.591134, -34.981761 ], [ -58.585733307999988, -34.985663315999943 ], [ -58.584012697999981, -34.986906556999941 ], [ -58.576922, -34.99203 ], [ -58.561334, -35.00344 ], [ -58.556963336999956, -35.006580310999937 ], [ -58.556271017999961, -35.00704838799993 ], [ -58.556386732999954, -35.007498548999934 ], [ -58.555450347999965, -35.008221267999943 ], [ -58.555357474999937, -35.008292948999951 ], [ -58.554607909999959, -35.008871475999968 ], [ -58.55426, -35.00914 ], [ -58.554384, -35.009257 ], [ -58.555637913999988, -35.010365109999952 ], [ -58.555396180999935, -35.010570758999961 ], [ -58.554385, -35.011431 ], [ -58.556318218999934, -35.012961658999984 ], [ -58.558539, -35.01472 ], [ -58.55915654599994, -35.015308002999973 ], [ -58.562657, -35.018641 ], [ -58.571202, -35.025854 ], [ -58.580758, -35.034277 ], [ -58.591953, -35.044259 ], [ -58.598557300999971, -35.050613479999981 ], [ -58.598646905999942, -35.050699694999935 ], [ -58.600439, -35.052424 ], [ -58.597233910999933, -35.055208673999971 ], [ -58.582127, -35.068334 ], [ -58.57932, -35.068346 ], [ -58.579119276999961, -35.080287820999956 ], [ -58.579076304999944, -35.082844401999978 ], [ -58.578692727999965, -35.10566486099998 ], [ -58.578349024999966, -35.126113189999955 ], [ -58.578318, -35.127959 ], [ -58.578185796999946, -35.135812665999936 ], [ -58.577918998999962, -35.151662 ], [ -58.568501, -35.159626 ], [ -58.563635592999958, -35.163471629999947 ], [ -58.558209029999944, -35.16776079899995 ], [ -58.556243941999981, -35.169314008999947 ], [ -58.554808360999971, -35.170448694999948 ], [ -58.554793745999973, -35.170460246999937 ], [ -58.553768, -35.171271 ], [ -58.558094558999983, -35.17437509399997 ], [ -58.558186540999941, -35.174441086999934 ], [ -58.55606, -35.176259 ], [ -58.555256, -35.177538 ], [ -58.55451, -35.178169 ], [ -58.554009998999959, -35.177982 ], [ -58.552634, -35.179127 ], [ -58.55064, -35.180792 ], [ -58.548773, -35.182344 ], [ -58.538605, -35.190839 ], [ -58.536956, -35.192203 ], [ -58.536682029999952, -35.191978191999965 ], [ -58.536382, -35.191732 ], [ -58.534107, -35.189868 ], [ -58.534042028999977, -35.189909359999945 ], [ -58.53373, -35.190108 ], [ -58.528414, -35.194446 ], [ -58.523925, -35.198051 ], [ -58.522729, -35.199046 ], [ -58.519399, -35.201756 ], [ -58.518554, -35.202467 ], [ -58.515018, -35.205333 ], [ -58.511233, -35.208413 ], [ -58.511147, -35.208608 ], [ -58.507776, -35.211317 ], [ -58.505263, -35.213331 ], [ -58.503102, -35.215061 ], [ -58.49575, -35.221122 ], [ -58.495483, -35.220869 ], [ -58.494303, -35.220792 ], [ -58.48789, -35.225226 ], [ -58.486718, -35.226004 ], [ -58.480826, -35.229998 ], [ -58.476866, -35.232642 ], [ -58.473006, -35.235263 ], [ -58.472918, -35.235184 ], [ -58.469546, -35.237445 ], [ -58.469031592999954, -35.237676051999983 ], [ -58.468813680999972, -35.237773929999946 ], [ -58.468651, -35.237847 ], [ -58.46797030099998, -35.238424650999946 ], [ -58.469479, -35.239728 ], [ -58.470210097999939, -35.239279929999952 ], [ -58.474967, -35.243431 ], [ -58.491732, -35.257906 ], [ -58.496389203999968, -35.261937506999971 ], [ -58.502936055999953, -35.267604785999936 ], [ -58.511985, -35.275438 ], [ -58.511861, -35.275548 ], [ -58.514622, -35.277986 ], [ -58.515061, -35.278094 ], [ -58.521154493999973, -35.283437754999966 ], [ -58.521154515999967, -35.283437773999935 ], [ -58.521154536999973, -35.283437793999951 ], [ -58.522343027999966, -35.284480053999971 ], [ -58.536672, -35.297046 ], [ -58.547096, -35.306178 ], [ -58.547938, -35.306885 ], [ -58.550961, -35.309563 ], [ -58.555338481999968, -35.313442090999956 ], [ -58.560770194999975, -35.318255384999929 ], [ -58.568011, -35.324886 ], [ -58.571653743999946, -35.328204389999939 ], [ -58.571561924999969, -35.328288111999939 ], [ -58.569183089999967, -35.330457189999947 ], [ -58.56861311199998, -35.330976908999958 ], [ -58.562296, -35.336737 ], [ -58.555889, -35.341927 ], [ -58.556166, -35.342155 ], [ -58.545279, -35.35077 ], [ -58.544702, -35.351021 ], [ -58.541343749999953, -35.353706402999933 ], [ -58.535169, -35.358644 ], [ -58.532641042999956, -35.360637069999939 ], [ -58.525111359999983, -35.366573555999935 ], [ -58.526463, -35.367707 ], [ -58.533438, -35.373563 ], [ -58.539402, -35.378575 ], [ -58.543695, -35.382178 ], [ -58.543544710999981, -35.382296361999977 ], [ -58.541572, -35.38385 ], [ -58.541438, -35.383968 ], [ -58.540917, -35.384369 ], [ -58.541158570999983, -35.384577332999982 ], [ -58.541112116999955, -35.384614082999974 ], [ -58.541025, -35.384683 ], [ -58.542632, -35.386084 ], [ -58.543971, -35.387251 ], [ -58.545279, -35.388391 ], [ -58.546516, -35.389473 ], [ -58.546951189999959, -35.389855066999985 ], [ -58.550055, -35.39258 ], [ -58.557604, -35.39929 ], [ -58.56207305099997, -35.403251011999942 ], [ -58.568696, -35.409237 ], [ -58.569981, -35.410362 ], [ -58.570387, -35.410937 ], [ -58.571003, -35.411504 ], [ -58.574607, -35.414737 ], [ -58.578322, -35.418059 ], [ -58.582084754999983, -35.421434356999953 ], [ -58.582098118999966, -35.42143667299996 ], [ -58.582573, -35.421055 ], [ -58.590042789999984, -35.415109110999936 ], [ -58.602522479999948, -35.405175383999961 ], [ -58.607314, -35.401224 ], [ -58.607154144999981, -35.40108517799996 ], [ -58.607086, -35.401026 ], [ -58.611926, -35.397076 ], [ -58.614574, -35.39486 ], [ -58.616219, -35.393525 ], [ -58.617708, -35.392293 ], [ -58.619015, -35.391224 ], [ -58.623383, -35.387647 ], [ -58.628704, -35.383297 ], [ -58.628938, -35.383111 ], [ -58.634851, -35.378175 ], [ -58.640546, -35.373467 ], [ -58.647479, -35.367732 ], [ -58.656224, -35.360626 ], [ -58.660987, -35.356716 ], [ -58.663133, -35.354955 ], [ -58.663549934999935, -35.354827354999941 ], [ -58.663832, -35.354741 ], [ -58.664498017999961, -35.354202097999973 ], [ -58.664576, -35.354139 ], [ -58.668980334999958, -35.357400678999966 ], [ -58.669317, -35.35765 ], [ -58.670373949999941, -35.35818414299996 ], [ -58.672579998999936, -35.359299 ], [ -58.673134833999939, -35.359680756999978 ], [ -58.674154, -35.360382 ], [ -58.686889, -35.35086 ], [ -58.698825, -35.34177 ], [ -58.702865, -35.338634 ], [ -58.705903, -35.336283 ], [ -58.706262, -35.335971 ], [ -58.707433696999942, -35.335092672999963 ], [ -58.707392029999937, -35.335042434999934 ], [ -58.705590516999962, -35.33287031499998 ], [ -58.702315, -35.32938 ], [ -58.701114665999967, -35.328142541999966 ], [ -58.698823, -35.32578 ], [ -58.697931998999934, -35.324857 ], [ -58.697938181999973, -35.32484924299996 ], [ -58.69834833799996, -35.324334570999952 ], [ -58.698625042999936, -35.323987354999929 ], [ -58.698658, -35.323946 ], [ -58.697824951999962, -35.32318573799995 ], [ -58.696884, -35.322327 ], [ -58.692096, -35.317948 ], [ -58.690329, -35.316297 ], [ -58.690253936999966, -35.316292403999967 ], [ -58.68993699899994, -35.316273 ], [ -58.684771, -35.311499 ], [ -58.680636, -35.307695 ], [ -58.678981, -35.306172 ], [ -58.679648295999982, -35.305678780999983 ], [ -58.678324, -35.304472 ], [ -58.680852, -35.302551 ], [ -58.699394, -35.288593 ], [ -58.705347, -35.284482 ], [ -58.71253435999995, -35.278933667999979 ], [ -58.713135, -35.27847 ], [ -58.726595, -35.268148 ], [ -58.746748, -35.252702 ], [ -58.75084504199998, -35.256522705999942 ], [ -58.752047482999956, -35.25764404499995 ], [ -58.755199, -35.260583 ], [ -58.762082, -35.266503 ], [ -58.768541, -35.271935 ], [ -58.76918, -35.272556 ], [ -58.770770998999978, -35.273978 ], [ -58.770864390999975, -35.273906173999933 ], [ -58.771026493999955, -35.273781503999942 ], [ -58.771806, -35.273182 ], [ -58.774736, -35.270954 ], [ -58.777428, -35.268881 ], [ -58.786233, -35.262066 ], [ -58.791605, -35.257913 ], [ -58.791954, -35.257585 ], [ -58.797497, -35.253379 ], [ -58.798599998999975, -35.25253 ], [ -58.81121593599994, -35.242821312999979 ], [ -58.811541445999978, -35.242570815999954 ], [ -58.811792, -35.242378 ], [ -58.811849680999956, -35.242429395999977 ], [ -58.811947, -35.242354 ], [ -58.808586329999969, -35.239320014999976 ], [ -58.822748, -35.229038 ], [ -58.828444, -35.224902 ], [ -58.828573, -35.224807 ], [ -58.828689, -35.224722 ], [ -58.847349, -35.211176 ], [ -58.858104, -35.203306 ], [ -58.867644, -35.19636 ], [ -58.867769, -35.196247 ], [ -58.867888, -35.196138 ], [ -58.88136, -35.18634 ], [ -58.894852, -35.176187 ], [ -58.893155, -35.174691 ], [ -58.89141260599996, -35.173206136999966 ], [ -58.887274552999941, -35.169679698999971 ], [ -58.886829, -35.1693 ], [ -58.886615, -35.169106 ], [ -58.886477519999971, -35.168976993999934 ], [ -58.883435, -35.166122 ], [ -58.879593, -35.162827 ], [ -58.876824, -35.160454 ], [ -58.874223984999958, -35.158173645999966 ], [ -58.868975, -35.15357 ], [ -58.870324263999976, -35.152739331999953 ], [ -58.871046, -35.152295 ], [ -58.880726, -35.144765 ], [ -58.899236, -35.130867 ], [ -58.907427, -35.124219 ], [ -58.907904, -35.123826 ], [ -58.912085, -35.120626 ], [ -58.916784, -35.117029 ], [ -58.923857, -35.11161 ], [ -58.925700046999964, -35.109990459999949 ], [ -58.92629272299996, -35.109469658999956 ], [ -58.926879, -35.109013 ], [ -58.926941, -35.1089 ], [ -58.930476, -35.106239 ], [ -58.931516, -35.105456 ], [ -58.933825384999977, -35.103712324999947 ], [ -58.934096, -35.103508 ], [ -58.927802786999962, -35.09807890999997 ], [ -58.924876, -35.095554 ], [ -58.924451082999951, -35.095188816999951 ], [ -58.92425, -35.095016 ], [ -58.923893102999955, -35.094681478999973 ], [ -58.923596, -35.094403 ], [ -58.923300499999982, -35.094142657999953 ], [ -58.923100403999968, -35.093966368999929 ], [ -58.920790133999958, -35.091930968999975 ], [ -58.92019199899994, -35.091404 ], [ -58.915557, -35.087332 ], [ -58.915477, -35.087276 ], [ -58.913643, -35.085614 ], [ -58.912375, -35.084468 ], [ -58.910593, -35.082863 ], [ -58.908089, -35.080599 ], [ -58.906018, -35.07872 ], [ -58.905776, -35.078493 ], [ -58.904158, -35.077016 ], [ -58.902886, -35.07586 ], [ -58.901942, -35.075003 ], [ -58.899869, -35.073157 ], [ -58.899687, -35.073008 ], [ -58.89766, -35.071225 ], [ -58.894993, -35.06888 ], [ -58.894881, -35.06897 ], [ -58.893282, -35.067531 ], [ -58.890693, -35.065383 ], [ -58.889881, -35.064714 ], [ -58.889766, -35.064511 ], [ -58.888521, -35.063506 ], [ -58.885708, -35.061241 ], [ -58.883589, -35.059537 ], [ -58.88079, -35.057301 ], [ -58.880457, -35.057032 ], [ -58.880549, -35.056964 ], [ -58.880639, -35.056897 ], [ -58.879408, -35.05591 ], [ -58.877467, -35.054413 ], [ -58.869743, -35.048207 ], [ -58.868608, -35.04729 ], [ -58.868426, -35.047143 ], [ -58.864032, -35.043612 ], [ -58.863171, -35.042747 ], [ -58.859132, -35.038678 ], [ -58.85876, -35.038296 ], [ -58.855318, -35.034842 ], [ -58.853574, -35.033093 ], [ -58.849428372999967, -35.028922976999979 ], [ -58.849421681999956, -35.028927339999939 ], [ -58.848283, -35.027785 ], [ -58.84287, -35.022364 ], [ -58.841473, -35.020982 ], [ -58.840713, -35.020312 ], [ -58.837693, -35.017638 ], [ -58.838421, -35.01706 ], [ -58.837996, -35.016688 ], [ -58.833795, -35.013172 ], [ -58.832843998999977, -35.012342 ], [ -58.830983, -35.010686 ], [ -58.829599, -35.009471 ], [ -58.828033, -35.008069 ], [ -58.826687, -35.006884 ], [ -58.825964, -35.006806 ], [ -58.824752, -35.005693 ], [ -58.825028, -35.005479 ], [ -58.824494, -35.005 ], [ -58.823762748999968, -35.004351808999957 ], [ -58.823596, -35.004204 ], [ -58.820978, -35.001846 ], [ -58.819422, -35.000471 ], [ -58.819248088999984, -35.000313553999945 ], [ -58.818409251999981, -34.999597426999969 ], [ -58.81777053899998, -34.999052149999955 ], [ -58.817173, -34.998551 ], [ -58.81435, -34.996099 ], [ -58.811030352999978, -34.993392081999957 ], [ -58.799105968999982, -34.983668660999967 ], [ -58.798745250999957, -34.983374522999952 ], [ -58.792137, -34.977986 ], [ -58.786573, -34.973069 ], [ -58.784691, -34.971399 ], [ -58.78455, -34.971253 ], [ -58.782225, -34.969189 ], [ -58.778734, -34.966089 ], [ -58.777570271999934, -34.965043411999943 ], [ -58.777483, -34.964965 ], [ -58.778821, -34.963922 ], [ -58.779451, -34.963444 ], [ -58.780746, -34.962435 ], [ -58.782499, -34.96107 ], [ -58.78456, -34.959457 ], [ -58.78483, -34.959254 ], [ -58.786565, -34.958324 ], [ -58.787468631999957, -34.957833658999959 ], [ -58.788852, -34.957083 ], [ -58.788753, -34.956991 ], [ -58.790564, -34.95565 ], [ -58.791082591999952, -34.95526556599998 ], [ -58.791074, -34.955258 ], [ -58.790902982999967, -34.955241588999968 ], [ -58.790876, -34.955239 ], [ -58.790743, -34.955201 ], [ -58.790567, -34.955118 ], [ -58.790382, -34.954974 ], [ -58.790201, -34.954774 ], [ -58.790037, -34.954659 ], [ -58.789933, -34.954608 ], [ -58.789695, -34.954595 ], [ -58.789109, -34.954668 ], [ -58.788621, -34.954716 ], [ -58.788426, -34.954729 ], [ -58.788214, -34.954745 ], [ -58.787747, -34.954713 ], [ -58.787051, -34.954459 ], [ -58.786822, -34.954341 ], [ -58.786639, -34.954277 ], [ -58.78652, -34.954267 ], [ -58.786299, -34.954354 ], [ -58.786077, -34.954529 ], [ -58.785876, -34.954572 ], [ -58.78542, -34.954579 ], [ -58.785206, -34.954603 ], [ -58.78473, -34.954666 ], [ -58.784544, -34.954699 ], [ -58.784312, -34.954735 ], [ -58.784002, -34.95488 ], [ -58.783738998999979, -34.955131 ], [ -58.783587, -34.955167 ], [ -58.78346, -34.95519 ], [ -58.783327, -34.955197 ], [ -58.783139, -34.955234 ], [ -58.783012, -34.955322 ], [ -58.782194, -34.955759 ], [ -58.781859, -34.955774 ], [ -58.781528, -34.955717 ], [ -58.78126, -34.95567 ], [ -58.781134, -34.95561 ], [ -58.780939, -34.955515 ], [ -58.780833, -34.955509 ], [ -58.780656, -34.955511 ], [ -58.780505, -34.95552 ], [ -58.780332, -34.95559 ], [ -58.78008, -34.95568 ], [ -58.77956, -34.955802 ], [ -58.779418, -34.95586 ], [ -58.779321, -34.955891 ], [ -58.779114, -34.955996 ], [ -58.779006, -34.956082 ], [ -58.778839, -34.956241 ], [ -58.778628, -34.956328 ], [ -58.778483, -34.956368 ], [ -58.7778, -34.956418 ], [ -58.777533, -34.956461 ], [ -58.777368028999945, -34.956506480999963 ], [ -58.777134, -34.956571 ], [ -58.77693, -34.956694 ], [ -58.776803, -34.956884 ], [ -58.776626338999961, -34.957116447999965 ], [ -58.776532, -34.957172 ], [ -58.776171, -34.957335 ], [ -58.776052, -34.957373 ], [ -58.775795, -34.957429 ], [ -58.775072, -34.957649 ], [ -58.774699, -34.957822 ], [ -58.774556, -34.957927 ], [ -58.774265, -34.958124 ], [ -58.774119, -34.95817 ], [ -58.77394, -34.958205 ], [ -58.77384, -34.958195 ], [ -58.773719, -34.958157 ], [ -58.773566, -34.958096 ], [ -58.773464, -34.958035 ], [ -58.773383998999975, -34.957906 ], [ -58.773271, -34.957694 ], [ -58.773149998999941, -34.957563 ], [ -58.773011, -34.95749 ], [ -58.772772, -34.957488 ], [ -58.772167, -34.957663 ], [ -58.771797, -34.957855 ], [ -58.771542, -34.958027 ], [ -58.771458, -34.958086 ], [ -58.771327, -34.958142 ], [ -58.771199998999975, -34.958164 ], [ -58.77107, -34.958169 ], [ -58.770871, -34.958183 ], [ -58.770359, -34.958187 ], [ -58.770227, -34.958212 ], [ -58.770038, -34.958268 ], [ -58.769713, -34.958364 ], [ -58.769354, -34.958433 ], [ -58.769192, -34.958457 ], [ -58.769098, -34.958467 ], [ -58.768118, -34.958531 ], [ -58.767739, -34.958618 ], [ -58.767524, -34.958657 ], [ -58.767182, -34.958659 ], [ -58.766869998999937, -34.958701 ], [ -58.766412, -34.958834 ], [ -58.76591, -34.958994 ], [ -58.765657, -34.959035 ], [ -58.765497, -34.959026 ], [ -58.765341, -34.958997 ], [ -58.76522, -34.95895 ], [ -58.764349, -34.958579 ], [ -58.76408, -34.958485 ], [ -58.76387, -34.958352 ], [ -58.763778, -34.958245 ], [ -58.763203998999984, -34.957979 ], [ -58.763095, -34.95787 ], [ -58.763075767999965, -34.957841276999943 ], [ -58.762941, -34.95764 ], [ -58.762731902999974, -34.95738850999993 ], [ -58.762576, -34.957201 ], [ -58.762416, -34.957056 ], [ -58.761955, -34.95675 ], [ -58.761675, -34.956491 ], [ -58.761378, -34.956115 ], [ -58.761198, -34.955769 ], [ -58.761181787999988, -34.955719429999931 ], [ -58.761094, -34.955451 ], [ -58.760925054999973, -34.955155038999976 ], [ -58.760837127999935, -34.955001005999975 ], [ -58.760683, -34.954731 ], [ -58.760677274999978, -34.954724738999971 ], [ -58.760427, -34.954451 ], [ -58.760394282999982, -34.954355692999968 ], [ -58.760312, -34.954116 ], [ -58.759856, -34.953763 ], [ -58.759746, -34.953678 ], [ -58.759654, -34.9536 ], [ -58.759561, -34.953485 ], [ -58.759474, -34.953411 ], [ -58.759308, -34.9533 ], [ -58.759045, -34.953131 ], [ -58.758977, -34.952962 ], [ -58.758927, -34.952644 ], [ -58.75885, -34.95233 ], [ -58.758676, -34.952197 ], [ -58.758593, -34.952057 ], [ -58.758459, -34.951874 ], [ -58.758219, -34.951531 ], [ -58.757924, -34.951272 ], [ -58.757495, -34.950699 ], [ -58.757322, -34.95062 ], [ -58.757224, -34.950548 ], [ -58.757114, -34.950375 ], [ -58.756934, -34.950123 ], [ -58.756889, -34.94983 ], [ -58.756569, -34.949624 ], [ -58.756417, -34.949463 ], [ -58.75625, -34.949246 ], [ -58.756178, -34.948959 ], [ -58.756149, -34.948603 ], [ -58.75601, -34.948316 ], [ -58.75583, -34.948053 ], [ -58.755492, -34.947753 ], [ -58.755285, -34.947502 ], [ -58.755021, -34.947392 ], [ -58.754876998999976, -34.947334 ], [ -58.75473999899998, -34.947245 ], [ -58.754677, -34.94709 ], [ -58.754355, -34.946684 ], [ -58.754275, -34.946475 ], [ -58.754194998999935, -34.946279 ], [ -58.754248, -34.946029 ], [ -58.754286, -34.945763 ], [ -58.754276, -34.945416 ], [ -58.754254, -34.945297 ], [ -58.754135998999971, -34.945106 ], [ -58.753964, -34.944941 ], [ -58.753599, -34.944452 ], [ -58.753597, -34.944245 ], [ -58.753342, -34.944175 ], [ -58.753117, -34.943787 ], [ -58.752832, -34.943563 ], [ -58.752744, -34.943427 ], [ -58.752683, -34.943317 ], [ -58.752616, -34.943208 ], [ -58.752524, -34.943126 ], [ -58.75237, -34.942993 ], [ -58.752222, -34.942878 ], [ -58.752161, -34.942751 ], [ -58.752061, -34.942629 ], [ -58.751951, -34.942539 ], [ -58.751869, -34.942405 ], [ -58.751791, -34.942268 ], [ -58.751727, -34.942122 ], [ -58.751515, -34.941703 ], [ -58.751407, -34.941676 ], [ -58.751366, -34.941567 ], [ -58.751353682999934, -34.941534311999931 ], [ -58.75134, -34.941498 ], [ -58.751282, -34.941406 ], [ -58.751248, -34.941238 ], [ -58.751178, -34.941152 ], [ -58.75118, -34.941042 ], [ -58.75117, -34.940923 ], [ -58.751138, -34.940849 ], [ -58.751073, -34.940748 ], [ -58.750808, -34.940644 ], [ -58.750169, -34.940669 ], [ -58.749922, -34.940669 ], [ -58.749659, -34.940659 ], [ -58.749393, -34.940638 ], [ -58.749259, -34.940636 ], [ -58.74886, -34.940577 ], [ -58.748582, -34.940556 ], [ -58.748316, -34.940517 ], [ -58.748183, -34.940506 ], [ -58.747916, -34.940467 ], [ -58.747794, -34.940466 ], [ -58.747660998999947, -34.940446 ], [ -58.747568, -34.940435 ], [ -58.74749, -34.940425 ], [ -58.747228, -34.940377 ], [ -58.747107, -34.940339 ], [ -58.746819, -34.940263 ], [ -58.746774, -34.940246 ], [ -58.746575, -34.940169 ], [ -58.746498, -34.94015 ], [ -58.746365, -34.940121 ], [ -58.746232, -34.940083 ], [ -58.746132, -34.940064 ], [ -58.745999, -34.940035 ], [ -58.745877, -34.939997 ], [ -58.745745, -34.93995 ], [ -58.745646, -34.939885 ], [ -58.745502, -34.939801 ], [ -58.745249, -34.939606 ], [ -58.745106, -34.939504 ], [ -58.744963, -34.939411 ], [ -58.744842, -34.939318 ], [ -58.744711, -34.939207 ], [ -58.744425, -34.939002 ], [ -58.744292, -34.938955 ], [ -58.74417, -34.938908 ], [ -58.743905, -34.938832 ], [ -58.743783, -34.938785 ], [ -58.743518, -34.938672 ], [ -58.743396, -34.938616 ], [ -58.743264, -34.938569 ], [ -58.742999, -34.938438 ], [ -58.742601, -34.938269 ], [ -58.742479, -34.938222 ], [ -58.742413, -34.938203 ], [ -58.742291, -34.938174 ], [ -58.742158, -34.938145 ], [ -58.742024998999966, -34.938107 ], [ -58.741892, -34.93806 ], [ -58.74176, -34.937995 ], [ -58.741639, -34.93793 ], [ -58.741374, -34.937799 ], [ -58.740821, -34.937601 ], [ -58.740588, -34.937534 ], [ -58.740323, -34.937431 ], [ -58.740202, -34.937365 ], [ -58.740069, -34.937291 ], [ -58.739782, -34.937141 ], [ -58.739628, -34.937066 ], [ -58.739474, -34.936955 ], [ -58.739308, -34.936871 ], [ -58.739176, -34.936814 ], [ -58.739043, -34.936749 ], [ -58.738911, -34.936674 ], [ -58.738768, -34.936599 ], [ -58.738647, -34.936516 ], [ -58.738504, -34.936413 ], [ -58.738361, -34.93632 ], [ -58.738295, -34.936265 ], [ -58.738207, -34.936181 ], [ -58.738131, -34.93608 ], [ -58.738043, -34.935978 ], [ -58.737956, -34.935868 ], [ -58.737901, -34.935812 ], [ -58.737814, -34.935738 ], [ -58.737671, -34.935636 ], [ -58.737539, -34.935533 ], [ -58.737407, -34.935422 ], [ -58.737277, -34.935201 ], [ -58.737223, -34.935082 ], [ -58.737169, -34.934999 ], [ -58.737081, -34.934906 ], [ -58.736993998999935, -34.934786 ], [ -58.736895, -34.934721 ], [ -58.736752, -34.934637 ], [ -58.736608, -34.934562 ], [ -58.736355, -34.934386 ], [ -58.736233998999978, -34.934284 ], [ -58.736114, -34.934163 ], [ -58.736005, -34.934052 ], [ -58.735895, -34.933951 ], [ -58.735654, -34.933719 ], [ -58.735511, -34.933608 ], [ -58.735399, -34.933485 ], [ -58.735293, -34.93334 ], [ -58.735228, -34.933211 ], [ -58.735163, -34.9331 ], [ -58.735109, -34.93299 ], [ -58.735033, -34.932888 ], [ -58.734979, -34.932769 ], [ -58.734826, -34.932575 ], [ -58.734783, -34.932492 ], [ -58.73474, -34.932391 ], [ -58.734686, -34.93228 ], [ -58.734621, -34.93217 ], [ -58.734545, -34.932068 ], [ -58.734458, -34.931967 ], [ -58.73437, -34.931856 ], [ -58.73424, -34.931635 ], [ -58.734198, -34.931515 ], [ -58.734144, -34.931414 ], [ -58.734048998999981, -34.931083 ], [ -58.734028, -34.930973 ], [ -58.733963, -34.930853 ], [ -58.733811, -34.930632 ], [ -58.733734, -34.930549 ], [ -58.733647, -34.930438 ], [ -58.733593, -34.930337 ], [ -58.733563, -34.930258 ], [ -58.73355, -34.930226 ], [ -58.733507, -34.930144 ], [ -58.73346399899998, -34.930079 ], [ -58.73342, -34.930024 ], [ -58.733288, -34.929931 ], [ -58.733001, -34.929763 ], [ -58.732891, -34.929689 ], [ -58.732826, -34.929633 ], [ -58.73278199899994, -34.929587 ], [ -58.732683, -34.929476 ], [ -58.732607, -34.92942 ], [ -58.732341, -34.929298 ], [ -58.732175, -34.929251 ], [ -58.73201, -34.929139 ], [ -58.73189, -34.929037 ], [ -58.731758, -34.928935 ], [ -58.731703, -34.928879 ], [ -58.731595, -34.928695 ], [ -58.73154, -34.928612 ], [ -58.731398, -34.928492 ], [ -58.731012, -34.92825 ], [ -58.730935, -34.928185 ], [ -58.730804, -34.928046 ], [ -58.730576, -34.927714 ], [ -58.730511, -34.927594 ], [ -58.730457, -34.927484 ], [ -58.730371, -34.927263 ], [ -58.730317, -34.927152 ], [ -58.730263, -34.92706 ], [ -58.730165, -34.926931 ], [ -58.730056, -34.926811 ], [ -58.729991, -34.926709 ], [ -58.72997, -34.926645 ], [ -58.729982, -34.926572 ], [ -58.729961, -34.926444 ], [ -58.729929, -34.92637 ], [ -58.729822, -34.926149 ], [ -58.729767, -34.926057 ], [ -58.729702, -34.925956 ], [ -58.729571, -34.925835 ], [ -58.729384, -34.925705 ], [ -58.729285, -34.925622 ], [ -58.729197, -34.925529 ], [ -58.72911, -34.925446 ], [ -58.728977, -34.925362 ], [ -58.7289, -34.925324 ], [ -58.728779, -34.92525 ], [ -58.728515, -34.925046 ], [ -58.728384, -34.924934 ], [ -58.728318, -34.92487 ], [ -58.72822, -34.92475 ], [ -58.728120998999941, -34.924639 ], [ -58.728034, -34.924528 ], [ -58.727958, -34.924417 ], [ -58.727815, -34.924297 ], [ -58.727694, -34.924213 ], [ -58.727562, -34.924138 ], [ -58.72743, -34.924073 ], [ -58.727309, -34.923998 ], [ -58.727045, -34.923812 ], [ -58.726934, -34.923747 ], [ -58.726691, -34.923644 ], [ -58.726427, -34.923513 ], [ -58.726316, -34.923466 ], [ -58.726228, -34.923438 ], [ -58.726095, -34.92339 ], [ -58.726006, -34.923371 ], [ -58.725873, -34.923333 ], [ -58.725752, -34.923286 ], [ -58.725674, -34.923267 ], [ -58.725541, -34.923229 ], [ -58.725276, -34.923171 ], [ -58.725143, -34.923152 ], [ -58.72501, -34.923104 ], [ -58.724877, -34.923048 ], [ -58.724756, -34.922983 ], [ -58.724635, -34.922899 ], [ -58.724569, -34.922862 ], [ -58.724458, -34.922842 ], [ -58.724102, -34.922838 ], [ -58.72398, -34.922828 ], [ -58.723858, -34.922808 ], [ -58.723725, -34.92277 ], [ -58.723592, -34.922741 ], [ -58.723459998999942, -34.922694 ], [ -58.723381998999969, -34.922675 ], [ -58.72326, -34.922655 ], [ -58.72316, -34.922654 ], [ -58.722627, -34.922612 ], [ -58.722494, -34.922583 ], [ -58.722334, -34.922545 ], [ -58.722207, -34.922521 ], [ -58.722084, -34.922497 ], [ -58.721951, -34.922459 ], [ -58.721829, -34.922451 ], [ -58.721449, -34.922519 ], [ -58.721211, -34.922524 ], [ -58.720963998999935, -34.92258 ], [ -58.720815, -34.922621 ], [ -58.720726, -34.922629 ], [ -58.720592, -34.922646 ], [ -58.720469, -34.922654 ], [ -58.720325, -34.922634 ], [ -58.720192, -34.922605 ], [ -58.720104, -34.922576 ], [ -58.720005, -34.922521 ], [ -58.719928, -34.922456 ], [ -58.719709, -34.922234 ], [ -58.719577, -34.922141 ], [ -58.719511, -34.922103 ], [ -58.719422, -34.922075 ], [ -58.719301, -34.922019 ], [ -58.718983, -34.92175 ], [ -58.718894, -34.921694 ], [ -58.718762, -34.921619 ], [ -58.718619, -34.921535 ], [ -58.718465, -34.921415 ], [ -58.718399, -34.921368 ], [ -58.718256, -34.921284 ], [ -58.717991, -34.921153 ], [ -58.717947, -34.921134 ], [ -58.717682, -34.920985 ], [ -58.71755, -34.92092 ], [ -58.717424, -34.920831 ], [ -58.717174, -34.920691 ], [ -58.717043, -34.920626 ], [ -58.716918, -34.920556 ], [ -58.716796, -34.920464 ], [ -58.716685, -34.920381 ], [ -58.716581, -34.920305 ], [ -58.716494, -34.920212 ], [ -58.716351, -34.920092 ], [ -58.716255794999938, -34.919996794999975 ], [ -58.716231, -34.919972 ], [ -58.716077, -34.919842 ], [ -58.715934, -34.919758 ], [ -58.715912027999934, -34.919748582999944 ], [ -58.715801, -34.919701 ], [ -58.715717998999935, -34.919665 ], [ -58.71561, -34.919604 ], [ -58.71551, -34.919553 ], [ -58.715437, -34.919514 ], [ -58.715295, -34.919394 ], [ -58.71514, -34.919328 ], [ -58.715007, -34.919281 ], [ -58.714764, -34.919163 ], [ -58.714601, -34.919114 ], [ -58.714486, -34.919088 ], [ -58.714351, -34.919048 ], [ -58.714275614999963, -34.919008435999956 ], [ -58.714069, -34.9189 ], [ -58.713768088999984, -34.918806734999976 ], [ -58.713727, -34.918794 ], [ -58.713641224999947, -34.91874785899995 ], [ -58.713582, -34.918716 ], [ -58.713527, -34.918688 ], [ -58.7134, -34.918603 ], [ -58.713275, -34.918525 ], [ -58.713162998999962, -34.918488 ], [ -58.71308, -34.918443 ], [ -58.712973, -34.918396 ], [ -58.712849, -34.918353 ], [ -58.712704, -34.918297 ], [ -58.712499998999931, -34.918238 ], [ -58.712423, -34.918201 ], [ -58.712389, -34.918191 ], [ -58.712245998999947, -34.918153 ], [ -58.712167998999973, -34.918134 ], [ -58.712120768999966, -34.918133393999938 ], [ -58.712089998999943, -34.918133 ], [ -58.711946, -34.918113 ], [ -58.711868, -34.918131 ], [ -58.711723, -34.918129 ], [ -58.711646, -34.918119 ], [ -58.711524, -34.918099 ], [ -58.711348998999938, -34.918035 ], [ -58.711258, -34.918006 ], [ -58.711166759999969, -34.917969332999974 ], [ -58.711151, -34.917963 ], [ -58.711009, -34.917909 ], [ -58.710807, -34.917804 ], [ -58.710665, -34.917727 ], [ -58.710501, -34.917627 ], [ -58.710393, -34.917514 ], [ -58.710286, -34.917445 ], [ -58.710159998999984, -34.917364 ], [ -58.710088324999958, -34.917419053999936 ], [ -58.710022, -34.91747 ], [ -58.709955, -34.917433 ], [ -58.709823, -34.917404 ], [ -58.709689, -34.917384 ], [ -58.709557, -34.917355 ], [ -58.709457, -34.917345 ], [ -58.709324, -34.917316 ], [ -58.709191, -34.917278 ], [ -58.709124, -34.917268 ], [ -58.709013, -34.917258 ], [ -58.70888, -34.917256 ], [ -58.708747, -34.917237 ], [ -58.708691, -34.917227 ], [ -58.708547, -34.917225 ], [ -58.708469, -34.917215 ], [ -58.708336, -34.917186 ], [ -58.708225, -34.917167 ], [ -58.707959, -34.917128 ], [ -58.707826, -34.917099 ], [ -58.707693, -34.917079 ], [ -58.70756, -34.917041 ], [ -58.707283, -34.916974 ], [ -58.707151, -34.916936 ], [ -58.707029, -34.91687 ], [ -58.706875, -34.916796 ], [ -58.706742, -34.916739 ], [ -58.706609998999966, -34.916674 ], [ -58.706522, -34.916636 ], [ -58.706444, -34.916617 ], [ -58.706311, -34.916579 ], [ -58.706245, -34.916569 ], [ -58.706111, -34.916558 ], [ -58.705978, -34.916539 ], [ -58.705845, -34.91651 ], [ -58.705724, -34.916481 ], [ -58.705591, -34.916461 ], [ -58.705324, -34.91644 ], [ -58.705224, -34.916448 ], [ -58.705079, -34.916474 ], [ -58.704945, -34.9165 ], [ -58.704678, -34.916516 ], [ -58.704556, -34.916505 ], [ -58.704434, -34.916477 ], [ -58.704335, -34.916439 ], [ -58.704213, -34.916383 ], [ -58.704103, -34.916336 ], [ -58.70397, -34.916316 ], [ -58.703839, -34.916278 ], [ -58.703774, -34.916249 ], [ -58.703682, -34.916221 ], [ -58.703538, -34.916183 ], [ -58.703405, -34.916145 ], [ -58.703117, -34.916069 ], [ -58.702962, -34.916049 ], [ -58.702863, -34.916011 ], [ -58.702729998999985, -34.915945 ], [ -58.702664, -34.91589 ], [ -58.702577, -34.915797 ], [ -58.702523655999983, -34.915723421999928 ], [ -58.70249, -34.915677 ], [ -58.702403, -34.915576 ], [ -58.702304, -34.915474 ], [ -58.701931, -34.915159 ], [ -58.701854, -34.915103 ], [ -58.701509466999937, -34.914908603999947 ], [ -58.701457, -34.914879 ], [ -58.701325, -34.914813 ], [ -58.701193, -34.914739 ], [ -58.701071998999964, -34.914655 ], [ -58.700688, -34.91433 ], [ -58.700568, -34.91421 ], [ -58.700458, -34.914099 ], [ -58.700349, -34.913997 ], [ -58.70025, -34.913877 ], [ -58.700152, -34.913775 ], [ -58.699978, -34.913553 ], [ -58.699901998999962, -34.913424 ], [ -58.699749, -34.91323 ], [ -58.699662205999971, -34.913134446999948 ], [ -58.69964, -34.91311 ], [ -58.699563757999954, -34.913050818999977 ], [ -58.699497, -34.912999 ], [ -58.699354, -34.912942 ], [ -58.699209, -34.912932 ], [ -58.698954, -34.912929 ], [ -58.698809, -34.912955 ], [ -58.698742, -34.912945 ], [ -58.698598, -34.912943 ], [ -58.69852, -34.912934 ], [ -58.698398, -34.912923 ], [ -58.698265, -34.912894 ], [ -58.698143, -34.912865 ], [ -58.698009998999964, -34.912827 ], [ -58.697878, -34.91278 ], [ -58.697723, -34.912733 ], [ -58.697645, -34.912723 ], [ -58.697512, -34.912694 ], [ -58.697313, -34.912664 ], [ -58.697168, -34.912672 ], [ -58.697045, -34.91268 ], [ -58.696956998999951, -34.912669 ], [ -58.696557, -34.912638 ], [ -58.69649, -34.912628 ], [ -58.696379, -34.912627 ], [ -58.696235, -34.912589 ], [ -58.696169, -34.912579 ], [ -58.696036, -34.91255 ], [ -58.695892, -34.91253 ], [ -58.69556, -34.912435 ], [ -58.695416, -34.912387 ], [ -58.69526099899997, -34.912349 ], [ -58.695139, -34.912311 ], [ -58.694907, -34.912245 ], [ -58.69484, -34.912235 ], [ -58.694729, -34.912215 ], [ -58.694452, -34.912212 ], [ -58.694106000999966, -34.912194547999945 ], [ -58.693996, -34.912189 ], [ -58.693955949999975, -34.912182976999929 ], [ -58.693863, -34.912169 ], [ -58.693679836999934, -34.912129061999963 ], [ -58.693414083999983, -34.91198861099997 ], [ -58.693302245999973, -34.912084320999952 ], [ -58.693209, -34.912071 ], [ -58.693064, -34.912078 ], [ -58.692931, -34.912068 ], [ -58.692831, -34.912067 ], [ -58.692719, -34.912084 ], [ -58.692575, -34.912091 ], [ -58.692475, -34.912099 ], [ -58.69233, -34.912125 ], [ -58.692263258999958, -34.912132700999962 ], [ -58.692183300999943, -34.912182976999929 ], [ -58.692161, -34.912197 ], [ -58.691998, -34.912247 ], [ -58.69179, -34.912255 ], [ -58.691574998999954, -34.912258 ], [ -58.691429039999946, -34.912240576999977 ], [ -58.691131, -34.912205 ], [ -58.691077350999933, -34.912185012999942 ], [ -58.691071886999964, -34.912182976999929 ], [ -58.690978, -34.912148 ], [ -58.690438022999956, -34.912118755999984 ], [ -58.690097383999955, -34.912100307999935 ], [ -58.68994539199997, -34.912092076999954 ], [ -58.688873, -34.912034 ], [ -58.688345, -34.911917 ], [ -58.687844, -34.911931 ], [ -58.687327, -34.911887 ], [ -58.687025, -34.911861 ], [ -58.686796998999966, -34.911859 ], [ -58.68631, -34.91187 ], [ -58.685928, -34.911805 ], [ -58.685675649999951, -34.911682956999982 ], [ -58.685531, -34.911613 ], [ -58.685298, -34.911373 ], [ -58.684923, -34.910919 ], [ -58.684517, -34.910665 ], [ -58.684261, -34.910519 ], [ -58.68392, -34.910281 ], [ -58.683671, -34.910118 ], [ -58.683065, -34.909844 ], [ -58.682926, -34.909735 ], [ -58.682779998999933, -34.90963 ], [ -58.682693, -34.909511 ], [ -58.682617, -34.9094 ], [ -58.682552, -34.909289 ], [ -58.682486998999934, -34.909169 ], [ -58.682356, -34.90904 ], [ -58.68229, -34.908984 ], [ -58.68218, -34.90891 ], [ -58.682059, -34.908844 ], [ -58.681794, -34.908713 ], [ -58.68153, -34.908564 ], [ -58.681277, -34.908387 ], [ -58.68119, -34.908267 ], [ -58.681092, -34.908147 ], [ -58.681015, -34.908036 ], [ -58.680939, -34.907935 ], [ -58.680765, -34.907713 ], [ -58.680678, -34.907611 ], [ -58.680601, -34.907528 ], [ -58.680436, -34.907416 ], [ -58.680304, -34.907323 ], [ -58.680196, -34.907239 ], [ -58.680173, -34.907221 ], [ -58.680007, -34.907165 ], [ -58.679742, -34.907052 ], [ -58.679632, -34.906986 ], [ -58.6795, -34.906893 ], [ -58.679412, -34.906847 ], [ -58.679279, -34.906772 ], [ -58.67918, -34.906734 ], [ -58.679036, -34.906687 ], [ -58.678892, -34.906649 ], [ -58.67876, -34.906611 ], [ -58.678615, -34.906591 ], [ -58.678471, -34.90658 ], [ -58.678382, -34.90657 ], [ -58.67826, -34.906541 ], [ -58.67815, -34.906503 ], [ -58.678073, -34.906457 ], [ -58.677952, -34.906373 ], [ -58.677886, -34.906336 ], [ -58.677621, -34.906205 ], [ -58.677533, -34.906167 ], [ -58.677444, -34.906139 ], [ -58.677223, -34.90609 ], [ -58.677157, -34.906062 ], [ -58.676925, -34.905931 ], [ -58.676782, -34.905866 ], [ -58.676661, -34.905791 ], [ -58.676551, -34.905708 ], [ -58.676474, -34.905624 ], [ -58.676233, -34.905402 ], [ -58.676102, -34.9053 ], [ -58.675893, -34.905169 ], [ -58.675727, -34.905103 ], [ -58.67545, -34.905018 ], [ -58.675307, -34.904961 ], [ -58.675197, -34.904896 ], [ -58.675042, -34.904812 ], [ -58.67491, -34.904737 ], [ -58.67482, -34.904674 ], [ -58.674644, -34.904633 ], [ -58.674451, -34.904605 ], [ -58.67429, -34.904609 ], [ -58.674169, -34.904635 ], [ -58.67404, -34.904647 ], [ -58.673943, -34.904665 ], [ -58.673854, -34.904698 ], [ -58.673724, -34.904729 ], [ -58.673579, -34.904728 ], [ -58.67337, -34.904712 ], [ -58.673259, -34.904721 ], [ -58.673132, -34.904745 ], [ -58.67302, -34.904772 ], [ -58.672909, -34.904789 ], [ -58.672808, -34.904806 ], [ -58.672696998999982, -34.904814 ], [ -58.672618998999951, -34.904813 ], [ -58.672498, -34.904775 ], [ -58.672398, -34.904728 ], [ -58.672332, -34.904682 ], [ -58.672234, -34.904598 ], [ -58.672135, -34.904506 ], [ -58.672048, -34.904413 ], [ -58.67196, -34.904339 ], [ -58.67185, -34.904255 ], [ -58.67174, -34.904181 ], [ -58.671619, -34.904106 ], [ -58.671498, -34.904041 ], [ -58.671388, -34.903985 ], [ -58.671057, -34.903789 ], [ -58.670958, -34.903733 ], [ -58.670848, -34.903677 ], [ -58.670771, -34.903648 ], [ -58.670704, -34.903629 ], [ -58.670538, -34.9036 ], [ -58.670415998999943, -34.90358 ], [ -58.670316, -34.903552 ], [ -58.670239, -34.903533 ], [ -58.670106, -34.903504 ], [ -58.669885, -34.903428 ], [ -58.669764, -34.903362 ], [ -58.669653, -34.903306 ], [ -58.669542, -34.903313 ], [ -58.669420998999954, -34.903265 ], [ -58.669327, -34.903272 ], [ -58.669234, -34.903248 ], [ -58.669169, -34.903255 ], [ -58.669029, -34.903223 ], [ -58.668889, -34.903167 ], [ -58.668815, -34.903112 ], [ -58.668757, -34.903068 ], [ -58.668691, -34.903039 ], [ -58.66863, -34.90302 ], [ -58.668494, -34.902965 ], [ -58.668381, -34.902926 ], [ -58.668326, -34.902889 ], [ -58.668217, -34.902796 ], [ -58.668129, -34.902694 ], [ -58.668053, -34.902593 ], [ -58.66801, -34.902492 ], [ -58.667967, -34.902409 ], [ -58.667924, -34.902353 ], [ -58.667847, -34.90227 ], [ -58.667782, -34.902214 ], [ -58.667694, -34.902149 ], [ -58.667584, -34.902084 ], [ -58.667474, -34.90201 ], [ -58.667374, -34.901953 ], [ -58.667253, -34.901897 ], [ -58.667143, -34.90185 ], [ -58.667032, -34.901794 ], [ -58.666952, -34.901749 ], [ -58.666782, -34.901662 ], [ -58.666268, -34.901407 ], [ -58.66586, -34.901077 ], [ -58.665537, -34.900831 ], [ -58.665392, -34.90073 ], [ -58.665109, -34.900352 ], [ -58.664913, -34.900057 ], [ -58.664814, -34.899939 ], [ -58.664582, -34.899674 ], [ -58.664235, -34.899381 ], [ -58.66387, -34.899198 ], [ -58.662446, -34.898702 ], [ -58.661963, -34.898476 ], [ -58.661419, -34.898135 ], [ -58.660641, -34.897574 ], [ -58.659606, -34.896976 ], [ -58.659419, -34.896837 ], [ -58.659289, -34.896671 ], [ -58.659157, -34.896596 ], [ -58.658981, -34.896475 ], [ -58.658336, -34.895781 ], [ -58.658161, -34.895633 ], [ -58.657786, -34.895418 ], [ -58.657698, -34.89538 ], [ -58.656924, -34.895124 ], [ -58.656571, -34.894962 ], [ -58.656378, -34.894887 ], [ -58.656262, -34.894824 ], [ -58.655736, -34.894491 ], [ -58.655428, -34.894183 ], [ -58.654922, -34.893866 ], [ -58.654845, -34.893829 ], [ -58.654764, -34.893778 ], [ -58.654653, -34.893747 ], [ -58.654536, -34.893706 ], [ -58.654027, -34.893517 ], [ -58.65381999899995, -34.893447 ], [ -58.653562, -34.893342 ], [ -58.653481, -34.893277 ], [ -58.653281, -34.893116 ], [ -58.653114, -34.892983 ], [ -58.653015, -34.892893 ], [ -58.651973, -34.892075 ], [ -58.651731, -34.891871 ], [ -58.65126, -34.891499 ], [ -58.650973, -34.891341 ], [ -58.650478244999931, -34.891145625999968 ], [ -58.650330950999944, -34.891087460999984 ], [ -58.649488, -34.892214 ], [ -58.648467, -34.893531 ], [ -58.64599, -34.896702 ], [ -58.643537, -34.899875 ], [ -58.643276944999968, -34.900209217999929 ], [ -58.642944097999987, -34.900636986999984 ] ] ] ] } }
]
}
