{
"type": "FeatureCollection",
"name": "RENABAP_2023_POBLACIONES_eze_can",
"crs": { "type": "name", "properties": { "name": "urn:ogc:def:crs:OGC:1.3:CRS84" } },
"features": [
{ "type": "Feature", "properties": { "ID Renabap": "66", "Nombre del barrio": "El Ombú", "Cantidad de familias que viven en el barrio": "145", "Año de creación del barrio": "0", "Década de creación del barrio": "Década 2000", "Tipología barrial": "Asentamiento", "Situación dominial": "NO", "Situación predominante sobre la conexión a la energía eléctrica": "Conexión formal a la red con medidor domiciliario con factura", "Situación predominante sobre la conexión a la red cloacal": "Desagüe a cámara séptica y pozo ciego", "Situación predominante sobre la conexión a la red de agua": "Conexión formal a la red de agua con factura", "Situación predominante sobre la conexión a la red de gas": "Gas en garrafa", "Código de provincia": "06", "Nombre de provincia": "Buenos Aires", "Código de departamentos/comuna": "06134", "Nombre de departamentos/comuna": "Cañuelas", "Código de radio": "061341006", "Nombre de radio": null, "Superficie en km2": "0.11487379637299", "Latitud del centroide": "-35.04699", "Longitud del centroide": "-58.742412", "Geometría en GeoJSON": { "type": "Polygon", "coordinates": [ [ [ -58.744500, -35.046338 ], [ -58.743572, -35.047053 ], [ -58.744487, -35.047898 ], [ -58.742713, -35.049293 ], [ -58.739849, -35.046876 ], [ -58.742609, -35.044707 ], [ -58.744500, -35.046338 ] ] ] } }, "geometry": { "type": "MultiPolygon", "coordinates": [ [ [ [ -58.744500582550998, -35.046338631258998 ], [ -58.743572461357999, -35.047053760536997 ], [ -58.744487493662, -35.047898588803001 ], [ -58.742713354305003, -35.04929315039 ], [ -58.739849267495998, -35.046876465592 ], [ -58.742609833095003, -35.044707279778002 ], [ -58.744500582550998, -35.046338631258998 ] ] ] ] } },
{ "type": "Feature", "properties": { "ID Renabap": "140", "Nombre del barrio": "Libertad", "Cantidad de familias que viven en el barrio": "1221", "Año de creación del barrio": "0", "Década de creación del barrio": "Década 2000", "Tipología barrial": "Asentamiento", "Situación dominial": "NO", "Situación predominante sobre la conexión a la energía eléctrica": "Conexión formal a la red con medidor domiciliario con factura", "Situación predominante sobre la conexión a la red cloacal": "Desagüe a cámara séptica y pozo ciego", "Situación predominante sobre la conexión a la red de agua": "Bomba de agua de pozo domiciliaria", "Situación predominante sobre la conexión a la red de gas": "Gas en garrafa", "Código de provincia": "06", "Nombre de provincia": "Buenos Aires", "Código de departamentos/comuna": "06134", "Nombre de departamentos/comuna": "Cañuelas", "Código de radio": "061340209", "Nombre de radio": null, "Superficie en km2": "0.48424876491177", "Latitud del centroide": "-35.041974", "Longitud del centroide": "-58.770833", "Geometría en GeoJSON": { "type": "Polygon", "coordinates": [ [ [ -58.766198, -35.043602 ], [ -58.767499, -35.042633 ], [ -58.766013, -35.041221 ], [ -58.769051, -35.038809 ], [ -58.769811, -35.039425 ], [ -58.771121, -35.038392 ], [ -58.771914, -35.039093 ], [ -58.772289, -35.038916 ], [ -58.772567, -35.039138 ], [ -58.774253, -35.037816 ], [ -58.775378, -35.038623 ], [ -58.773727, -35.040041 ], [ -58.775996, -35.042005 ], [ -58.773336, -35.044000 ], [ -58.772963, -35.044295 ], [ -58.770793, -35.045992 ], [ -58.770046, -35.045370 ], [ -58.769795, -35.045549 ], [ -58.769484, -35.045289 ], [ -58.769270, -35.045396 ], [ -58.769382, -35.045543 ], [ -58.768885, -35.045924 ], [ -58.767642, -35.044859 ], [ -58.766198, -35.043602 ] ] ] } }, "geometry": { "type": "MultiPolygon", "coordinates": [ [ [ [ -58.766198241, -35.043602214959002 ], [ -58.767499, -35.042633 ], [ -58.766013176305002, -35.041221854645997 ], [ -58.769051734032999, -35.038809257951002 ], [ -58.769811208131998, -35.039425366834998 ], [ -58.771121162024997, -35.038392290941999 ], [ -58.771914719, -35.039093037934002 ], [ -58.772289784374998, -35.038916435044001 ], [ -58.772567016156998, -35.039138120281002 ], [ -58.774253270787, -35.037816080634997 ], [ -58.775378110932998, -35.038623614964003 ], [ -58.773727019871998, -35.040041874982002 ], [ -58.775996190382003, -35.042005822013003 ], [ -58.773336089990998, -35.044000712927001 ], [ -58.772963019960002, -35.044295593058997 ], [ -58.770793353908999, -35.045992813 ], [ -58.770046384974997, -35.045370684016 ], [ -58.769795139884998, -35.045549041016002 ], [ -58.769484567992002, -35.045289941040998 ], [ -58.769270936966997, -35.045396270025002 ], [ -58.769382515925997, -35.045543326066003 ], [ -58.768885516007998, -35.045924035040997 ], [ -58.7676428929, -35.044859034277003 ], [ -58.766198241, -35.043602214959002 ] ] ] ] } },
{ "type": "Feature", "properties": { "ID Renabap": "142", "Nombre del barrio": "San Esteban", "Cantidad de familias que viven en el barrio": "88", "Año de creación del barrio": "2012", "Década de creación del barrio": "Década 2010", "Tipología barrial": "Asentamiento", "Situación dominial": "NO", "Situación predominante sobre la conexión a la energía eléctrica": "Conexión formal a la red con medidor domiciliario con factura", "Situación predominante sobre la conexión a la red cloacal": "Desagüe sólo a pozo negro/ciego u hoyo", "Situación predominante sobre la conexión a la red de agua": "Bomba de agua de pozo domiciliaria", "Situación predominante sobre la conexión a la red de gas": "Gas en garrafa", "Código de provincia": "06", "Nombre de provincia": "Buenos Aires", "Código de departamentos/comuna": "06134", "Nombre de departamentos/comuna": "Cañuelas", "Código de radio": "061340111", "Nombre de radio": null, "Superficie en km2": "0.11498196780528", "Latitud del centroide": "-34.964482", "Longitud del centroide": "-58.721647", "Geometría en GeoJSON": { "type": "MultiPolygon", "coordinates": [ [ [ [ -58.723837, -34.964829 ], [ -58.721402, -34.966761 ], [ -58.718954, -34.964495 ], [ -58.721388, -34.962622 ], [ -58.723837, -34.964829 ] ] ], [ [ [ -58.722754, -34.962535 ], [ -58.723299, -34.962113 ], [ -58.723861, -34.962633 ], [ -58.724041, -34.962493 ], [ -58.724624, -34.963020 ], [ -58.723901, -34.963600 ], [ -58.722754, -34.962535 ] ] ] ] } }, "geometry": { "type": "MultiPolygon", "coordinates": [ [ [ [ -58.723837503288998, -34.964829134162997 ], [ -58.721402188311998, -34.966761833607997 ], [ -58.718954402321998, -34.964495742403997 ], [ -58.721388983494002, -34.962622455944 ], [ -58.723837503288998, -34.964829134162997 ] ] ], [ [ [ -58.722754188411997, -34.962535780129997 ], [ -58.723299339316, -34.962113842435002 ], [ -58.723861237042001, -34.962633648328001 ], [ -58.724041319961003, -34.962493662496001 ], [ -58.724624510662998, -34.963020216734002 ], [ -58.723901294722999, -34.963600950276998 ], [ -58.722754188411997, -34.962535780129997 ] ] ] ] } },
{ "type": "Feature", "properties": { "ID Renabap": "311", "Nombre del barrio": "Luján", "Cantidad de familias que viven en el barrio": "990", "Año de creación del barrio": "0", "Década de creación del barrio": "Década 1990", "Tipología barrial": "Asentamiento", "Situación dominial": "NO", "Situación predominante sobre la conexión a la energía eléctrica": "Conexión formal a la red con medidor domiciliario con factura", "Situación predominante sobre la conexión a la red cloacal": "Desagüe a cámara séptica y pozo ciego", "Situación predominante sobre la conexión a la red de agua": "Bomba de agua de pozo domiciliaria", "Situación predominante sobre la conexión a la red de gas": "Conexión formal a la red de gas con factura", "Código de provincia": "06", "Nombre de provincia": "Buenos Aires", "Código de departamentos/comuna": "06270", "Nombre de departamentos/comuna": "Ezeiza", "Código de radio": "062700810", "Nombre de radio": null, "Superficie en km2": "0.5331198720937", "Latitud del centroide": "-34.885132", "Longitud del centroide": "-58.569465", "Geometría en GeoJSON": { "type": "Polygon", "coordinates": [ [ [ -58.563161, -34.885409 ], [ -58.564164, -34.884528 ], [ -58.564221, -34.884562 ], [ -58.565075, -34.883860 ], [ -58.565831, -34.884157 ], [ -58.566563, -34.884515 ], [ -58.567996, -34.882562 ], [ -58.569459, -34.880644 ], [ -58.575074, -34.883433 ], [ -58.574060, -34.884758 ], [ -58.574045, -34.884854 ], [ -58.572087, -34.887480 ], [ -58.570839, -34.888756 ], [ -58.570534, -34.888546 ], [ -58.569525, -34.889745 ], [ -58.566209, -34.887204 ], [ -58.565751, -34.887488 ], [ -58.563161, -34.885409 ] ] ] } }, "geometry": { "type": "MultiPolygon", "coordinates": [ [ [ [ -58.563161353155003, -34.885409326455999 ], [ -58.564164290560001, -34.884528290711003 ], [ -58.564221388827001, -34.884562829459 ], [ -58.565075893204003, -34.883860006067998 ], [ -58.565831188905001, -34.884157305751003 ], [ -58.566563069781999, -34.884515823421999 ], [ -58.567996807992003, -34.882562289162003 ], [ -58.569459, -34.880644626214 ], [ -58.575074983615998, -34.883433759709 ], [ -58.574060723129001, -34.884758872047001 ], [ -58.574045745615997, -34.884854233093002 ], [ -58.572087913834999, -34.887480796722997 ], [ -58.570839893204003, -34.888756123180002 ], [ -58.570534753640999, -34.888546476335002 ], [ -58.569525186893003, -34.889745946601998 ], [ -58.566209069781998, -34.887204176578003 ], [ -58.565751293688997, -34.887488663227998 ], [ -58.563161353155003, -34.885409326455999 ] ] ] ] } },
{ "type": "Feature", "properties": { "ID Renabap": "317", "Nombre del barrio": "Vista Alegre", "Cantidad de familias que viven en el barrio": "3674", "Año de creación del barrio": "0", "Década de creación del barrio": "Década 1960", "Tipología barrial": "Asentamiento", "Situación dominial": "NO", "Situación predominante sobre la conexión a la energía eléctrica": "Conexión formal a la red con medidor domiciliario con factura", "Situación predominante sobre la conexión a la red cloacal": "Desagüe a cámara séptica y pozo ciego", "Situación predominante sobre la conexión a la red de agua": "Bomba de agua de pozo domiciliaria", "Situación predominante sobre la conexión a la red de gas": "Gas en garrafa", "Código de provincia": "06", "Nombre de provincia": "Buenos Aires", "Código de departamentos/comuna": "06270", "Nombre de departamentos/comuna": "Ezeiza", "Código de radio": "062701707", "Nombre de radio": null, "Superficie en km2": "0.58254964332099", "Latitud del centroide": "-34.902485", "Longitud del centroide": "-58.548218", "Geometría en GeoJSON": { "type": "Polygon", "coordinates": [ [ [ -58.556898, -34.906038 ], [ -58.555163, -34.908271 ], [ -58.545183, -34.903541 ], [ -58.545067, -34.902152 ], [ -58.540370, -34.899847 ], [ -58.542205, -34.897438 ], [ -58.543837, -34.898093 ], [ -58.545263, -34.898772 ], [ -58.547130, -34.896246 ], [ -58.547875, -34.896617 ], [ -58.546948, -34.897898 ], [ -58.547743, -34.898285 ], [ -58.546796, -34.899535 ], [ -58.549800, -34.900985 ], [ -58.548889, -34.902267 ], [ -58.556898, -34.906038 ] ] ] } }, "geometry": { "type": "MultiPolygon", "coordinates": [ [ [ [ -58.556898735743999, -34.906038901946999 ], [ -58.555163403594001, -34.908271332348001 ], [ -58.545183271246003, -34.903541737738998 ], [ -58.545067367652003, -34.902152126956999 ], [ -58.540370255071998, -34.899847119767998 ], [ -58.5422051, -34.897438083826003 ], [ -58.543837180274998, -34.898093088929997 ], [ -58.545263204763003, -34.898772631972001 ], [ -58.547130222919002, -34.896246392397003 ], [ -58.547875044332997, -34.896617418677998 ], [ -58.546948863057999, -34.897898013117 ], [ -58.547743523824003, -34.898285652515 ], [ -58.546796247205002, -34.899535284403001 ], [ -58.549800865809999, -34.900985769409999 ], [ -58.548889326957003, -34.902267705390997 ], [ -58.556898735743999, -34.906038901946999 ] ] ] ] } },
{ "type": "Feature", "properties": { "ID Renabap": "342", "Nombre del barrio": "Santa Marta", "Cantidad de familias que viven en el barrio": "693", "Año de creación del barrio": "0", "Década de creación del barrio": "Década 1980", "Tipología barrial": "Asentamiento", "Situación dominial": "NO", "Situación predominante sobre la conexión a la energía eléctrica": "Conexión formal a la red con medidor domiciliario con factura", "Situación predominante sobre la conexión a la red cloacal": "Desagüe sólo a pozo negro/ciego u hoyo", "Situación predominante sobre la conexión a la red de agua": "Bomba de agua de pozo domiciliaria", "Situación predominante sobre la conexión a la red de gas": "Gas en garrafa", "Código de provincia": "06", "Nombre de provincia": "Buenos Aires", "Código de departamentos/comuna": "06270", "Nombre de departamentos/comuna": "Ezeiza", "Código de radio": "062701011", "Nombre de radio": null, "Superficie en km2": "0.25119158708105", "Latitud del centroide": "-34.90483", "Longitud del centroide": "-58.566778", "Geometría en GeoJSON": { "type": "Polygon", "coordinates": [ [ [ -58.570590, -34.904218 ], [ -58.567668, -34.907944 ], [ -58.562970, -34.905425 ], [ -58.565872, -34.901726 ], [ -58.570590, -34.904218 ] ] ] } }, "geometry": { "type": "MultiPolygon", "coordinates": [ [ [ [ -58.570590477861003, -34.904219 ], [ -58.567668825954001, -34.907944516298997 ], [ -58.562970651907001, -34.905425359756997 ], [ -58.565872129768003, -34.901726919464998 ], [ -58.570590477861003, -34.904219 ] ] ] ] } },
{ "type": "Feature", "properties": { "ID Renabap": "346", "Nombre del barrio": "Tres Américas", "Cantidad de familias que viven en el barrio": "935", "Año de creación del barrio": "0", "Década de creación del barrio": "Década 1990", "Tipología barrial": "Asentamiento", "Situación dominial": "NO", "Situación predominante sobre la conexión a la energía eléctrica": "Conexión formal a la red con medidor domiciliario con factura", "Situación predominante sobre la conexión a la red cloacal": "Desagüe a cámara séptica y pozo ciego", "Situación predominante sobre la conexión a la red de agua": "Bomba de agua de pozo domiciliaria", "Situación predominante sobre la conexión a la red de gas": "Gas en garrafa", "Código de provincia": "06", "Nombre de provincia": "Buenos Aires", "Código de departamentos/comuna": "06270", "Nombre de departamentos/comuna": "Ezeiza", "Código de radio": "062701010", "Nombre de radio": null, "Superficie en km2": "0.37532574762796", "Latitud del centroide": "-34.911342", "Longitud del centroide": "-58.580842", "Geometría en GeoJSON": { "type": "Polygon", "coordinates": [ [ [ -58.580064, -34.907480 ], [ -58.585421, -34.910288 ], [ -58.581762, -34.915441 ], [ -58.579922, -34.914464 ], [ -58.581450, -34.912537 ], [ -58.580854, -34.912015 ], [ -58.579320, -34.914095 ], [ -58.576077, -34.912461 ], [ -58.580064, -34.907480 ] ] ] } }, "geometry": { "type": "MultiPolygon", "coordinates": [ [ [ [ -58.580064585586001, -34.907480435967997 ], [ -58.585421777295998, -34.910288280821 ], [ -58.5817623, -34.915441954830001 ], [ -58.579922571173, -34.914464219308002 ], [ -58.581450222703999, -34.912537519905001 ], [ -58.58085406547, -34.912015544279001 ], [ -58.579320351531003, -34.914095477810001 ], [ -58.576077319642003, -34.91246137988 ], [ -58.580064585586001, -34.907480435967997 ] ] ] ] } },
{ "type": "Feature", "properties": { "ID Renabap": "355", "Nombre del barrio": "San Francisco Javier", "Cantidad de familias que viven en el barrio": "508", "Año de creación del barrio": "0", "Década de creación del barrio": "Década 1960", "Tipología barrial": "Asentamiento", "Situación dominial": "NO", "Situación predominante sobre la conexión a la energía eléctrica": "Conexión formal a la red con medidor domiciliario con factura", "Situación predominante sobre la conexión a la red cloacal": "Desagüe a cámara séptica y pozo ciego", "Situación predominante sobre la conexión a la red de agua": "Bomba de agua de pozo domiciliaria", "Situación predominante sobre la conexión a la red de gas": "Conexión formal a la red de gas con factura", "Código de provincia": "06", "Nombre de provincia": "Buenos Aires", "Código de departamentos/comuna": "06270", "Nombre de departamentos/comuna": "Ezeiza", "Código de radio": "062700902", "Nombre de radio": null, "Superficie en km2": "0.19455839317253", "Latitud del centroide": "-34.902778", "Longitud del centroide": "-58.596172", "Geometría en GeoJSON": { "type": "Polygon", "coordinates": [ [ [ -58.599164, -34.902546 ], [ -58.596929, -34.905586 ], [ -58.592870, -34.903534 ], [ -58.593231, -34.903058 ], [ -58.593663, -34.903280 ], [ -58.593858, -34.903011 ], [ -58.593487, -34.902776 ], [ -58.594015, -34.901919 ], [ -58.594545, -34.902196 ], [ -58.594627, -34.902067 ], [ -58.594159, -34.901740 ], [ -58.595620, -34.899901 ], [ -58.598024, -34.901165 ], [ -58.597838, -34.901452 ], [ -58.598120, -34.901599 ], [ -58.598391, -34.901425 ], [ -58.598897, -34.901481 ], [ -58.598414, -34.902150 ], [ -58.599164, -34.902546 ] ] ] } }, "geometry": { "type": "MultiPolygon", "coordinates": [ [ [ [ -58.599164696424999, -34.902546083068003 ], [ -58.596929743954, -34.905586220017 ], [ -58.592870225551998, -34.903534016625997 ], [ -58.593231869505999, -34.903058449713001 ], [ -58.593663462629003, -34.903280139880998 ], [ -58.593858976690001, -34.903011301545 ], [ -58.593487595058001, -34.902776661456997 ], [ -58.594015808517, -34.901919369733001 ], [ -58.594545890176001, -34.902196749300003 ], [ -58.594627212093002, -34.902067378916001 ], [ -58.594159673081002, -34.901740982810999 ], [ -58.595620389292002, -34.899901605875002 ], [ -58.598024675246002, -34.901165029098003 ], [ -58.597838487906998, -34.901452875787001 ], [ -58.598120992700998, -34.901599254056997 ], [ -58.598391260988002, -34.901425265444999 ], [ -58.598897235435999, -34.901481055155003 ], [ -58.598414435435998, -34.902150838257 ], [ -58.599164696424999, -34.902546083068003 ] ] ] ] } },
{ "type": "Feature", "properties": { "ID Renabap": "361", "Nombre del barrio": "El Ombú", "Cantidad de familias que viven en el barrio": "1100", "Año de creación del barrio": "0", "Década de creación del barrio": "Década 1980", "Tipología barrial": "Asentamiento", "Situación dominial": "NO", "Situación predominante sobre la conexión a la energía eléctrica": "Conexión formal a la red con medidor domiciliario con factura", "Situación predominante sobre la conexión a la red cloacal": "Desagüe a cámara séptica y pozo ciego", "Situación predominante sobre la conexión a la red de agua": "Bomba de agua de pozo domiciliaria", "Situación predominante sobre la conexión a la red de gas": "Gas en garrafa", "Código de provincia": "06", "Nombre de provincia": "Buenos Aires", "Código de departamentos/comuna": "06270", "Nombre de departamentos/comuna": "Ezeiza", "Código de radio": "062700709", "Nombre de radio": null, "Superficie en km2": "0.45867049347", "Latitud del centroide": "-34.893416", "Longitud del centroide": "-58.577901", "Geometría en GeoJSON": { "type": "Polygon", "coordinates": [ [ [ -58.575858, -34.889233 ], [ -58.583172, -34.893184 ], [ -58.579286, -34.898002 ], [ -58.575279, -34.894885 ], [ -58.575494, -34.894623 ], [ -58.573949, -34.893829 ], [ -58.572699, -34.892894 ], [ -58.574539, -34.890560 ], [ -58.574691, -34.890643 ], [ -58.575858, -34.889233 ] ] ] } }, "geometry": { "type": "MultiPolygon", "coordinates": [ [ [ [ -58.575858887201001, -34.889233613643 ], [ -58.583172870718002, -34.893184640797998 ], [ -58.579286567678999, -34.898002238441002 ], [ -58.575279596961003, -34.894885160252002 ], [ -58.575494196961003, -34.894623460296998 ], [ -58.573949132320003, -34.893829220851998 ], [ -58.572699516482999, -34.892894240875002 ], [ -58.574539122559997, -34.890560234348001 ], [ -58.574691068143999, -34.890643725817 ], [ -58.575858887201001, -34.889233613643 ] ] ] ] } },
{ "type": "Feature", "properties": { "ID Renabap": "367", "Nombre del barrio": "Luján II", "Cantidad de familias que viven en el barrio": "253", "Año de creación del barrio": "0", "Década de creación del barrio": "Década 1980", "Tipología barrial": "Asentamiento", "Situación dominial": "NO", "Situación predominante sobre la conexión a la energía eléctrica": "Conexión formal a la red con medidor domiciliario con factura", "Situación predominante sobre la conexión a la red cloacal": "Desagüe a cámara séptica y pozo ciego", "Situación predominante sobre la conexión a la red de agua": "Bomba de agua de pozo domiciliaria", "Situación predominante sobre la conexión a la red de gas": "Gas en garrafa", "Código de provincia": "06", "Nombre de provincia": "Buenos Aires", "Código de departamentos/comuna": "06270", "Nombre de departamentos/comuna": "Ezeiza", "Código de radio": "062700807", "Nombre de radio": null, "Superficie en km2": "0.1040617321712", "Latitud del centroide": "-34.884752", "Longitud del centroide": "-58.576696", "Geometría en GeoJSON": { "type": "Polygon", "coordinates": [ [ [ -58.574082, -34.884801 ], [ -58.575576, -34.882793 ], [ -58.579305, -34.884735 ], [ -58.577855, -34.886693 ], [ -58.574082, -34.884801 ] ] ] } }, "geometry": { "type": "MultiPolygon", "coordinates": [ [ [ [ -58.574082124660997, -34.884801273253998 ], [ -58.575576964894999, -34.882793531924001 ], [ -58.579305249077997, -34.884735510916997 ], [ -58.577855124231, -34.886693510827001 ], [ -58.574082124660997, -34.884801273253998 ] ] ] ] } },
{ "type": "Feature", "properties": { "ID Renabap": "412", "Nombre del barrio": "Monte Rosa", "Cantidad de familias que viven en el barrio": "330", "Año de creación del barrio": "0", "Década de creación del barrio": "Década 1970", "Tipología barrial": "Asentamiento", "Situación dominial": "NO", "Situación predominante sobre la conexión a la energía eléctrica": "Conexión irregular a la red", "Situación predominante sobre la conexión a la red cloacal": "Desagüe a cámara séptica y pozo ciego", "Situación predominante sobre la conexión a la red de agua": "Bomba de agua de pozo domiciliaria", "Situación predominante sobre la conexión a la red de gas": "Gas en garrafa", "Código de provincia": "06", "Nombre de provincia": "Buenos Aires", "Código de departamentos/comuna": "06270", "Nombre de departamentos/comuna": "Ezeiza", "Código de radio": "062701906", "Nombre de radio": null, "Superficie en km2": "0.43441305508545", "Latitud del centroide": "-34.921827", "Longitud del centroide": "-58.592895", "Geometría en GeoJSON": { "type": "Polygon", "coordinates": [ [ [ -58.600060, -34.923224 ], [ -58.598045, -34.925739 ], [ -58.597726, -34.925467 ], [ -58.597252, -34.925139 ], [ -58.597031, -34.924948 ], [ -58.596867, -34.924785 ], [ -58.596577, -34.924541 ], [ -58.596329, -34.924385 ], [ -58.596060, -34.924226 ], [ -58.595840, -34.924016 ], [ -58.595817, -34.923925 ], [ -58.595809, -34.923649 ], [ -58.595870, -34.923447 ], [ -58.595719, -34.923338 ], [ -58.595503, -34.923487 ], [ -58.594399, -34.924939 ], [ -58.591754, -34.923549 ], [ -58.587667, -34.921425 ], [ -58.585421, -34.920336 ], [ -58.585757, -34.919904 ], [ -58.587007, -34.920577 ], [ -58.587848, -34.919485 ], [ -58.588686, -34.918328 ], [ -58.589238, -34.917647 ], [ -58.591540, -34.918835 ], [ -58.593074, -34.919640 ], [ -58.592592, -34.920273 ], [ -58.593583, -34.920915 ], [ -58.595042, -34.922046 ], [ -58.595817, -34.921027 ], [ -58.600060, -34.923224 ] ] ] } }, "geometry": { "type": "MultiPolygon", "coordinates": [ [ [ [ -58.600060169381003, -34.923224629369003 ], [ -58.598045827783999, -34.925739016805998 ], [ -58.597726380810002, -34.925467237394997 ], [ -58.597252616970003, -34.925139274956003 ], [ -58.597031394703002, -34.924948857411998 ], [ -58.596867010791001, -34.924785808696001 ], [ -58.596577433712, -34.924541567752001 ], [ -58.596329248948997, -34.924385983314998 ], [ -58.596060696045001, -34.924226003708 ], [ -58.595840983188999, -34.92401615328 ], [ -58.595817414416999, -34.923925435064 ], [ -58.595809179241002, -34.923649011732998 ], [ -58.595870467239997, -34.923447651430997 ], [ -58.595719324462998, -34.923338119598 ], [ -58.595504, -34.923488 ], [ -58.594399, -34.92494 ], [ -58.591754, -34.92355 ], [ -58.587667, -34.921426 ], [ -58.585421012112, -34.920336536131003 ], [ -58.585757, -34.919904 ], [ -58.587008, -34.920577 ], [ -58.587849, -34.919486 ], [ -58.588686, -34.918329 ], [ -58.589239, -34.917647 ], [ -58.59154, -34.918835 ], [ -58.593074, -34.91964 ], [ -58.592592, -34.920273 ], [ -58.593584, -34.920915 ], [ -58.595043, -34.922046 ], [ -58.595817380737003, -34.921027220367002 ], [ -58.600060169381003, -34.923224629369003 ] ] ] ] } },
{ "type": "Feature", "properties": { "ID Renabap": "484", "Nombre del barrio": "Villa Golf", "Cantidad de familias que viven en el barrio": "275", "Año de creación del barrio": "0", "Década de creación del barrio": "Década 1990", "Tipología barrial": "Asentamiento", "Situación dominial": "NO", "Situación predominante sobre la conexión a la energía eléctrica": "Conexión formal a la red con medidor domiciliario con factura", "Situación predominante sobre la conexión a la red cloacal": "Desagüe a cámara séptica y pozo ciego", "Situación predominante sobre la conexión a la red de agua": "Bomba de agua de pozo domiciliaria", "Situación predominante sobre la conexión a la red de gas": "Gas en garrafa", "Código de provincia": "06", "Nombre de provincia": "Buenos Aires", "Código de departamentos/comuna": "06270", "Nombre de departamentos/comuna": "Ezeiza", "Código de radio": "062700104", "Nombre de radio": null, "Superficie en km2": "0.1733709469843", "Latitud del centroide": "-34.856169", "Longitud del centroide": "-58.546678", "Geometría en GeoJSON": { "type": "Polygon", "coordinates": [ [ [ -58.547026, -34.852267 ], [ -58.547186, -34.852366 ], [ -58.547345, -34.852594 ], [ -58.547847, -34.852838 ], [ -58.546522, -34.854640 ], [ -58.549873, -34.856383 ], [ -58.549068, -34.857405 ], [ -58.548635, -34.857189 ], [ -58.548401, -34.857507 ], [ -58.548477, -34.857554 ], [ -58.548275, -34.857835 ], [ -58.548174, -34.857783 ], [ -58.548118, -34.857858 ], [ -58.548001, -34.857800 ], [ -58.547753, -34.858119 ], [ -58.547876, -34.858182 ], [ -58.547647, -34.858458 ], [ -58.548096, -34.858669 ], [ -58.547819, -34.859036 ], [ -58.543676, -34.856995 ], [ -58.547026, -34.852267 ] ] ] } }, "geometry": { "type": "MultiPolygon", "coordinates": [ [ [ [ -58.547026874745001, -34.852267408880998 ], [ -58.547186755058, -34.852366524944003 ], [ -58.547345277852997, -34.852594401461999 ], [ -58.547847266703997, -34.852838790771003 ], [ -58.546522940853997, -34.854640336286003 ], [ -58.549873328121002, -34.856383583834997 ], [ -58.549068387608997, -34.857405403164002 ], [ -58.548635752480997, -34.857189085599998 ], [ -58.548401270847002, -34.857507782469 ], [ -58.548477229686, -34.857554018283999 ], [ -58.548275773634003, -34.857835561373001 ], [ -58.548174219968999, -34.857783546081002 ], [ -58.548118076479, -34.857858679281001 ], [ -58.548001661301001, -34.857800884512002 ], [ -58.547753143793997, -34.858119581380997 ], [ -58.547876989728003, -34.858182329987002 ], [ -58.547647461931, -34.858458093599999 ], [ -58.548096609849999, -34.858669457326002 ], [ -58.547819889957999, -34.859036080606003 ], [ -58.543676135658998, -34.856995060304001 ], [ -58.547026874745001, -34.852267408880998 ] ] ] ] } },
{ "type": "Feature", "properties": { "ID Renabap": "578", "Nombre del barrio": "Moreno y Derqui", "Cantidad de familias que viven en el barrio": "110", "Año de creación del barrio": "0", "Década de creación del barrio": "Década 1970", "Tipología barrial": "Villa", "Situación dominial": "NO", "Situación predominante sobre la conexión a la energía eléctrica": "Conexión formal a la red con medidor domiciliario con factura", "Situación predominante sobre la conexión a la red cloacal": "Desagüe sólo a pozo negro/ciego u hoyo", "Situación predominante sobre la conexión a la red de agua": "Conexión irregular a la red de agua", "Situación predominante sobre la conexión a la red de gas": "Gas en garrafa", "Código de provincia": "06", "Nombre de provincia": "Buenos Aires", "Código de departamentos/comuna": "06270", "Nombre de departamentos/comuna": "Ezeiza", "Código de radio": "062700202", "Nombre de radio": null, "Superficie en km2": "0.03922667027288", "Latitud del centroide": "-34.846111", "Longitud del centroide": "-58.534041", "Geometría en GeoJSON": { "type": "Polygon", "coordinates": [ [ [ -58.535552, -34.845868 ], [ -58.534495, -34.847308 ], [ -58.532526, -34.846373 ], [ -58.533601, -34.844901 ], [ -58.535552, -34.845868 ] ] ] } }, "geometry": { "type": "MultiPolygon", "coordinates": [ [ [ [ -58.535552041376, -34.845868509279001 ], [ -58.534495041375997, -34.847308320960998 ], [ -58.532526523580998, -34.846373087008999 ], [ -58.533601316702999, -34.844901954367003 ], [ -58.535552041376, -34.845868509279001 ] ] ] ] } },
{ "type": "Feature", "properties": { "ID Renabap": "583", "Nombre del barrio": "Sol de Oro", "Cantidad de familias que viven en el barrio": "231", "Año de creación del barrio": "0", "Década de creación del barrio": "Década 1990", "Tipología barrial": "Asentamiento", "Situación dominial": "NO", "Situación predominante sobre la conexión a la energía eléctrica": "Conexión formal a la red con medidor domiciliario con factura", "Situación predominante sobre la conexión a la red cloacal": "Desagüe sólo a pozo negro/ciego u hoyo", "Situación predominante sobre la conexión a la red de agua": "Bomba de agua de pozo domiciliaria", "Situación predominante sobre la conexión a la red de gas": "Gas en garrafa", "Código de provincia": "06", "Nombre de provincia": "Buenos Aires", "Código de departamentos/comuna": "06270", "Nombre de departamentos/comuna": "Ezeiza", "Código de radio": "062701609", "Nombre de radio": null, "Superficie en km2": "0.14607542984862", "Latitud del centroide": "-34.895097", "Longitud del centroide": "-58.53822", "Geometría en GeoJSON": { "type": "Polygon", "coordinates": [ [ [ -58.544448, -34.891603 ], [ -58.544640, -34.891704 ], [ -58.544875, -34.891808 ], [ -58.544435, -34.892017 ], [ -58.544138, -34.892316 ], [ -58.544182, -34.892513 ], [ -58.543525, -34.892993 ], [ -58.543127, -34.893537 ], [ -58.542591, -34.893301 ], [ -58.542060, -34.893525 ], [ -58.542161, -34.893616 ], [ -58.541636, -34.894240 ], [ -58.540787, -34.895434 ], [ -58.539368, -34.894749 ], [ -58.538659, -34.895725 ], [ -58.537962, -34.895375 ], [ -58.537432, -34.896114 ], [ -58.536202, -34.897773 ], [ -58.533643, -34.896535 ], [ -58.533364, -34.896351 ], [ -58.534253, -34.895128 ], [ -58.535382, -34.895678 ], [ -58.535718, -34.895690 ], [ -58.536537, -34.894629 ], [ -58.537174, -34.894930 ], [ -58.537287, -34.894913 ], [ -58.537966, -34.894003 ], [ -58.538884, -34.894436 ], [ -58.539163, -34.894535 ], [ -58.539515, -34.894338 ], [ -58.539758, -34.894115 ], [ -58.540214, -34.893513 ], [ -58.540815, -34.893785 ], [ -58.540992, -34.893801 ], [ -58.541720, -34.892786 ], [ -58.542362, -34.893110 ], [ -58.542439, -34.893099 ], [ -58.543288, -34.891947 ], [ -58.543936, -34.892253 ], [ -58.544448, -34.891603 ] ] ] } }, "geometry": { "type": "MultiPolygon", "coordinates": [ [ [ [ -58.544448724150001, -34.891603711075 ], [ -58.544640541, -34.891704051 ], [ -58.544875064735002, -34.891808563734998 ], [ -58.544435598962998, -34.892017817396002 ], [ -58.544138525039003, -34.892316884830002 ], [ -58.544182638507003, -34.892513299245003 ], [ -58.543525627923003, -34.892993900885998 ], [ -58.543127358771997, -34.893537324356998 ], [ -58.542591333, -34.893301265 ], [ -58.542060829375998, -34.893525528433997 ], [ -58.542161218133998, -34.893616915166 ], [ -58.541636050771999, -34.894240457282002 ], [ -58.540787742997999, -34.895434335243003 ], [ -58.539368412037, -34.894749850640999 ], [ -58.538659788376002, -34.895725676942 ], [ -58.537962674206, -34.895375499716003 ], [ -58.537432534094997, -34.896114640034 ], [ -58.536202415432001, -34.897773179527 ], [ -58.533643484, -34.896535199 ], [ -58.533364117772003, -34.896351181451998 ], [ -58.534253361338003, -34.895128193699001 ], [ -58.535382805185002, -34.895678003451998 ], [ -58.535718941374, -34.895690890639003 ], [ -58.536537353653998, -34.894629632042999 ], [ -58.537174573150999, -34.894930472829998 ], [ -58.537287302846003, -34.894913438505 ], [ -58.537966996636001, -34.894003255458003 ], [ -58.538884521, -34.894436456 ], [ -58.539163782545998, -34.894535978790998 ], [ -58.539515073846999, -34.894338843866997 ], [ -58.539758241778998, -34.894115042172999 ], [ -58.540214948715999, -34.893513327074999 ], [ -58.540815711, -34.893785263 ], [ -58.540992320021999, -34.893801507863998 ], [ -58.541720787735002, -34.892786319914002 ], [ -58.542362382128999, -34.893110340848999 ], [ -58.542439567019002, -34.893099956524999 ], [ -58.543288551601997, -34.891947642585002 ], [ -58.543936916828002, -34.892253379431999 ], [ -58.544448724150001, -34.891603711075 ] ] ] ] } },
{ "type": "Feature", "properties": { "ID Renabap": "686", "Nombre del barrio": "La Unión II", "Cantidad de familias que viven en el barrio": "88", "Año de creación del barrio": "0", "Década de creación del barrio": "Década 1980", "Tipología barrial": "Asentamiento", "Situación dominial": "NO", "Situación predominante sobre la conexión a la energía eléctrica": "Conexión irregular a la red", "Situación predominante sobre la conexión a la red cloacal": "Desagüe sólo a pozo negro/ciego u hoyo", "Situación predominante sobre la conexión a la red de agua": "Bomba de agua de pozo domiciliaria", "Situación predominante sobre la conexión a la red de gas": "Gas en garrafa", "Código de provincia": "06", "Nombre de provincia": "Buenos Aires", "Código de departamentos/comuna": "06134", "Nombre de departamentos/comuna": "Cañuelas", "Código de radio": "061341401", "Nombre de radio": null, "Superficie en km2": "0.3213910145168", "Latitud del centroide": "-35.064997", "Longitud del centroide": "-58.746654", "Geometría en GeoJSON": { "type": "Polygon", "coordinates": [ [ [ -58.744726, -35.060969 ], [ -58.751417, -35.066711 ], [ -58.748518, -35.069027 ], [ -58.741898, -35.063234 ], [ -58.744726, -35.060969 ] ] ] } }, "geometry": { "type": "MultiPolygon", "coordinates": [ [ [ [ -58.744726744933999, -35.060969279801 ], [ -58.751417350825001, -35.066711198937 ], [ -58.748518262848002, -35.069027069489003 ], [ -58.741898860055002, -35.063234118121997 ], [ -58.744726744933999, -35.060969279801 ] ] ] ] } },
{ "type": "Feature", "properties": { "ID Renabap": "1497", "Nombre del barrio": "Máximo Paz Oeste", "Cantidad de familias que viven en el barrio": "639", "Año de creación del barrio": "0", "Década de creación del barrio": "Década 2000", "Tipología barrial": "Asentamiento", "Situación dominial": "NO", "Situación predominante sobre la conexión a la energía eléctrica": "Conexión irregular a la red", "Situación predominante sobre la conexión a la red cloacal": "Desagüe a cámara séptica y pozo ciego", "Situación predominante sobre la conexión a la red de agua": "Bomba de agua de pozo domiciliaria", "Situación predominante sobre la conexión a la red de gas": "Gas en garrafa", "Código de provincia": "06", "Nombre de provincia": "Buenos Aires", "Código de departamentos/comuna": "06134", "Nombre de departamentos/comuna": "Cañuelas", "Código de radio": "061340906", "Nombre de radio": null, "Superficie en km2": "0.44451800435667", "Latitud del centroide": "-34.927075", "Longitud del centroide": "-58.616287", "Geometría en GeoJSON": { "type": "Polygon", "coordinates": [ [ [ -58.620343, -34.930038 ], [ -58.618064, -34.932927 ], [ -58.617684, -34.932553 ], [ -58.617095, -34.931869 ], [ -58.616995, -34.931823 ], [ -58.616288, -34.930963 ], [ -58.615613, -34.930237 ], [ -58.615013, -34.929601 ], [ -58.612964, -34.927285 ], [ -58.612351, -34.926529 ], [ -58.611069, -34.925023 ], [ -58.612092, -34.924540 ], [ -58.612309, -34.924529 ], [ -58.613397, -34.924245 ], [ -58.613509, -34.924144 ], [ -58.613513, -34.924143 ], [ -58.614629, -34.923783 ], [ -58.614888, -34.923698 ], [ -58.615116, -34.923819 ], [ -58.615487, -34.924015 ], [ -58.615657, -34.924097 ], [ -58.615823, -34.924105 ], [ -58.616310, -34.924007 ], [ -58.616478, -34.923783 ], [ -58.616772, -34.923332 ], [ -58.617276, -34.923492 ], [ -58.617463, -34.923273 ], [ -58.617625, -34.923319 ], [ -58.618429, -34.922151 ], [ -58.618731, -34.922395 ], [ -58.618845, -34.922924 ], [ -58.619411, -34.923958 ], [ -58.620211, -34.924153 ], [ -58.620307, -34.924426 ], [ -58.619889, -34.925091 ], [ -58.619180, -34.924967 ], [ -58.618982, -34.925144 ], [ -58.618712, -34.925898 ], [ -58.617577, -34.928539 ], [ -58.618102, -34.929109 ], [ -58.618740, -34.929255 ], [ -58.619072, -34.929869 ], [ -58.620343, -34.930038 ] ] ] } }, "geometry": { "type": "MultiPolygon", "coordinates": [ [ [ [ -58.620343635, -34.93003824 ], [ -58.618064012551997, -34.932927628602997 ], [ -58.617684124100997, -34.932553420508 ], [ -58.617095484845997, -34.931869934367 ], [ -58.616995091565002, -34.931823548555002 ], [ -58.616288621142999, -34.930963426839 ], [ -58.615613766395001, -34.930237841283002 ], [ -58.615013628843997, -34.929601877011002 ], [ -58.612964139913998, -34.927285405813997 ], [ -58.612351162227, -34.926529068721003 ], [ -58.611069264572997, -34.925023949097998 ], [ -58.612092815, -34.924540767 ], [ -58.612309138, -34.924529177 ], [ -58.613397497, -34.924245887 ], [ -58.613509843, -34.924144991 ], [ -58.613513349, -34.92414392 ], [ -58.614629809, -34.923783336 ], [ -58.614888613, -34.92369868 ], [ -58.615116601, -34.923819801 ], [ -58.615487784, -34.924015558 ], [ -58.615657441, -34.924097978 ], [ -58.615823002322003, -34.924105789728998 ], [ -58.616310152, -34.924007947 ], [ -58.616478211, -34.923783125 ], [ -58.616772598602999, -34.923332578549001 ], [ -58.617276985, -34.923492046 ], [ -58.617463365, -34.923273736 ], [ -58.617625204406998, -34.923319182253003 ], [ -58.618429420289999, -34.922151549402997 ], [ -58.618731378489002, -34.922395223328003 ], [ -58.618845660416, -34.922924232257998 ], [ -58.619411548351003, -34.923958395269999 ], [ -58.620211582720003, -34.924153705450998 ], [ -58.620307944065999, -34.924426812120998 ], [ -58.619889142161, -34.925091615221 ], [ -58.619180301908003, -34.924967561391 ], [ -58.618982975898, -34.925144618112 ], [ -58.618712564733002, -34.925898246525001 ], [ -58.617577603834, -34.928539391609 ], [ -58.618102032598003, -34.929109444811999 ], [ -58.618740269264002, -34.929255988453001 ], [ -58.619072346209002, -34.929869810484 ], [ -58.620343635, -34.93003824 ] ] ] ] } },
{ "type": "Feature", "properties": { "ID Renabap": "4479", "Nombre del barrio": "Glorias del Deporte", "Cantidad de familias que viven en el barrio": "110", "Año de creación del barrio": "0", "Década de creación del barrio": "Década 1990", "Tipología barrial": "Asentamiento", "Situación dominial": "NO", "Situación predominante sobre la conexión a la energía eléctrica": "Conexión formal a la red con medidor domiciliario con factura", "Situación predominante sobre la conexión a la red cloacal": "Desagüe sólo a pozo negro/ciego u hoyo", "Situación predominante sobre la conexión a la red de agua": "Bomba de agua de pozo domiciliaria", "Situación predominante sobre la conexión a la red de gas": "Gas en garrafa", "Código de provincia": "06", "Nombre de provincia": "Buenos Aires", "Código de departamentos/comuna": "06270", "Nombre de departamentos/comuna": "Ezeiza", "Código de radio": "062700701", "Nombre de radio": null, "Superficie en km2": "0.04548880066048", "Latitud del centroide": "-34.881328", "Longitud del centroide": "-58.558786", "Geometría en GeoJSON": { "type": "Polygon", "coordinates": [ [ [ -58.560643, -34.881567 ], [ -58.559642, -34.882809 ], [ -58.556878, -34.880704 ], [ -58.557531, -34.879943 ], [ -58.560643, -34.881567 ] ] ] } }, "geometry": { "type": "MultiPolygon", "coordinates": [ [ [ [ -58.560643790722999, -34.881567887909 ], [ -58.559642477768001, -34.882809036302 ], [ -58.556878374341998, -34.880704480330998 ], [ -58.557531925912002, -34.879943002814997 ], [ -58.560643790722999, -34.881567887909 ] ] ] ] } },
{ "type": "Feature", "properties": { "ID Renabap": "4484", "Nombre del barrio": "La Pradera", "Cantidad de familias que viven en el barrio": "715", "Año de creación del barrio": "0", "Década de creación del barrio": "Década 2000", "Tipología barrial": "Asentamiento", "Situación dominial": "NO", "Situación predominante sobre la conexión a la energía eléctrica": "Conexión irregular a la red", "Situación predominante sobre la conexión a la red cloacal": "Desagüe sólo a pozo negro/ciego u hoyo", "Situación predominante sobre la conexión a la red de agua": "Bomba de agua de pozo domiciliaria", "Situación predominante sobre la conexión a la red de gas": "Gas en garrafa", "Código de provincia": "06", "Nombre de provincia": "Buenos Aires", "Código de departamentos/comuna": "06134", "Nombre de departamentos/comuna": "Cañuelas", "Código de radio": "061340904", "Nombre de radio": null, "Superficie en km2": "0.59444280174131", "Latitud del centroide": "-34.92352", "Longitud del centroide": "-58.622488", "Geometría en GeoJSON": { "type": "Polygon", "coordinates": [ [ [ -58.619129, -34.929831 ], [ -58.618747, -34.929206 ], [ -58.618088, -34.929048 ], [ -58.617615, -34.928519 ], [ -58.618110, -34.927469 ], [ -58.618313, -34.926985 ], [ -58.618734, -34.926413 ], [ -58.618909, -34.925876 ], [ -58.619094, -34.925206 ], [ -58.619193, -34.925095 ], [ -58.619360, -34.925054 ], [ -58.619742, -34.925126 ], [ -58.619921, -34.925099 ], [ -58.620051, -34.924978 ], [ -58.620229, -34.924815 ], [ -58.620394, -34.924540 ], [ -58.620429, -34.924304 ], [ -58.620288, -34.924165 ], [ -58.619435, -34.923861 ], [ -58.618983, -34.922911 ], [ -58.618806, -34.922370 ], [ -58.618575, -34.921946 ], [ -58.618839, -34.921285 ], [ -58.620484, -34.920319 ], [ -58.621388, -34.919759 ], [ -58.622407, -34.919635 ], [ -58.622838, -34.919849 ], [ -58.623169, -34.919919 ], [ -58.623471, -34.919870 ], [ -58.623779, -34.919757 ], [ -58.625281, -34.919226 ], [ -58.626357, -34.918516 ], [ -58.626611, -34.918456 ], [ -58.627204, -34.918559 ], [ -58.627527, -34.918520 ], [ -58.628275, -34.918362 ], [ -58.628963, -34.917988 ], [ -58.629569, -34.917634 ], [ -58.629683, -34.917774 ], [ -58.629549, -34.917945 ], [ -58.629574, -34.918174 ], [ -58.629369, -34.918245 ], [ -58.628530, -34.919290 ], [ -58.620427, -34.929927 ], [ -58.620932, -34.930278 ], [ -58.621204, -34.930507 ], [ -58.620968, -34.930611 ], [ -58.620785, -34.930466 ], [ -58.620262, -34.930141 ], [ -58.620343, -34.930038 ], [ -58.619129, -34.929831 ] ] ] } }, "geometry": { "type": "MultiPolygon", "coordinates": [ [ [ [ -58.619129, -34.929831 ], [ -58.618748, -34.929206 ], [ -58.618088, -34.929048 ], [ -58.617616, -34.92852 ], [ -58.61811, -34.927469 ], [ -58.618314, -34.926985 ], [ -58.618734561682999, -34.926413990519997 ], [ -58.618909, -34.925877 ], [ -58.619094761507, -34.925206261698001 ], [ -58.61919363989, -34.925095612078998 ], [ -58.61936, -34.925054 ], [ -58.619742179492, -34.925126217292998 ], [ -58.619921102280003, -34.925099143449998 ], [ -58.620051965561998, -34.924978994321997 ], [ -58.620229508666, -34.924815456659999 ], [ -58.620394305970997, -34.924540009735999 ], [ -58.620429619679001, -34.924304585013999 ], [ -58.620288, -34.924166 ], [ -58.619435, -34.923862 ], [ -58.618984, -34.922912 ], [ -58.618806375920997, -34.922370210253 ], [ -58.618575649995996, -34.921946806426 ], [ -58.618839325684, -34.921285262959003 ], [ -58.620484847100997, -34.920319234053999 ], [ -58.621388320381001, -34.919759941071 ], [ -58.622407954510997, -34.919635175713999 ], [ -58.622838014582001, -34.919849172155999 ], [ -58.623169963438997, -34.919919799573002 ], [ -58.623471307083001, -34.919870360380997 ], [ -58.623779713467997, -34.919757356514999 ], [ -58.625281859993002, -34.919226461610997 ], [ -58.626357423422, -34.918516589748002 ], [ -58.626611256391001, -34.918456358196003 ], [ -58.627204967403998, -34.918559612285001 ], [ -58.627527361001, -34.918520917696 ], [ -58.62827500281, -34.918362826668002 ], [ -58.628963739157001, -34.917988207671002 ], [ -58.629569798699002, -34.917634274542998 ], [ -58.629683027824001, -34.917774443074997 ], [ -58.629549297996, -34.917945678431003 ], [ -58.629574241463999, -34.918174541307003 ], [ -58.629369050755997, -34.918245675051999 ], [ -58.628530061547998, -34.919290995417001 ], [ -58.620427900076002, -34.929927615738997 ], [ -58.620932035317999, -34.930278162047003 ], [ -58.621204881753997, -34.930507668749001 ], [ -58.620968682330997, -34.930611708423001 ], [ -58.620785886679997, -34.930466123526998 ], [ -58.620262165348997, -34.930141501609 ], [ -58.620343635, -34.93003824 ], [ -58.619129, -34.929831 ] ] ] ] } },
{ "type": "Feature", "properties": { "ID Renabap": "4605", "Nombre del barrio": "El Paso", "Cantidad de familias que viven en el barrio": "33", "Año de creación del barrio": "0", "Década de creación del barrio": "Década 2000", "Tipología barrial": "Asentamiento", "Situación dominial": "NO", "Situación predominante sobre la conexión a la energía eléctrica": "Conexión formal a la red con medidor domiciliario con factura", "Situación predominante sobre la conexión a la red cloacal": "Desagüe a cámara séptica y pozo ciego", "Situación predominante sobre la conexión a la red de agua": "Conexión irregular a la red de agua", "Situación predominante sobre la conexión a la red de gas": "Gas en garrafa", "Código de provincia": "06", "Nombre de provincia": "Buenos Aires", "Código de departamentos/comuna": "06270", "Nombre de departamentos/comuna": "Ezeiza", "Código de radio": "062700601", "Nombre de radio": null, "Superficie en km2": "0.00896305103589", "Latitud del centroide": "-34.874295", "Longitud del centroide": "-58.555916", "Geometría en GeoJSON": { "type": "Polygon", "coordinates": [ [ [ -58.555071, -34.874340 ], [ -58.555406, -34.873900 ], [ -58.555881, -34.874154 ], [ -58.556214, -34.873783 ], [ -58.556703, -34.874047 ], [ -58.556089, -34.874855 ], [ -58.555071, -34.874340 ] ] ] } }, "geometry": { "type": "MultiPolygon", "coordinates": [ [ [ [ -58.555071425217001, -34.874340206752997 ], [ -58.555406313863998, -34.873900286131999 ], [ -58.555881662840001, -34.874154918164997 ], [ -58.556214816862997, -34.873783882990999 ], [ -58.556703096714998, -34.874047109015997 ], [ -58.556089201780999, -34.874855493799998 ], [ -58.555071425217001, -34.874340206752997 ] ] ] ] } },
{ "type": "Feature", "properties": { "ID Renabap": "4606", "Nombre del barrio": "La Balanza", "Cantidad de familias que viven en el barrio": "44", "Año de creación del barrio": "0", "Década de creación del barrio": "Década 1980", "Tipología barrial": "Asentamiento", "Situación dominial": "NO", "Situación predominante sobre la conexión a la energía eléctrica": "Conexión irregular a la red", "Situación predominante sobre la conexión a la red cloacal": "Desagüe a cámara séptica y pozo ciego", "Situación predominante sobre la conexión a la red de agua": "Bomba de agua de pozo domiciliaria", "Situación predominante sobre la conexión a la red de gas": "Gas en garrafa", "Código de provincia": "06", "Nombre de provincia": "Buenos Aires", "Código de departamentos/comuna": "06134", "Nombre de departamentos/comuna": "Cañuelas", "Código de radio": "061341106", "Nombre de radio": null, "Superficie en km2": "0.04708632990549", "Latitud del centroide": "-35.030801", "Longitud del centroide": "-58.729526", "Geometría en GeoJSON": { "type": "Polygon", "coordinates": [ [ [ -58.729197, -35.030792 ], [ -58.729056, -35.030887 ], [ -58.729142, -35.030985 ], [ -58.728280, -35.031636 ], [ -58.728571, -35.031900 ], [ -58.728149, -35.032186 ], [ -58.727447, -35.031562 ], [ -58.728863, -35.030481 ], [ -58.728211, -35.029873 ], [ -58.728683, -35.029838 ], [ -58.731582, -35.029884 ], [ -58.730803, -35.030463 ], [ -58.731143, -35.030789 ], [ -58.730438, -35.031324 ], [ -58.730536, -35.031416 ], [ -58.729607, -35.032056 ], [ -58.729204, -35.031672 ], [ -58.729714, -35.031275 ], [ -58.729197, -35.030792 ] ] ] } }, "geometry": { "type": "MultiPolygon", "coordinates": [ [ [ [ -58.729197250228999, -35.030792778996002 ], [ -58.729056980952997, -35.030887671278002 ], [ -58.729142701953997, -35.030985367287002 ], [ -58.728280677583001, -35.031636116511002 ], [ -58.728571481346997, -35.031900801676002 ], [ -58.728149410127003, -35.032186011017998 ], [ -58.727447695309998, -35.031562924037999 ], [ -58.728863075132999, -35.030481064903 ], [ -58.728211596607999, -35.029873374381999 ], [ -58.728683665395003, -35.029838233021998 ], [ -58.731582777760998, -35.029884812977002 ], [ -58.730803920797001, -35.030463468047003 ], [ -58.731143738714003, -35.030789433621997 ], [ -58.730438234163003, -35.031324942185996 ], [ -58.730536607253001, -35.031416266562999 ], [ -58.729607791310997, -35.032056080731998 ], [ -58.729204787203003, -35.031672463040003 ], [ -58.729714435731999, -35.031275202768001 ], [ -58.729197250228999, -35.030792778996002 ] ] ] ] } },
{ "type": "Feature", "properties": { "ID Renabap": "4744", "Nombre del barrio": "Vista Linda", "Cantidad de familias que viven en el barrio": "220", "Año de creación del barrio": "2015", "Década de creación del barrio": "Década 2010", "Tipología barrial": "Asentamiento", "Situación dominial": "NO", "Situación predominante sobre la conexión a la energía eléctrica": "Conexión irregular a la red", "Situación predominante sobre la conexión a la red cloacal": "Desagüe a cámara séptica y pozo ciego", "Situación predominante sobre la conexión a la red de agua": "Bomba de agua de pozo domiciliaria", "Situación predominante sobre la conexión a la red de gas": "Gas en garrafa", "Código de provincia": "06", "Nombre de provincia": "Buenos Aires", "Código de departamentos/comuna": "06270", "Nombre de departamentos/comuna": "Ezeiza", "Código de radio": "062701104", "Nombre de radio": null, "Superficie en km2": "0.1942351886568", "Latitud del centroide": "-34.906577", "Longitud del centroide": "-58.545972", "Geometría en GeoJSON": { "type": "Polygon", "coordinates": [ [ [ -58.547310, -34.907214 ], [ -58.545723, -34.909338 ], [ -58.546253, -34.909595 ], [ -58.545752, -34.910260 ], [ -58.545215, -34.910010 ], [ -58.543812, -34.909259 ], [ -58.544372, -34.908497 ], [ -58.543698, -34.908171 ], [ -58.544007, -34.907719 ], [ -58.544359, -34.907910 ], [ -58.544647, -34.907537 ], [ -58.544794, -34.907619 ], [ -58.544998, -34.907344 ], [ -58.543773, -34.906752 ], [ -58.543973, -34.906481 ], [ -58.543650, -34.906304 ], [ -58.543808, -34.906083 ], [ -58.544160, -34.906255 ], [ -58.544501, -34.905788 ], [ -58.543793, -34.905463 ], [ -58.545139, -34.903531 ], [ -58.549226, -34.905457 ], [ -58.547786, -34.907463 ], [ -58.547310, -34.907214 ] ] ] } }, "geometry": { "type": "MultiPolygon", "coordinates": [ [ [ [ -58.547310231890997, -34.907214816725002 ], [ -58.545723371347002, -34.909338005692 ], [ -58.546253487492002, -34.909595079664001 ], [ -58.545752834018003, -34.910260035527003 ], [ -58.545215143979, -34.910010957102998 ], [ -58.543812041659997, -34.909259693526003 ], [ -58.544372559041001, -34.908497807412999 ], [ -58.543698807999, -34.908171270611 ], [ -58.544007530960997, -34.907719234166997 ], [ -58.544359058208002, -34.907910459965002 ], [ -58.544647876726003, -34.907537834014001 ], [ -58.5447940078, -34.907619084400999 ], [ -58.544998379385, -34.907344388965001 ], [ -58.54377338506, -34.906752604330002 ], [ -58.543973044669002, -34.906481504905997 ], [ -58.543650795937999, -34.906304338965001 ], [ -58.543808662426002, -34.906083971793002 ], [ -58.544160573520998, -34.906255615538001 ], [ -58.544501822850997, -34.905788878297002 ], [ -58.543793603662998, -34.905463709807997 ], [ -58.545139510733001, -34.903531277760997 ], [ -58.549226405022999, -34.905457868660001 ], [ -58.547786900750999, -34.907463054921998 ], [ -58.547310231890997, -34.907214816725002 ] ] ] ] } },
{ "type": "Feature", "properties": { "ID Renabap": "5396", "Nombre del barrio": "San Ignacio", "Cantidad de familias que viven en el barrio": "17", "Año de creación del barrio": "2011", "Década de creación del barrio": "Década 2010", "Tipología barrial": "Asentamiento", "Situación dominial": "NO", "Situación predominante sobre la conexión a la energía eléctrica": "Conexión irregular a la red", "Situación predominante sobre la conexión a la red cloacal": "Desagüe sólo a pozo negro/ciego u hoyo", "Situación predominante sobre la conexión a la red de agua": "Bomba de agua de pozo comunitaria", "Situación predominante sobre la conexión a la red de gas": "Gas en garrafa", "Código de provincia": "06", "Nombre de provincia": "Buenos Aires", "Código de departamentos/comuna": "06134", "Nombre de departamentos/comuna": "Cañuelas", "Código de radio": "061341004", "Nombre de radio": null, "Superficie en km2": "0.00797117534431", "Latitud del centroide": "-35.05051", "Longitud del centroide": "-58.737441", "Geometría en GeoJSON": { "type": "Polygon", "coordinates": [ [ [ -58.738166, -35.050501 ], [ -58.737641, -35.050885 ], [ -58.737551, -35.050815 ], [ -58.737374, -35.050943 ], [ -58.737295, -35.050878 ], [ -58.736957, -35.051136 ], [ -58.736742, -35.050939 ], [ -58.737279, -35.050496 ], [ -58.736961, -35.050229 ], [ -58.737408, -35.049889 ], [ -58.738166, -35.050501 ] ] ] } }, "geometry": { "type": "MultiPolygon", "coordinates": [ [ [ [ -58.738166730103003, -35.050501665826999 ], [ -58.737641197876002, -35.050885844931997 ], [ -58.737551100833002, -35.050815963948999 ], [ -58.737374225499003, -35.050943450984001 ], [ -58.737295204980001, -35.050878054986001 ], [ -58.736957571578003, -35.051136229127998 ], [ -58.736742417199999, -35.050939320311997 ], [ -58.737279410721001, -35.050496032315003 ], [ -58.736961321270002, -35.050229585510003 ], [ -58.737408885630003, -35.049889146250997 ], [ -58.738166730103003, -35.050501665826999 ] ] ] ] } },
{ "type": "Feature", "properties": { "ID Renabap": "5397", "Nombre del barrio": "Manuel Belgrano", "Cantidad de familias que viven en el barrio": "143", "Año de creación del barrio": "0", "Década de creación del barrio": "Década 1960", "Tipología barrial": "Asentamiento", "Situación dominial": "NO", "Situación predominante sobre la conexión a la energía eléctrica": "Conexión irregular a la red", "Situación predominante sobre la conexión a la red cloacal": "Desagüe sólo a pozo negro/ciego u hoyo", "Situación predominante sobre la conexión a la red de agua": "Bomba de agua de pozo domiciliaria", "Situación predominante sobre la conexión a la red de gas": "Gas en garrafa", "Código de provincia": "06", "Nombre de provincia": "Buenos Aires", "Código de departamentos/comuna": "06134", "Nombre de departamentos/comuna": "Cañuelas", "Código de radio": "061340901", "Nombre de radio": null, "Superficie en km2": "1.47524553869967", "Latitud del centroide": "-34.902323", "Longitud del centroide": "-58.648782", "Geometría en GeoJSON": { "type": "Polygon", "coordinates": [ [ [ -58.641910, -34.904443 ], [ -58.642532, -34.904801 ], [ -58.641564, -34.906057 ], [ -58.639382, -34.904965 ], [ -58.642004, -34.901639 ], [ -58.645258, -34.897382 ], [ -58.645980, -34.897761 ], [ -58.647882, -34.895269 ], [ -58.648926, -34.893990 ], [ -58.649549, -34.894369 ], [ -58.651622, -34.891684 ], [ -58.652710, -34.892309 ], [ -58.653844, -34.893167 ], [ -58.651945, -34.895567 ], [ -58.650974, -34.896849 ], [ -58.652475, -34.897651 ], [ -58.654048, -34.895610 ], [ -58.655150, -34.894170 ], [ -58.655897, -34.894571 ], [ -58.657288, -34.895322 ], [ -58.656685, -34.896122 ], [ -58.652802, -34.901310 ], [ -58.651322, -34.900537 ], [ -58.649436, -34.903047 ], [ -58.654218, -34.905600 ], [ -58.652301, -34.908130 ], [ -58.652825, -34.908390 ], [ -58.649370, -34.911391 ], [ -58.648534, -34.912127 ], [ -58.646904, -34.911284 ], [ -58.643423, -34.909469 ], [ -58.644697, -34.907746 ], [ -58.643120, -34.906913 ], [ -58.647006, -34.901815 ], [ -58.644072, -34.900375 ], [ -58.643166, -34.901595 ], [ -58.643809, -34.901953 ], [ -58.641910, -34.904443 ] ] ] } }, "geometry": { "type": "MultiPolygon", "coordinates": [ [ [ [ -58.641910528133003, -34.904443828544998 ], [ -58.642532068534003, -34.90480157487 ], [ -58.641564393046004, -34.906057099171001 ], [ -58.639382795216001, -34.904965840067 ], [ -58.642004370991003, -34.901639234271002 ], [ -58.645258380201, -34.897382012312001 ], [ -58.645980465169998, -34.897761494659001 ], [ -58.647882090784996, -34.895269071687999 ], [ -58.648926676042997, -34.893990538433002 ], [ -58.649549981554998, -34.894369311953 ], [ -58.651622998183001, -34.891684404458999 ], [ -58.652710106976002, -34.892309346452997 ], [ -58.653844188538997, -34.893167290076001 ], [ -58.651945157958998, -34.895567720370003 ], [ -58.650974698924998, -34.896849161680997 ], [ -58.652475185043002, -34.897651573529998 ], [ -58.654048948556998, -34.895610447627 ], [ -58.655150394989001, -34.894170656702002 ], [ -58.655897343359001, -34.894571708383999 ], [ -58.657288615709, -34.895322300783 ], [ -58.656685493993997, -34.896122930662997 ], [ -58.652802393138998, -34.901310768210998 ], [ -58.651322571728002, -34.900537206678003 ], [ -58.649436234235999, -34.903047957134 ], [ -58.654218136939001, -34.905600241625002 ], [ -58.652301364069999, -34.908130094101999 ], [ -58.652825981469, -34.908390383098997 ], [ -58.649370841516998, -34.911391724841998 ], [ -58.648534716198, -34.912127310251002 ], [ -58.646904055653998, -34.911284096223 ], [ -58.643423321497998, -34.909469178195003 ], [ -58.644697570433998, -34.907746180052001 ], [ -58.643120449883, -34.906913238973999 ], [ -58.647006009538998, -34.901815982544001 ], [ -58.644072449172, -34.900375346964999 ], [ -58.643166287680003, -34.901595943449998 ], [ -58.643809655250998, -34.901953798714999 ], [ -58.641910528133003, -34.904443828544998 ] ] ] ] } },
{ "type": "Feature", "properties": { "ID Renabap": "5401", "Nombre del barrio": "Barrio del Plata", "Cantidad de familias que viven en el barrio": "41", "Año de creación del barrio": "0", "Década de creación del barrio": "Década 1970", "Tipología barrial": "Asentamiento", "Situación dominial": "NO", "Situación predominante sobre la conexión a la energía eléctrica": "Conexión formal a la red con medidor domiciliario con factura", "Situación predominante sobre la conexión a la red cloacal": "Desagüe sólo a pozo negro/ciego u hoyo", "Situación predominante sobre la conexión a la red de agua": "Bomba de agua de pozo domiciliaria", "Situación predominante sobre la conexión a la red de gas": "Conexión formal a la red de gas con factura", "Código de provincia": "06", "Nombre de provincia": "Buenos Aires", "Código de departamentos/comuna": "06270", "Nombre de departamentos/comuna": "Ezeiza", "Código de radio": "062701008", "Nombre de radio": null, "Superficie en km2": "0.01599466204452", "Latitud del centroide": "-34.909011", "Longitud del centroide": "-58.57702", "Geometría en GeoJSON": { "type": "Polygon", "coordinates": [ [ [ -58.575999, -34.908946 ], [ -58.576759, -34.907979 ], [ -58.578150, -34.909870 ], [ -58.578048, -34.909999 ], [ -58.575999, -34.908946 ] ] ] } }, "geometry": { "type": "MultiPolygon", "coordinates": [ [ [ [ -58.575999172248999, -34.908946522981999 ], [ -58.576759250673, -34.907979302983001 ], [ -58.578150730231002, -34.909870178577997 ], [ -58.578048407946, -34.909999071012997 ], [ -58.575999172248999, -34.908946522981999 ] ] ] ] } },
{ "type": "Feature", "properties": { "ID Renabap": "5402", "Nombre del barrio": "Los Guindos", "Cantidad de familias que viven en el barrio": "44", "Año de creación del barrio": "2012", "Década de creación del barrio": "Década 2010", "Tipología barrial": "Asentamiento", "Situación dominial": "NO", "Situación predominante sobre la conexión a la energía eléctrica": "Conexión formal a la red con medidor domiciliario con factura", "Situación predominante sobre la conexión a la red cloacal": "Desagüe a cámara séptica y pozo ciego", "Situación predominante sobre la conexión a la red de agua": "Bomba de agua de pozo domiciliaria", "Situación predominante sobre la conexión a la red de gas": "Gas en garrafa", "Código de provincia": "06", "Nombre de provincia": "Buenos Aires", "Código de departamentos/comuna": "06270", "Nombre de departamentos/comuna": "Ezeiza", "Código de radio": "062701812", "Nombre de radio": null, "Superficie en km2": "0.04521691039435", "Latitud del centroide": "-34.925209", "Longitud del centroide": "-58.60482", "Geometría en GeoJSON": { "type": "Polygon", "coordinates": [ [ [ -58.606271, -34.925927 ], [ -58.606001, -34.925998 ], [ -58.605432, -34.926025 ], [ -58.604877, -34.926138 ], [ -58.602896, -34.925024 ], [ -58.603690, -34.923924 ], [ -58.606186, -34.925232 ], [ -58.607475, -34.925894 ], [ -58.607384, -34.926015 ], [ -58.607337, -34.926034 ], [ -58.607240, -34.926046 ], [ -58.606628, -34.925857 ], [ -58.606535, -34.925849 ], [ -58.606437, -34.925863 ], [ -58.606357, -34.925889 ], [ -58.606271, -34.925927 ] ] ] } }, "geometry": { "type": "MultiPolygon", "coordinates": [ [ [ [ -58.606272, -34.925927 ], [ -58.606001343816999, -34.925998421660999 ], [ -58.605432201992002, -34.926025493960999 ], [ -58.604877471102, -34.926138555564997 ], [ -58.602896618343003, -34.925024000180002 ], [ -58.603690210480998, -34.923924144022997 ], [ -58.606187, -34.925233 ], [ -58.607475, -34.925895 ], [ -58.607384, -34.926016 ], [ -58.607337, -34.926034 ], [ -58.607240874219997, -34.926046034043999 ], [ -58.606628, -34.925857 ], [ -58.606535, -34.92585 ], [ -58.606438, -34.925864 ], [ -58.606357476261998, -34.925889973164999 ], [ -58.606272, -34.925927 ] ] ] ] } },
{ "type": "Feature", "properties": { "ID Renabap": "6378", "Nombre del barrio": "Pocho", "Cantidad de familias que viven en el barrio": "22", "Año de creación del barrio": "2020", "Década de creación del barrio": "Década 2020", "Tipología barrial": "Asentamiento", "Situación dominial": "NO", "Situación predominante sobre la conexión a la energía eléctrica": "Conexión irregular a la red", "Situación predominante sobre la conexión a la red cloacal": "Desagüe sólo a pozo negro/ciego u hoyo", "Situación predominante sobre la conexión a la red de agua": "Bomba de agua de pozo domiciliaria", "Situación predominante sobre la conexión a la red de gas": "Gas en garrafa", "Código de provincia": "06", "Nombre de provincia": "Buenos Aires", "Código de departamentos/comuna": "06134", "Nombre de departamentos/comuna": "Cañuelas", "Código de radio": "061340101", "Nombre de radio": null, "Superficie en km2": "0.01994951067303", "Latitud del centroide": "-34.943567", "Longitud del centroide": "-58.734929", "Geometría en GeoJSON": { "type": "Polygon", "coordinates": [ [ [ -58.736109, -34.944613 ], [ -58.735779, -34.944868 ], [ -58.733746, -34.942989 ], [ -58.733544, -34.943192 ], [ -58.733327, -34.942927 ], [ -58.733591, -34.942766 ], [ -58.733732, -34.942898 ], [ -58.733919, -34.942889 ], [ -58.734237, -34.942651 ], [ -58.735018, -34.943218 ], [ -58.735572, -34.942819 ], [ -58.735729, -34.942962 ], [ -58.735480, -34.943184 ], [ -58.735819, -34.943468 ], [ -58.735318, -34.943875 ], [ -58.736109, -34.944613 ] ] ] } }, "geometry": { "type": "MultiPolygon", "coordinates": [ [ [ [ -58.736109923773, -34.944613852827999 ], [ -58.735779843446998, -34.944868526443997 ], [ -58.733746345984002, -34.942989303726002 ], [ -58.733544307556002, -34.943192974254004 ], [ -58.733327339469, -34.942927843539998 ], [ -58.733591588899003, -34.942766597854003 ], [ -58.733732923142, -34.942898379799999 ], [ -58.733919181063001, -34.942889867071003 ], [ -58.73423732709, -34.942651804013998 ], [ -58.735018849431, -34.943218994877 ], [ -58.735572750979003, -34.94281903001 ], [ -58.735729429886, -34.942962235663998 ], [ -58.735480466416, -34.943184333760001 ], [ -58.735819888579002, -34.943468908447002 ], [ -58.735318453203, -34.943875314734001 ], [ -58.736109923773, -34.944613852827999 ] ] ] ] } }
]
}
