{
"type": "FeatureCollection",
"name": "UC_unido_arba_rpub_opisu",
"crs": { "type": "name", "properties": { "name": "urn:ogc:def:crs:OGC:1.3:CRS84" } },
"features": [
{ "type": "Feature", "properties": { "partido": "EZEIZA", "nom_empren": "LA VIEJA ESTACIÓN", "r_arba": 1, "r_urbasig": 0, "edificado": 1, "sup_ha": 1.02, "CLASE": "CATASTRO", "SUBCLASE": "PARCELARIO", "CODIGO_IDE": "110107", "GNA": "CONJUNTO INM", "NAM": "LA VIEJA ESTAC", "TCI": "VIVIENDA", "ARA": 0.01, "FNA": "LA VIEJA ESTACIÓN", "OBJETO": "CONJUNTO INMOBILIARIO", "ARAm2": 10852.51, "SAG": "OPISU - PBA", "fecha_re_5": null, "expte_min": null, "tipo_min": null, "unidades_5": null, "n10_min": null, "n_resolu_5": null, "organism_5": null, "n15_min": null, "actualiz_4": null, "actualiz_5": null, "ocupacio12": null, "subdivis_4": null, "subdivis_5": null, "relevami_5": null, "tipo_uc": "Vivienda", "tipo_valor": "TU" }, "geometry": { "type": "MultiPolygon", "coordinates": [ [ [ [ -58.5064, -34.876 ], [ -58.5055, -34.8765 ], [ -58.5062, -34.8773 ], [ -58.5071, -34.8768 ], [ -58.5064, -34.876 ] ] ] ] } },
{ "type": "Feature", "properties": { "partido": "EZEIZA", "nom_empren": "ALTOS DE VALDEVEZ CONDOMINIOS", "r_arba": 1, "r_urbasig": 1, "edificado": 1, "sup_ha": 35.67, "CLASE": "CATASTRO", "SUBCLASE": "PARCELARIO", "CODIGO_IDE": "110107", "GNA": "CONJUNTO INM", "NAM": "ALTOS DE VALDE", "TCI": "VIVIENDA", "ARA": 0.35, "FNA": "ALTOS DE VALDEVEZ CONDOMINIOS", "OBJETO": "CONJUNTO INMOBILIARIO", "ARAm2": 353556.22, "SAG": "OPISU - PBA", "fecha_re_5": "03/11/2015", "expte_min": "4129-9730/11", "tipo_min": "BC", "unidades_5": "120 V.U. y 23 V.M.", "n10_min": "238558,78m2", "n_resolu_5": "599/11", "organism_5": "MUNICIPIO", "n15_min": "RPUC_294.pdf", "actualiz_4": "Mayo de 2016", "actualiz_5": "Mayo de 2016", "ocupacio12": 100.0, "subdivis_4": "130-34-2015", "subdivis_5": "130-34-2015", "relevami_5": "Junio 2022", "tipo_uc": "Vivienda", "tipo_valor": "TR" }, "geometry": { "type": "MultiPolygon", "coordinates": [ [ [ [ -58.5931, -34.8825 ], [ -58.5913, -34.8811 ], [ -58.5896, -34.8797 ], [ -58.5882, -34.8786 ], [ -58.5879, -34.8784 ], [ -58.5871, -34.8777 ], [ -58.5868, -34.8775 ], [ -58.5864, -34.8774 ], [ -58.586, -34.8774 ], [ -58.5857, -34.8775 ], [ -58.5853, -34.8776 ], [ -58.585, -34.8777 ], [ -58.5847, -34.8776 ], [ -58.5834, -34.8793 ], [ -58.5827, -34.8802 ], [ -58.5835, -34.8806 ], [ -58.5912, -34.8846 ], [ -58.5915, -34.8847 ], [ -58.5927, -34.883 ], [ -58.5931, -34.8825 ] ] ] ] } },
{ "type": "Feature", "properties": { "partido": "EZEIZA", "nom_empren": "MAIN PARK", "r_arba": 1, "r_urbasig": 0, "edificado": 1, "sup_ha": 1.79, "CLASE": "CATASTRO", "SUBCLASE": "PARCELARIO", "CODIGO_IDE": "110107", "GNA": "CONJUNTO INM", "NAM": "MAIN PARK", "TCI": "VIVIENDA", "ARA": 0.02, "FNA": "MAIN PARK", "OBJETO": "CONJUNTO INMOBILIARIO", "ARAm2": 17852.42, "SAG": "OPISU - PBA", "fecha_re_5": null, "expte_min": null, "tipo_min": null, "unidades_5": null, "n10_min": null, "n_resolu_5": null, "organism_5": null, "n15_min": null, "actualiz_4": null, "actualiz_5": null, "ocupacio12": null, "subdivis_4": null, "subdivis_5": null, "relevami_5": null, "tipo_uc": "Vivienda", "tipo_valor": "TU" }, "geometry": { "type": "MultiPolygon", "coordinates": [ [ [ [ -58.5054, -34.8695 ], [ -58.5033, -34.8686 ], [ -58.5028, -34.8691 ], [ -58.5049, -34.8702 ], [ -58.5054, -34.8695 ] ] ] ] } },
{ "type": "Feature", "properties": { "partido": "CAÑUELAS", "nom_empren": "CAÑUELAS PARK CLUB DE CAMPO", "r_arba": 1, "r_urbasig": 0, "edificado": 1, "sup_ha": 17.76, "CLASE": "CATASTRO", "SUBCLASE": "PARCELARIO", "CODIGO_IDE": "110107", "GNA": "CONJUNTO INM", "NAM": "CAÑUELAS PARK", "TCI": "VIVIENDA", "ARA": 0.18, "FNA": "CAÑUELAS PARK CLUB DE CAMPO", "OBJETO": "CONJUNTO INMOBILIARIO", "ARAm2": 181660.46, "SAG": "OPISU - PBA", "fecha_re_5": null, "expte_min": null, "tipo_min": null, "unidades_5": null, "n10_min": null, "n_resolu_5": null, "organism_5": null, "n15_min": null, "actualiz_4": null, "actualiz_5": null, "ocupacio12": null, "subdivis_4": null, "subdivis_5": null, "relevami_5": null, "tipo_uc": "Vivienda", "tipo_valor": "TR" }, "geometry": { "type": "MultiPolygon", "coordinates": [ [ [ [ -58.6011, -34.9404 ], [ -58.5992, -34.9428 ], [ -58.6028, -34.9461 ], [ -58.6042, -34.9444 ], [ -58.6054, -34.9427 ], [ -58.6011, -34.9404 ] ] ] ] } },
{ "type": "Feature", "properties": { "partido": "EZEIZA", "nom_empren": "LOS TALAS", "r_arba": 1, "r_urbasig": 1, "edificado": 1, "sup_ha": 61.54, "CLASE": "CATASTRO", "SUBCLASE": "PARCELARIO", "CODIGO_IDE": "110107", "GNA": "CONJUNTO INM", "NAM": "LOS TALAS", "TCI": "VIVIENDA", "ARA": 0.62, "FNA": "LOS TALAS", "OBJETO": "CONJUNTO INMOBILIARIO", "ARAm2": 617171.73, "SAG": "OPISU - PBA", "fecha_re_5": "03/11/2015", "expte_min": "4129-14359/09", "tipo_min": "BC", "unidades_5": "485 V.U. y 97  V. M", "n10_min": "595638 m2", "n_resolu_5": "465/11", "organism_5": "MUNICIPIO", "n15_min": "RPUC_291.pdf", "actualiz_4": "Mayo de 2016", "actualiz_5": "Mayo de 2016", "ocupacio12": 100.0, "subdivis_4": null, "subdivis_5": null, "relevami_5": "Junio 2022", "tipo_uc": "Vivienda", "tipo_valor": "TR" }, "geometry": { "type": "MultiPolygon", "coordinates": [ [ [ [ -58.5151, -34.9379 ], [ -58.5111, -34.9326 ], [ -58.5024, -34.9377 ], [ -58.5052, -34.9403 ], [ -58.5056, -34.9402 ], [ -58.5058, -34.9402 ], [ -58.5081, -34.9415 ], [ -58.5083, -34.9416 ], [ -58.5086, -34.9417 ], [ -58.5089, -34.9417 ], [ -58.509, -34.9417 ], [ -58.5091, -34.9416 ], [ -58.5094, -34.9415 ], [ -58.5151, -34.9379 ] ] ] ] } },
{ "type": "Feature", "properties": { "partido": "EZEIZA", "nom_empren": "TERRALAGOS", "r_arba": 1, "r_urbasig": 1, "edificado": 1, "sup_ha": 264.32, "CLASE": "CATASTRO", "SUBCLASE": "PARCELARIO", "CODIGO_IDE": "110107", "GNA": "CONJUNTO INM", "NAM": "TERRALAGOS", "TCI": "VIVIENDA", "ARA": 2.64, "FNA": "TERRALAGOS", "OBJETO": "CONJUNTO INMOBILIARIO", "ARAm2": 2635730.19, "SAG": "OPISU - PBA", "fecha_re_5": "03/11/2015", "expte_min": "4129-20753-2010 Y CUERPO 2", "tipo_min": "BC", "unidades_5": "1291 V.U y 540 V.M.", "n10_min": "264 HA; 51A; 52,66CA", "n_resolu_5": "1107/13", "organism_5": "MUNICIPIO", "n15_min": "RPUC_292.pdf", "actualiz_4": "Mayo de 2016", "actualiz_5": "Mayo de 2016", "ocupacio12": 100.0, "subdivis_4": "130-13-2015", "subdivis_5": "130-13-2015", "relevami_5": "Junio 2022", "tipo_uc": "Vivienda", "tipo_valor": "TR" }, "geometry": { "type": "MultiPolygon", "coordinates": [ [ [ [ -58.5383, -34.8991 ], [ -58.5333, -34.8967 ], [ -58.5271, -34.8936 ], [ -58.5256, -34.8928 ], [ -58.5251, -34.8926 ], [ -58.5198, -34.8997 ], [ -58.5145, -34.9071 ], [ -58.5278, -34.9135 ], [ -58.5383, -34.8991 ] ] ] ] } },
{ "type": "Feature", "properties": { "partido": "EZEIZA", "nom_empren": "SIN NOMBRE", "r_arba": 0, "r_urbasig": 1, "edificado": 0, "sup_ha": 14.81, "CLASE": "CATASTRO", "SUBCLASE": "PARCELARIO", "CODIGO_IDE": "110107", "GNA": "CONJUNTO INM", "NAM": "SIN NOMBRE", "TCI": "VIVIENDA", "ARA": 0.15, "FNA": "SIN NOMBRE", "OBJETO": "CONJUNTO INMOBILIARIO", "ARAm2": 146849.07, "SAG": "OPISU - PBA", "fecha_re_5": "03/11/2015", "expte_min": "4129-20753-2010 Y CUERPO 2", "tipo_min": "BC", "unidades_5": "1291 V.U y 540 V.M.", "n10_min": "264 HA; 51A; 52,66CA", "n_resolu_5": "1107/13", "organism_5": "MUNICIPIO", "n15_min": "RPUC_292.pdf", "actualiz_4": "Mayo de 2016", "actualiz_5": "Mayo de 2016", "ocupacio12": 100.0, "subdivis_4": "130-13-2015", "subdivis_5": "130-13-2015", "relevami_5": "Junio 2022", "tipo_uc": "Vivienda", "tipo_valor": "TR" }, "geometry": { "type": "MultiPolygon", "coordinates": [ [ [ [ -58.5211, -34.9148 ], [ -58.5243, -34.9164 ], [ -58.5267, -34.9131 ], [ -58.5234, -34.9115 ], [ -58.5211, -34.9148 ] ] ] ] } },
{ "type": "Feature", "properties": { "partido": "CAÑUELAS", "nom_empren": "LOMAS DE PETION", "r_arba": 1, "r_urbasig": 0, "edificado": 1, "sup_ha": 35.74, "CLASE": "CATASTRO", "SUBCLASE": "PARCELARIO", "CODIGO_IDE": "110107", "GNA": "CONJUNTO INM", "NAM": "LOMAS DE PETIO", "TCI": "VIVIENDA", "ARA": 0.35, "FNA": "LOMAS DE PETION", "OBJETO": "CONJUNTO INMOBILIARIO", "ARAm2": 353461.64, "SAG": "OPISU - PBA", "fecha_re_5": null, "expte_min": null, "tipo_min": null, "unidades_5": null, "n10_min": null, "n_resolu_5": null, "organism_5": null, "n15_min": null, "actualiz_4": null, "actualiz_5": null, "ocupacio12": null, "subdivis_4": null, "subdivis_5": null, "relevami_5": null, "tipo_uc": "Vivienda", "tipo_valor": "TU" }, "geometry": { "type": "MultiPolygon", "coordinates": [ [ [ [ -58.6749, -34.9774 ], [ -58.6765, -34.9756 ], [ -58.6771, -34.9749 ], [ -58.6781, -34.9737 ], [ -58.6807, -34.9707 ], [ -58.6802, -34.9704 ], [ -58.6799, -34.9703 ], [ -58.6773, -34.9687 ], [ -58.6772, -34.9687 ], [ -58.6723, -34.9745 ], [ -58.6716, -34.9752 ], [ -58.6714, -34.9755 ], [ -58.6749, -34.9774 ] ] ] ] } },
{ "type": "Feature", "properties": { "partido": "EZEIZA", "nom_empren": "LA PROVIDENCIA RESORT & COUNTRY CLUB", "r_arba": 1, "r_urbasig": 1, "edificado": 1, "sup_ha": 267.02, "CLASE": "CATASTRO", "SUBCLASE": "PARCELARIO", "CODIGO_IDE": "110107", "GNA": "CONJUNTO INM", "NAM": "LA PROVIDENCIA", "TCI": "VIVIENDA", "ARA": 2.66, "FNA": "LA PROVIDENCIA RESORT & COUNTR", "OBJETO": "CONJUNTO INMOBILIARIO", "ARAm2": 2660566.22, "SAG": "OPISU - PBA", "fecha_re_5": "03/11/2015", "expte_min": "4129-15307/09 Y CUERPOS 2 Y 3", "tipo_min": "BC", "unidades_5": "715 V.U y 1 V.M", "n10_min": "2633470m2", "n_resolu_5": "1106/13", "organism_5": "MUNICIPIO", "n15_min": "RPUC_293.pdf", "actualiz_4": "Mayo de 2016", "actualiz_5": "Mayo de 2016", "ocupacio12": 50.0, "subdivis_4": "130-100-2011", "subdivis_5": "130-100-2011", "relevami_5": "Junio 2022", "tipo_uc": "Vivienda", "tipo_valor": "TR" }, "geometry": { "type": "MultiPolygon", "coordinates": [ [ [ [ -58.5456, -34.9464 ], [ -58.5361, -34.9368 ], [ -58.5381, -34.934 ], [ -58.5275, -34.9289 ], [ -58.5268, -34.929 ], [ -58.5212, -34.9303 ], [ -58.5301, -34.9444 ], [ -58.5379, -34.9545 ], [ -58.5456, -34.9464 ] ] ] ] } },
{ "type": "Feature", "properties": { "partido": "EZEIZA", "nom_empren": "LA BONITA DE CANNING", "r_arba": 1, "r_urbasig": 0, "edificado": 0, "sup_ha": 6.35, "CLASE": "CATASTRO", "SUBCLASE": "PARCELARIO", "CODIGO_IDE": "110107", "GNA": "CONJUNTO INM", "NAM": "LA BONITA DE C", "TCI": "VIVIENDA", "ARA": 0.06, "FNA": "LA BONITA DE CANNING", "OBJETO": "CONJUNTO INMOBILIARIO", "ARAm2": 62734.91, "SAG": "OPISU - PBA", "fecha_re_5": null, "expte_min": null, "tipo_min": null, "unidades_5": null, "n10_min": null, "n_resolu_5": null, "organism_5": null, "n15_min": null, "actualiz_4": null, "actualiz_5": null, "ocupacio12": null, "subdivis_4": null, "subdivis_5": null, "relevami_5": null, "tipo_uc": "Vivienda", "tipo_valor": "TU" }, "geometry": { "type": "MultiPolygon", "coordinates": [ [ [ [ -58.5069, -34.8732 ], [ -58.5081, -34.8738 ], [ -58.5097, -34.8716 ], [ -58.5092, -34.8714 ], [ -58.5089, -34.8712 ], [ -58.5088, -34.8712 ], [ -58.5086, -34.8711 ], [ -58.5083, -34.8709 ], [ -58.5081, -34.8708 ], [ -58.5078, -34.8707 ], [ -58.5076, -34.8706 ], [ -58.506, -34.8728 ], [ -58.5069, -34.8732 ] ] ] ] } },
{ "type": "Feature", "properties": { "partido": "CAÑUELAS", "nom_empren": "CAÑUELAS GOLF CLUB", "r_arba": 0, "r_urbasig": 1, "edificado": 0, "sup_ha": 141.23, "CLASE": "CATASTRO", "SUBCLASE": "PARCELARIO", "CODIGO_IDE": "110107", "GNA": "CONJUNTO INM", "NAM": "CAÑUELAS GOLF", "TCI": "VIVIENDA", "ARA": 1.42, "FNA": "CAÑUELAS GOLF CLUB", "OBJETO": "CONJUNTO INMOBILIARIO", "ARAm2": 1415526.32, "SAG": "OPISU - PBA", "fecha_re_5": "13/08/2015", "expte_min": "4017-3247/05", "tipo_min": "BC", "unidades_5": null, "n10_min": "HA;  A;  CA", "n_resolu_5": "1229/12", "organism_5": "MUNICIPIO", "n15_min": "RPUC_280.pdf", "actualiz_4": "Mayo de 2016", "actualiz_5": "Mayo de 2016", "ocupacio12": 10.0, "subdivis_4": "15-168-2016", "subdivis_5": "15-168-2016", "relevami_5": "Junio 2022", "tipo_uc": "Vivienda", "tipo_valor": "TR" }, "geometry": { "type": "MultiPolygon", "coordinates": [ [ [ [ -58.7927, -35.0534 ], [ -58.7847, -35.0466 ], [ -58.783, -35.0479 ], [ -58.7763, -35.0422 ], [ -58.7699, -35.0471 ], [ -58.7741, -35.0507 ], [ -58.7749, -35.0514 ], [ -58.7759, -35.052 ], [ -58.7766, -35.0524 ], [ -58.7766, -35.0523 ], [ -58.7774, -35.0527 ], [ -58.7787, -35.053 ], [ -58.7797, -35.0533 ], [ -58.7814, -35.0538 ], [ -58.7825, -35.0529 ], [ -58.7848, -35.0548 ], [ -58.7896, -35.0561 ], [ -58.7927, -35.0534 ] ] ] ] } },
{ "type": "Feature", "properties": { "partido": "EZEIZA", "nom_empren": "LOMAS ATHLETIC CLUB ANEXO", "r_arba": 1, "r_urbasig": 0, "edificado": 1, "sup_ha": 68.19, "CLASE": "CATASTRO", "SUBCLASE": "PARCELARIO", "CODIGO_IDE": "110107", "GNA": "CONJUNTO INM", "NAM": "LOMAS ATHLETIC", "TCI": "VIVIENDA", "ARA": 0.68, "FNA": "LOMAS ATHLETIC CLUB ANEXO", "OBJETO": "CONJUNTO INMOBILIARIO", "ARAm2": 683457.72, "SAG": "OPISU - PBA", "fecha_re_5": null, "expte_min": null, "tipo_min": null, "unidades_5": null, "n10_min": null, "n_resolu_5": null, "organism_5": null, "n15_min": null, "actualiz_4": null, "actualiz_5": null, "ocupacio12": null, "subdivis_4": null, "subdivis_5": null, "relevami_5": null, "tipo_uc": "Vivienda", "tipo_valor": "TU" }, "geometry": { "type": "MultiPolygon", "coordinates": [ [ [ [ -58.5434, -34.8648 ], [ -58.541, -34.8681 ], [ -58.5509, -34.876 ], [ -58.5512, -34.8761 ], [ -58.5512, -34.8756 ], [ -58.5549, -34.8709 ], [ -58.5434, -34.8648 ] ] ] ] } },
{ "type": "Feature", "properties": { "partido": "EZEIZA", "nom_empren": "FINCAS DEL ALBA", "r_arba": 1, "r_urbasig": 1, "edificado": 1, "sup_ha": 59.81, "CLASE": "CATASTRO", "SUBCLASE": "PARCELARIO", "CODIGO_IDE": "110107", "GNA": "CONJUNTO INM", "NAM": "FINCAS DEL ALB", "TCI": "VIVIENDA", "ARA": 0.6, "FNA": "FINCAS DEL ALBA", "OBJETO": "CONJUNTO INMOBILIARIO", "ARAm2": 597679.41, "SAG": "OPISU - PBA", "fecha_re_5": "03/11/2015", "expte_min": "4129-6127/07", "tipo_min": "BC", "unidades_5": "185 V.U.", "n10_min": "610000m2", "n_resolu_5": "333/10", "organism_5": "MUNICIPIO", "n15_min": "RPUC_295.pdf", "actualiz_4": "Mayo de 2016", "actualiz_5": "Mayo de 2016", "ocupacio12": 40.0, "subdivis_4": null, "subdivis_5": null, "relevami_5": "Junio 2022", "tipo_uc": "Vivienda", "tipo_valor": "TC" }, "geometry": { "type": "MultiPolygon", "coordinates": [ [ [ [ -58.5138, -34.9478 ], [ -58.526, -34.9394 ], [ -58.5242, -34.9365 ], [ -58.5105, -34.9449 ], [ -58.5138, -34.9478 ] ] ] ] } },
{ "type": "Feature", "properties": { "partido": "CAÑUELAS", "nom_empren": "LA MARTONA", "r_arba": 0, "r_urbasig": 1, "edificado": 1, "sup_ha": 323.34, "CLASE": "CATASTRO", "SUBCLASE": "PARCELARIO", "CODIGO_IDE": "110107", "GNA": "CONJUNTO INM", "NAM": "LA MARTONA", "TCI": "VIVIENDA", "ARA": 3.23, "FNA": "LA MARTONA", "OBJETO": "CONJUNTO INMOBILIARIO", "ARAm2": 3233337.91, "SAG": "OPISU - PBA", "fecha_re_5": "17/10/2005", "expte_min": "4017-11113/05", "tipo_min": "CC", "unidades_5": null, "n10_min": "HA;  A;  CA;", "n_resolu_5": "324/04", "organism_5": "MUNICIPIO", "n15_min": "RPUC_170.pdf", "actualiz_4": "Mayo de 2016", "actualiz_5": "Mayo de 2016", "ocupacio12": 100.0, "subdivis_4": null, "subdivis_5": null, "relevami_5": "Junio 2022", "tipo_uc": "Vivienda", "tipo_valor": "TR" }, "geometry": { "type": "MultiPolygon", "coordinates": [ [ [ [ -58.6565, -34.9823 ], [ -58.6663, -34.9834 ], [ -58.6668, -34.9836 ], [ -58.6666, -34.984 ], [ -58.6666, -34.9844 ], [ -58.6666, -34.9847 ], [ -58.6668, -34.9853 ], [ -58.6669, -34.9861 ], [ -58.6669, -34.9862 ], [ -58.6669, -34.9865 ], [ -58.6669, -34.9867 ], [ -58.6671, -34.9871 ], [ -58.6671, -34.9872 ], [ -58.6672, -34.9874 ], [ -58.6671, -34.9877 ], [ -58.6672, -34.9878 ], [ -58.6674, -34.9881 ], [ -58.6675, -34.9883 ], [ -58.6676, -34.9887 ], [ -58.6676, -34.9888 ], [ -58.6676, -34.989 ], [ -58.6675, -34.9892 ], [ -58.6675, -34.9894 ], [ -58.6675, -34.9896 ], [ -58.6677, -34.9898 ], [ -58.6677, -34.99 ], [ -58.6678, -34.9902 ], [ -58.6678, -34.9904 ], [ -58.6678, -34.9906 ], [ -58.6679, -34.9909 ], [ -58.668, -34.991 ], [ -58.6683, -34.9912 ], [ -58.6685, -34.9914 ], [ -58.6685, -34.9915 ], [ -58.6685, -34.9918 ], [ -58.6685, -34.9922 ], [ -58.6688, -34.9926 ], [ -58.669, -34.9927 ], [ -58.6692, -34.9929 ], [ -58.6694, -34.9932 ], [ -58.6694, -34.9934 ], [ -58.6693, -34.9936 ], [ -58.6692, -34.9939 ], [ -58.6692, -34.9941 ], [ -58.6692, -34.9942 ], [ -58.6696, -34.9945 ], [ -58.6697, -34.9951 ], [ -58.67, -34.9956 ], [ -58.6701, -34.9957 ], [ -58.6715, -34.9956 ], [ -58.6719, -34.9951 ], [ -58.6721, -34.9951 ], [ -58.6747, -34.9988 ], [ -58.6869, -34.9896 ], [ -58.6871, -34.9893 ], [ -58.6853, -34.9851 ], [ -58.6666, -34.9749 ], [ -58.6565, -34.9823 ] ] ] ] } },
{ "type": "Feature", "properties": { "partido": "CAÑUELAS", "nom_empren": "LA DOLFINA POLO RANCH", "r_arba": 1, "r_urbasig": 0, "edificado": 0, "sup_ha": 425.46, "CLASE": "CATASTRO", "SUBCLASE": "PARCELARIO", "CODIGO_IDE": "110107", "GNA": "CONJUNTO INM", "NAM": "LA DOLFINA POL", "TCI": "VIVIENDA", "ARA": 4.25, "FNA": "LA DOLFINA POLO RANCH", "OBJETO": "CONJUNTO INMOBILIARIO", "ARAm2": 4245297.85, "SAG": "OPISU - PBA", "fecha_re_5": "17/10/2005", "expte_min": "4017-11113/05", "tipo_min": "CC", "unidades_5": null, "n10_min": "HA;  A;  CA;", "n_resolu_5": "324/04", "organism_5": "MUNICIPIO", "n15_min": "RPUC_170.pdf", "actualiz_4": "Mayo de 2016", "actualiz_5": "Mayo de 2016", "ocupacio12": 100.0, "subdivis_4": null, "subdivis_5": null, "relevami_5": "Junio 2022", "tipo_uc": "Vivienda", "tipo_valor": "TR" }, "geometry": { "type": "MultiPolygon", "coordinates": [ [ [ [ -58.6747, -34.9988 ], [ -58.6721, -34.9951 ], [ -58.6719, -34.9951 ], [ -58.6715, -34.9956 ], [ -58.67, -34.9957 ], [ -58.67, -34.9956 ], [ -58.6699, -34.9954 ], [ -58.6698, -34.9954 ], [ -58.6697, -34.9952 ], [ -58.6696, -34.995 ], [ -58.6696, -34.9949 ], [ -58.6695, -34.9948 ], [ -58.6695, -34.9947 ], [ -58.6695, -34.9945 ], [ -58.6694, -34.9944 ], [ -58.6693, -34.9943 ], [ -58.6692, -34.9942 ], [ -58.6691, -34.9941 ], [ -58.6691, -34.994 ], [ -58.6691, -34.9938 ], [ -58.6692, -34.9937 ], [ -58.6694, -34.9934 ], [ -58.6693, -34.9933 ], [ -58.6693, -34.9931 ], [ -58.6692, -34.9931 ], [ -58.6691, -34.993 ], [ -58.669, -34.9928 ], [ -58.6689, -34.9928 ], [ -58.6688, -34.9927 ], [ -58.6687, -34.9926 ], [ -58.6685, -34.9924 ], [ -58.6685, -34.9923 ], [ -58.6685, -34.9921 ], [ -58.6685, -34.992 ], [ -58.6684, -34.9919 ], [ -58.6684, -34.9916 ], [ -58.6683, -34.9915 ], [ -58.6683, -34.9913 ], [ -58.6682, -34.9913 ], [ -58.6682, -34.9912 ], [ -58.6681, -34.9911 ], [ -58.668, -34.9911 ], [ -58.6678, -34.9909 ], [ -58.6678, -34.9908 ], [ -58.6677, -34.9906 ], [ -58.6677, -34.9905 ], [ -58.6677, -34.9902 ], [ -58.6677, -34.99 ], [ -58.6676, -34.9898 ], [ -58.6675, -34.9897 ], [ -58.6674, -34.9896 ], [ -58.6674, -34.9894 ], [ -58.6674, -34.9893 ], [ -58.6675, -34.9892 ], [ -58.6675, -34.9891 ], [ -58.6676, -34.9889 ], [ -58.6676, -34.9886 ], [ -58.6674, -34.9884 ], [ -58.6672, -34.988 ], [ -58.666, -34.9888 ], [ -58.6645, -34.99 ], [ -58.6625, -34.9914 ], [ -58.6609, -34.9926 ], [ -58.6593, -34.9938 ], [ -58.659, -34.994 ], [ -58.6601, -34.995 ], [ -58.6684, -35.0023 ], [ -58.67, -35.0038 ], [ -58.6726, -35.0061 ], [ -58.6756, -35.0088 ], [ -58.6775, -35.0104 ], [ -58.6793, -35.0121 ], [ -58.6815, -35.0141 ], [ -58.6837, -35.016 ], [ -58.6838, -35.0161 ], [ -58.6861, -35.0182 ], [ -58.6882, -35.02 ], [ -58.6904, -35.0219 ], [ -58.6905, -35.022 ], [ -58.6997, -35.0153 ], [ -58.6984, -35.0142 ], [ -58.6965, -35.0125 ], [ -58.6964, -35.0124 ], [ -58.6962, -35.0122 ], [ -58.6941, -35.0103 ], [ -58.6928, -35.0093 ], [ -58.6927, -35.0092 ], [ -58.6908, -35.0075 ], [ -58.689, -35.006 ], [ -58.6885, -35.0056 ], [ -58.6884, -35.0055 ], [ -58.6864, -35.0037 ], [ -58.6851, -35.0025 ], [ -58.685, -35.0024 ], [ -58.6847, -35.0021 ], [ -58.6843, -35.0019 ], [ -58.6842, -35.0018 ], [ -58.6835, -35.0011 ], [ -58.6832, -35.0008 ], [ -58.6828, -35.0005 ], [ -58.6827, -35.0004 ], [ -58.6824, -35.0002 ], [ -58.6821, -34.9999 ], [ -58.682, -34.9998 ], [ -58.6817, -34.9996 ], [ -58.678, -34.9963 ], [ -58.6747, -34.9988 ] ] ] ] } },
{ "type": "Feature", "properties": { "partido": "EZEIZA", "nom_empren": "BARRIO CERRADO SANTA PAULA", "r_arba": 1, "r_urbasig": 0, "edificado": 0, "sup_ha": 9.85, "CLASE": "CATASTRO", "SUBCLASE": "PARCELARIO", "CODIGO_IDE": "110107", "GNA": "CONJUNTO INM", "NAM": "BARRIO CERRADO", "TCI": "VIVIENDA", "ARA": 0.1, "FNA": "BARRIO CERRADO SANTA PAULA", "OBJETO": "CONJUNTO INMOBILIARIO", "ARAm2": 97347.21, "SAG": "OPISU - PBA", "fecha_re_5": null, "expte_min": null, "tipo_min": null, "unidades_5": null, "n10_min": null, "n_resolu_5": null, "organism_5": null, "n15_min": null, "actualiz_4": null, "actualiz_5": null, "ocupacio12": null, "subdivis_4": null, "subdivis_5": null, "relevami_5": null, "tipo_uc": "Vivienda", "tipo_valor": "TR" }, "geometry": { "type": "MultiPolygon", "coordinates": [ [ [ [ -58.6306, -34.8934 ], [ -58.6313, -34.8938 ], [ -58.6321, -34.8941 ], [ -58.6323, -34.8942 ], [ -58.6331, -34.8946 ], [ -58.6339, -34.895 ], [ -58.6341, -34.8951 ], [ -58.6352, -34.8956 ], [ -58.6354, -34.8954 ], [ -58.6364, -34.8941 ], [ -58.6317, -34.8919 ], [ -58.6306, -34.8934 ] ] ] ] } },
{ "type": "Feature", "properties": { "partido": "EZEIZA", "nom_empren": "CISSAB", "r_arba": 0, "r_urbasig": 0, "edificado": 1, "sup_ha": 129.47, "CLASE": "CATASTRO", "SUBCLASE": "PARCELARIO", "CODIGO_IDE": "110107", "GNA": "CONJUNTO INM", "NAM": "CISSAB", "TCI": "VIVIENDA", "ARA": 1.29, "FNA": "CISSAB", "OBJETO": "CONJUNTO INMOBILIARIO", "ARAm2": 1294324.48, "SAG": "OPISU - PBA", "fecha_re_5": null, "expte_min": null, "tipo_min": null, "unidades_5": null, "n10_min": null, "n_resolu_5": null, "organism_5": null, "n15_min": null, "actualiz_4": null, "actualiz_5": null, "ocupacio12": null, "subdivis_4": null, "subdivis_5": null, "relevami_5": null, "tipo_uc": "Vivienda", "tipo_valor": "TR" }, "geometry": { "type": "MultiPolygon", "coordinates": [ [ [ [ -58.5846, -34.8776 ], [ -58.5844, -34.8772 ], [ -58.5844, -34.8767 ], [ -58.5844, -34.8762 ], [ -58.5843, -34.8756 ], [ -58.5841, -34.8753 ], [ -58.5839, -34.8749 ], [ -58.5835, -34.8745 ], [ -58.5816, -34.8729 ], [ -58.5793, -34.8725 ], [ -58.578, -34.8722 ], [ -58.5772, -34.8722 ], [ -58.5766, -34.8722 ], [ -58.5745, -34.873 ], [ -58.5742, -34.8731 ], [ -58.5741, -34.8733 ], [ -58.574, -34.8733 ], [ -58.5739, -34.8734 ], [ -58.5738, -34.8736 ], [ -58.5736, -34.8738 ], [ -58.5737, -34.874 ], [ -58.5738, -34.8741 ], [ -58.5738, -34.8742 ], [ -58.5736, -34.8743 ], [ -58.5735, -34.8744 ], [ -58.5735, -34.8747 ], [ -58.5732, -34.875 ], [ -58.5727, -34.8755 ], [ -58.5723, -34.8762 ], [ -58.5721, -34.8763 ], [ -58.572, -34.8764 ], [ -58.5719, -34.8766 ], [ -58.5717, -34.8769 ], [ -58.5715, -34.8771 ], [ -58.5713, -34.8772 ], [ -58.571, -34.8774 ], [ -58.5707, -34.8777 ], [ -58.5703, -34.8779 ], [ -58.57, -34.878 ], [ -58.57, -34.8781 ], [ -58.5698, -34.8782 ], [ -58.5692, -34.8787 ], [ -58.5684, -34.8794 ], [ -58.5679, -34.8798 ], [ -58.5678, -34.8798 ], [ -58.5678, -34.8799 ], [ -58.5675, -34.88 ], [ -58.5675, -34.8801 ], [ -58.5674, -34.8803 ], [ -58.5675, -34.8804 ], [ -58.5672, -34.8809 ], [ -58.5667, -34.8815 ], [ -58.5664, -34.8818 ], [ -58.5679, -34.8826 ], [ -58.5694, -34.8806 ], [ -58.575, -34.8834 ], [ -58.5756, -34.8827 ], [ -58.5793, -34.8846 ], [ -58.5846, -34.8776 ] ] ] ] } },
{ "type": "Feature", "properties": { "partido": "CAÑUELAS", "nom_empren": "CHACRAS DEL ALBA", "r_arba": 1, "r_urbasig": 0, "edificado": 1, "sup_ha": 24.7, "CLASE": "CATASTRO", "SUBCLASE": "PARCELARIO", "CODIGO_IDE": "110107", "GNA": "CONJUNTO INM", "NAM": "CHACRAS DEL AL", "TCI": "VIVIENDA", "ARA": 0.25, "FNA": "CHACRAS DEL ALBA", "OBJETO": "CONJUNTO INMOBILIARIO", "ARAm2": 248217.64, "SAG": "OPISU - PBA", "fecha_re_5": null, "expte_min": null, "tipo_min": null, "unidades_5": null, "n10_min": null, "n_resolu_5": null, "organism_5": null, "n15_min": null, "actualiz_4": null, "actualiz_5": null, "ocupacio12": null, "subdivis_4": null, "subdivis_5": null, "relevami_5": null, "tipo_uc": "Vivienda", "tipo_valor": "TU" }, "geometry": { "type": "MultiPolygon", "coordinates": [ [ [ [ -58.7653, -35.0834 ], [ -58.7628, -35.0854 ], [ -58.7656, -35.088 ], [ -58.7682, -35.0903 ], [ -58.771, -35.0881 ], [ -58.7653, -35.0834 ] ] ] ] } },
{ "type": "Feature", "properties": { "partido": "CAÑUELAS", "nom_empren": "CLUB DE CAMPO CAÑUELAS", "r_arba": 0, "r_urbasig": 0, "edificado": 0, "sup_ha": 72.02, "CLASE": "CATASTRO", "SUBCLASE": "PARCELARIO", "CODIGO_IDE": "110107", "GNA": "CONJUNTO INM", "NAM": "CLUB DE CAMPO", "TCI": "VIVIENDA", "ARA": 0.72, "FNA": "CLUB DE CAMPO CAÑUELAS", "OBJETO": "CONJUNTO INMOBILIARIO", "ARAm2": 721033.35, "SAG": "OPISU - PBA", "fecha_re_5": "13/08/2015", "expte_min": "2932/99", "tipo_min": "CC", "unidades_5": null, "n10_min": "HA;  A;  CA", "n_resolu_5": "705/11", "organism_5": "MUNICIPIO", "n15_min": "RPUC_279.pdf", "actualiz_4": "Mayo de 2016", "actualiz_5": "Mayo de 2016", "ocupacio12": 0.0, "subdivis_4": null, "subdivis_5": null, "relevami_5": "Junio 2022", "tipo_uc": "Vivienda", "tipo_valor": "TR" }, "geometry": { "type": "MultiPolygon", "coordinates": [ [ [ [ -58.8238, -35.0289 ], [ -58.8128, -35.0377 ], [ -58.8167, -35.041 ], [ -58.8278, -35.0322 ], [ -58.8238, -35.0289 ] ] ] ] } },
{ "type": "Feature", "properties": { "partido": "EZEIZA", "nom_empren": "PARQUE LA CELIA", "r_arba": 1, "r_urbasig": 0, "edificado": 0, "sup_ha": 118.58, "CLASE": "CATASTRO", "SUBCLASE": "PARCELARIO", "CODIGO_IDE": "110107", "GNA": "CONJUNTO INM", "NAM": "PARQUE LA CELI", "TCI": "VIVIENDA", "ARA": 1.18, "FNA": "PARQUE LA CELIA", "OBJETO": "CONJUNTO INMOBILIARIO", "ARAm2": 1181895.79, "SAG": "OPISU - PBA", "fecha_re_5": null, "expte_min": null, "tipo_min": null, "unidades_5": null, "n10_min": null, "n_resolu_5": null, "organism_5": null, "n15_min": null, "actualiz_4": null, "actualiz_5": null, "ocupacio12": null, "subdivis_4": null, "subdivis_5": null, "relevami_5": null, "tipo_uc": "Vivienda", "tipo_valor": "TR" }, "geometry": { "type": "MultiPolygon", "coordinates": [ [ [ [ -58.5842, -34.8281 ], [ -58.5878, -34.83 ], [ -58.5998, -34.8141 ], [ -58.5935, -34.8111 ], [ -58.5856, -34.8218 ], [ -58.588, -34.8231 ], [ -58.5842, -34.8281 ] ] ] ] } },
{ "type": "Feature", "properties": { "partido": "EZEIZA", "nom_empren": "SOLAR DEL BOSQUE", "r_arba": 1, "r_urbasig": 1, "edificado": 1, "sup_ha": 25.26, "CLASE": "CATASTRO", "SUBCLASE": "PARCELARIO", "CODIGO_IDE": "110107", "GNA": "CONJUNTO INM", "NAM": "SOLAR DEL BOSQ", "TCI": "VIVIENDA", "ARA": 0.25, "FNA": "SOLAR DEL BOSQUE", "OBJETO": "CONJUNTO INMOBILIARIO", "ARAm2": 254433.55, "SAG": "OPISU - PBA", "fecha_re_5": "30/09/2003", "expte_min": "4129-7805/97", "tipo_min": "CC", "unidades_5": null, "n10_min": "HA; A; CA;", "n_resolu_5": "1/99", "organism_5": "STyU", "n15_min": "RPUC_40.pdf", "actualiz_4": "Mayo de 2016", "actualiz_5": "Mayo de 2016", "ocupacio12": 100.0, "subdivis_4": "130-68-1998", "subdivis_5": "130-68-1998", "relevami_5": "Junio 2022", "tipo_uc": "Vivienda", "tipo_valor": "TC" }, "geometry": { "type": "MultiPolygon", "coordinates": [ [ [ [ -58.5064, -34.9079 ], [ -58.5116, -34.9103 ], [ -58.5119, -34.91 ], [ -58.5121, -34.91 ], [ -58.5123, -34.9089 ], [ -58.5102, -34.9019 ], [ -58.5074, -34.9059 ], [ -58.5064, -34.9079 ] ] ] ] } },
{ "type": "Feature", "properties": { "partido": "CAÑUELAS", "nom_empren": "SIN NOMBRE", "r_arba": 1, "r_urbasig": 0, "edificado": 0, "sup_ha": 159.25, "CLASE": "CATASTRO", "SUBCLASE": "PARCELARIO", "CODIGO_IDE": "110107", "GNA": "CONJUNTO INM", "NAM": "SIN NOMBRE", "TCI": "VIVIENDA", "ARA": 1.59, "FNA": "SIN NOMBRE", "OBJETO": "CONJUNTO INMOBILIARIO", "ARAm2": 1591674.57, "SAG": "OPISU - PBA", "fecha_re_5": null, "expte_min": null, "tipo_min": null, "unidades_5": null, "n10_min": null, "n_resolu_5": null, "organism_5": null, "n15_min": null, "actualiz_4": null, "actualiz_5": null, "ocupacio12": null, "subdivis_4": null, "subdivis_5": null, "relevami_5": null, "tipo_uc": "Vivienda", "tipo_valor": "TR" }, "geometry": { "type": "MultiPolygon", "coordinates": [ [ [ [ -58.6554, -34.9172 ], [ -58.6518, -34.9172 ], [ -58.6517, -34.9196 ], [ -58.6472, -34.9197 ], [ -58.6471, -34.9233 ], [ -58.6436, -34.9233 ], [ -58.6435, -34.9247 ], [ -58.6467, -34.9246 ], [ -58.6523, -34.9244 ], [ -58.6523, -34.9252 ], [ -58.6552, -34.9251 ], [ -58.6552, -34.9266 ], [ -58.6628, -34.9266 ], [ -58.6628, -34.9288 ], [ -58.6649, -34.9288 ], [ -58.665, -34.9241 ], [ -58.665, -34.9203 ], [ -58.665, -34.9196 ], [ -58.6614, -34.9199 ], [ -58.6614, -34.9144 ], [ -58.6554, -34.9149 ], [ -58.6554, -34.9172 ] ] ] ] } },
{ "type": "Feature", "properties": { "partido": "EZEIZA", "nom_empren": "QUINTAS DEL SOL", "r_arba": 1, "r_urbasig": 1, "edificado": 1, "sup_ha": 17.18, "CLASE": "CATASTRO", "SUBCLASE": "PARCELARIO", "CODIGO_IDE": "110107", "GNA": "CONJUNTO INM", "NAM": "QUINTAS DEL SO", "TCI": "VIVIENDA", "ARA": 0.17, "FNA": "QUINTAS DEL SOL", "OBJETO": "CONJUNTO INMOBILIARIO", "ARAm2": 172378.41, "SAG": "OPISU - PBA", "fecha_re_5": "06/10/2003", "expte_min": "4129-16076/00 Y AGREGADO", "tipo_min": "BC", "unidades_5": "161", "n10_min": "16 HA; 67 A;  6,76 CA;", "n_resolu_5": "37/02", "organism_5": "SAM", "n15_min": "RPUC_57.pdf", "actualiz_4": "Mayo de 2016", "actualiz_5": "Mayo de 2016", "ocupacio12": 100.0, "subdivis_4": "130-16-2002", "subdivis_5": "130-16-2002", "relevami_5": "Junio 2022", "tipo_uc": "Vivienda", "tipo_valor": "TC" }, "geometry": { "type": "MultiPolygon", "coordinates": [ [ [ [ -58.6333, -34.8982 ], [ -58.6287, -34.8958 ], [ -58.6266, -34.8984 ], [ -58.6312, -34.9008 ], [ -58.6333, -34.8982 ] ] ] ] } },
{ "type": "Feature", "properties": { "partido": "EZEIZA", "nom_empren": "LA RESERVA DE CANNING", "r_arba": 0, "r_urbasig": 0, "edificado": 0, "sup_ha": 27.15, "CLASE": "CATASTRO", "SUBCLASE": "PARCELARIO", "CODIGO_IDE": "110107", "GNA": "CONJUNTO INM", "NAM": "LA RESERVA DE", "TCI": "VIVIENDA", "ARA": 0.28, "FNA": "LA RESERVA DE CANNING", "OBJETO": "CONJUNTO INMOBILIARIO", "ARAm2": 276726.1, "SAG": "OPISU - PBA", "fecha_re_5": null, "expte_min": null, "tipo_min": null, "unidades_5": null, "n10_min": null, "n_resolu_5": null, "organism_5": null, "n15_min": null, "actualiz_4": null, "actualiz_5": null, "ocupacio12": null, "subdivis_4": null, "subdivis_5": null, "relevami_5": null, "tipo_uc": null, "tipo_valor": null }, "geometry": { "type": "MultiPolygon", "coordinates": [ [ [ [ -58.5061, -34.9078 ], [ -58.504, -34.9118 ], [ -58.5092, -34.9142 ], [ -58.5119, -34.9105 ], [ -58.5061, -34.9078 ] ] ] ] } },
{ "type": "Feature", "properties": { "partido": "EZEIZA", "nom_empren": "SIN NOMBRE", "r_arba": 0, "r_urbasig": 0, "edificado": 0, "sup_ha": 34.29, "CLASE": "CATASTRO", "SUBCLASE": "PARCELARIO", "CODIGO_IDE": "110107", "GNA": "CONJUNTO INM", "NAM": "SIN NOMBRE", "TCI": "VIVIENDA", "ARA": 0.34, "FNA": "SIN NOMBRE", "OBJETO": "CONJUNTO INMOBILIARIO", "ARAm2": 342706.07, "SAG": "OPISU - PBA", "fecha_re_5": null, "expte_min": null, "tipo_min": null, "unidades_5": null, "n10_min": null, "n_resolu_5": null, "organism_5": null, "n15_min": null, "actualiz_4": null, "actualiz_5": null, "ocupacio12": null, "subdivis_4": null, "subdivis_5": null, "relevami_5": null, "tipo_uc": null, "tipo_valor": null }, "geometry": { "type": "MultiPolygon", "coordinates": [ [ [ [ -58.5723, -34.8738 ], [ -58.5709, -34.8744 ], [ -58.5688, -34.8757 ], [ -58.5678, -34.8764 ], [ -58.5637, -34.8802 ], [ -58.5628, -34.8811 ], [ -58.5618, -34.8821 ], [ -58.5645, -34.8835 ], [ -58.5646, -34.8834 ], [ -58.5647, -34.8834 ], [ -58.5649, -34.8833 ], [ -58.5652, -34.8833 ], [ -58.5653, -34.8832 ], [ -58.5654, -34.883 ], [ -58.5655, -34.8829 ], [ -58.5657, -34.8828 ], [ -58.5658, -34.8827 ], [ -58.5659, -34.8825 ], [ -58.5662, -34.8821 ], [ -58.5664, -34.8817 ], [ -58.5671, -34.8809 ], [ -58.5673, -34.8806 ], [ -58.5674, -34.8804 ], [ -58.5674, -34.8801 ], [ -58.5675, -34.88 ], [ -58.5677, -34.8799 ], [ -58.5678, -34.8799 ], [ -58.5678, -34.8798 ], [ -58.568, -34.8796 ], [ -58.5685, -34.8792 ], [ -58.5693, -34.8785 ], [ -58.5698, -34.8781 ], [ -58.5699, -34.8781 ], [ -58.5699, -34.878 ], [ -58.5701, -34.8779 ], [ -58.5704, -34.8778 ], [ -58.5707, -34.8776 ], [ -58.5709, -34.8774 ], [ -58.5716, -34.8769 ], [ -58.5717, -34.8768 ], [ -58.5718, -34.8767 ], [ -58.5719, -34.8766 ], [ -58.5719, -34.8764 ], [ -58.5721, -34.8763 ], [ -58.5722, -34.8762 ], [ -58.5722, -34.8761 ], [ -58.5723, -34.8759 ], [ -58.5725, -34.8757 ], [ -58.5727, -34.8754 ], [ -58.5733, -34.8748 ], [ -58.5734, -34.8747 ], [ -58.5734, -34.8746 ], [ -58.5735, -34.8744 ], [ -58.5723, -34.8738 ] ] ] ] } },
{ "type": "Feature", "properties": { "partido": "EZEIZA", "nom_empren": "EL OMBU", "r_arba": 0, "r_urbasig": 1, "edificado": 1, "sup_ha": 107.18, "CLASE": "CATASTRO", "SUBCLASE": "PARCELARIO", "CODIGO_IDE": "110107", "GNA": "CONJUNTO INM", "NAM": "EL OMBU", "TCI": "VIVIENDA", "ARA": 1.07, "FNA": "EL OMBU", "OBJETO": "CONJUNTO INMOBILIARIO", "ARAm2": 1069142.63, "SAG": "OPISU - PBA", "fecha_re_5": "18/09/2015", "expte_min": "2418-1612/89", "tipo_min": "CC", "unidades_5": "350 V.U", "n10_min": "HA;  A;  CA", "n_resolu_5": "1236/93", "organism_5": "DPOUyT", "n15_min": "RPUC_287.pdf", "actualiz_4": "Mayo de 2016", "actualiz_5": "Mayo de 2016", "ocupacio12": 100.0, "subdivis_4": "130-13-2001", "subdivis_5": "130-13-2001", "relevami_5": "Junio 2022", "tipo_uc": null, "tipo_valor": null }, "geometry": { "type": "MultiPolygon", "coordinates": [ [ [ [ -58.5911, -34.8848 ], [ -58.5827, -34.8804 ], [ -58.5758, -34.8894 ], [ -58.5843, -34.8937 ], [ -58.5911, -34.8848 ] ] ] ] } },
{ "type": "Feature", "properties": { "partido": "EZEIZA", "nom_empren": "EL ENCUENTRO", "r_arba": 0, "r_urbasig": 1, "edificado": 1, "sup_ha": 21.29, "CLASE": "CATASTRO", "SUBCLASE": "PARCELARIO", "CODIGO_IDE": "110107", "GNA": "CONJUNTO INM", "NAM": "EL ENCUENTRO", "TCI": "VIVIENDA", "ARA": 0.21, "FNA": "EL ENCUENTRO", "OBJETO": "CONJUNTO INMOBILIARIO", "ARAm2": 212493.7, "SAG": "OPISU - PBA", "fecha_re_5": "14/10/2014", "expte_min": "4129-13478/99", "tipo_min": "BC", "unidades_5": "149 parcelas", "n10_min": "21 HA;34  A; 27,76 CA;", "n_resolu_5": "07/04", "organism_5": "SAM", "n15_min": "RPUC_249.pdf", "actualiz_4": "Mayo de 2016", "actualiz_5": "Mayo de 2016", "ocupacio12": 1.0, "subdivis_4": "130-2-2001", "subdivis_5": "130-2-2001", "relevami_5": "Junio 2022", "tipo_uc": null, "tipo_valor": null }, "geometry": { "type": "MultiPolygon", "coordinates": [ [ [ [ -58.6038, -34.8523 ], [ -58.6005, -34.8505 ], [ -58.6004, -34.8505 ], [ -58.5971, -34.855 ], [ -58.6003, -34.8567 ], [ -58.6004, -34.8567 ], [ -58.6038, -34.8523 ] ] ] ] } },
{ "type": "Feature", "properties": { "partido": "EZEIZA", "nom_empren": "ALUEN BARRIO PRIVADO", "r_arba": 0, "r_urbasig": 0, "edificado": 0, "sup_ha": 90.6, "CLASE": "CATASTRO", "SUBCLASE": "PARCELARIO", "CODIGO_IDE": "110107", "GNA": "CONJUNTO INM", "NAM": "ALUEN BARRIO P", "TCI": "VIVIENDA", "ARA": 0.91, "FNA": "ALUEN BARRIO PRIVADO", "OBJETO": "CONJUNTO INMOBILIARIO", "ARAm2": 906817.31, "SAG": "OPISU - PBA", "fecha_re_5": "16/07/2024", "expte_min": "EX-2022-531357703-GDEBA-DPOUYTMGGP", "tipo_min": "BC", "unidades_5": "647 V.U.", "n10_min": "77,46 HA", "n_resolu_5": "RESO-2024-294", "organism_5": "DPOUyT", "n15_min": "RPUC_433.pdf", "actualiz_4": "Julio de 2024", "actualiz_5": "Julio de 2024", "ocupacio12": 30.0, "subdivis_4": null, "subdivis_5": null, "relevami_5": "Julio de 2024", "tipo_uc": null, "tipo_valor": null }, "geometry": { "type": "MultiPolygon", "coordinates": [ [ [ [ -58.5881, -34.8633 ], [ -58.5777, -34.8581 ], [ -58.5757, -34.8609 ], [ -58.5762, -34.8612 ], [ -58.5763, -34.8613 ], [ -58.5751, -34.8628 ], [ -58.5751, -34.863 ], [ -58.5738, -34.8646 ], [ -58.577, -34.867 ], [ -58.5771, -34.8672 ], [ -58.5771, -34.8673 ], [ -58.5772, -34.8675 ], [ -58.5785, -34.8684 ], [ -58.579, -34.8684 ], [ -58.5798, -34.8685 ], [ -58.5809, -34.8687 ], [ -58.5817, -34.8689 ], [ -58.5823, -34.8689 ], [ -58.583, -34.8687 ], [ -58.5838, -34.8685 ], [ -58.5843, -34.8683 ], [ -58.5881, -34.8633 ] ] ] ] } },
{ "type": "Feature", "properties": { "partido": "EZEIZA", "nom_empren": "LAS FUENTES I", "r_arba": 0, "r_urbasig": 1, "edificado": 1, "sup_ha": 12.74, "CLASE": "CATASTRO", "SUBCLASE": "PARCELARIO", "CODIGO_IDE": "110107", "GNA": "CONJUNTO INM", "NAM": "LAS FUENTES I", "TCI": "VIVIENDA", "ARA": 0.13, "FNA": "LAS FUENTES I", "OBJETO": "CONJUNTO INMOBILIARIO", "ARAm2": 125315.26, "SAG": "OPISU - PBA", "fecha_re_5": "06/10/2003", "expte_min": "4129-11917/98", "tipo_min": "BC", "unidades_5": "101", "n10_min": "11 HA;  95 A;  30,86 CA;", "n_resolu_5": "1/02", "organism_5": "SAM", "n15_min": "RPUC_58.pdf", "actualiz_4": "Diciembre 2021", "actualiz_5": "Diciembre 2021", "ocupacio12": 80.0, "subdivis_4": "130-9-2002", "subdivis_5": "130-9-2002", "relevami_5": "Junio 2022", "tipo_uc": null, "tipo_valor": null }, "geometry": { "type": "MultiPolygon", "coordinates": [ [ [ [ -58.554, -34.9078 ], [ -58.5492, -34.9055 ], [ -58.5478, -34.9074 ], [ -58.5525, -34.9097 ], [ -58.554, -34.9078 ] ] ] ] } },
{ "type": "Feature", "properties": { "partido": "EZEIZA", "nom_empren": "HARAS LATINA", "r_arba": 0, "r_urbasig": 0, "edificado": 1, "sup_ha": 5.89, "CLASE": "CATASTRO", "SUBCLASE": "PARCELARIO", "CODIGO_IDE": "110107", "GNA": "CONJUNTO INM", "NAM": "HARAS LATINA", "TCI": "VIVIENDA", "ARA": 0.06, "FNA": "HARAS LATINA", "OBJETO": "CONJUNTO INMOBILIARIO", "ARAm2": 57876.52, "SAG": "OPISU - PBA", "fecha_re_5": null, "expte_min": null, "tipo_min": null, "unidades_5": null, "n10_min": null, "n_resolu_5": null, "organism_5": null, "n15_min": null, "actualiz_4": null, "actualiz_5": null, "ocupacio12": null, "subdivis_4": null, "subdivis_5": null, "relevami_5": null, "tipo_uc": null, "tipo_valor": null }, "geometry": { "type": "MultiPolygon", "coordinates": [ [ [ [ -58.5932, -34.8571 ], [ -58.5924, -34.8542 ], [ -58.59, -34.8572 ], [ -58.5916, -34.858 ], [ -58.5921, -34.8573 ], [ -58.5932, -34.8571 ] ] ] ] } },
{ "type": "Feature", "properties": { "partido": "EZEIZA", "nom_empren": "BARRIO CERRADO DON JOAQUIN", "r_arba": 0, "r_urbasig": 0, "edificado": 1, "sup_ha": 46.0, "CLASE": "CATASTRO", "SUBCLASE": "PARCELARIO", "CODIGO_IDE": "110107", "GNA": "CONJUNTO INM", "NAM": "BARRIO CERRADO", "TCI": "VIVIENDA", "ARA": 0.46, "FNA": "BARRIO CERRADO DON JOAQUIN", "OBJETO": "CONJUNTO INMOBILIARIO", "ARAm2": 456546.96, "SAG": "OPISU - PBA", "fecha_re_5": "04/08/2022", "expte_min": "EX-2022-19661146-GDEBA-DPOUYTMGGP", "tipo_min": "BC", "unidades_5": "312", "n10_min": "44HA; 59 A;  CA;", "n_resolu_5": "RESO-2022-460", "organism_5": "DPOUyT", "n15_min": "RPUC_356.pdf", "actualiz_4": "Agosto 2022", "actualiz_5": "Agosto 2022", "ocupacio12": 100.0, "subdivis_4": "30-132-1981", "subdivis_5": "30-132-1981", "relevami_5": "Agosto 2022", "tipo_uc": null, "tipo_valor": null }, "geometry": { "type": "MultiPolygon", "coordinates": [ [ [ [ -58.4961, -34.9322 ], [ -58.5015, -34.9248 ], [ -58.4969, -34.9225 ], [ -58.4919, -34.9286 ], [ -58.4961, -34.9322 ] ] ] ] } },
{ "type": "Feature", "properties": { "partido": "CAÑUELAS", "nom_empren": "LA CASONA", "r_arba": 0, "r_urbasig": 1, "edificado": 1, "sup_ha": 8.35, "CLASE": "CATASTRO", "SUBCLASE": "PARCELARIO", "CODIGO_IDE": "110107", "GNA": "CONJUNTO INM", "NAM": "LA CASONA", "TCI": "VIVIENDA", "ARA": 0.08, "FNA": "LA CASONA", "OBJETO": "CONJUNTO INMOBILIARIO", "ARAm2": 81635.36, "SAG": "OPISU - PBA", "fecha_re_5": "17/10/2005", "expte_min": "4017-11111/05", "tipo_min": "CC", "unidades_5": null, "n10_min": "HA;  A;  CA;", "n_resolu_5": "326/04", "organism_5": "MUNICIPIO", "n15_min": "RPUC_167.pdf", "actualiz_4": "Mayo de 2016", "actualiz_5": "Mayo de 2016", "ocupacio12": 100.0, "subdivis_4": "15-13-1980", "subdivis_5": "15-15-1980", "relevami_5": "Junio 2022", "tipo_uc": null, "tipo_valor": null }, "geometry": { "type": "MultiPolygon", "coordinates": [ [ [ [ -58.7341, -35.0424 ], [ -58.7331, -35.0432 ], [ -58.7342, -35.0468 ], [ -58.7368, -35.0447 ], [ -58.7341, -35.0424 ] ] ] ] } },
{ "type": "Feature", "properties": { "partido": "EZEIZA", "nom_empren": "SAN FELIPE CANNING", "r_arba": 0, "r_urbasig": 0, "edificado": 1, "sup_ha": 103.68, "CLASE": "CATASTRO", "SUBCLASE": "PARCELARIO", "CODIGO_IDE": "110107", "GNA": "CONJUNTO INM", "NAM": "SAN FELIPE CAN", "TCI": "VIVIENDA", "ARA": 1.04, "FNA": "SAN FELIPE CANNING", "OBJETO": "CONJUNTO INMOBILIARIO", "ARAm2": 1037919.38, "SAG": "OPISU - PBA", "fecha_re_5": "03/11/2015", "expte_min": "4129-14359/09", "tipo_min": "BC", "unidades_5": "485 V.U. y 97  V. M", "n10_min": "595638 m2", "n_resolu_5": "465/11", "organism_5": "MUNICIPIO", "n15_min": "RPUC_291.pdf", "actualiz_4": "Mayo de 2016", "actualiz_5": "Mayo de 2016", "ocupacio12": 100.0, "subdivis_4": null, "subdivis_5": null, "relevami_5": "Junio 2022", "tipo_uc": null, "tipo_valor": null }, "geometry": { "type": "MultiPolygon", "coordinates": [ [ [ [ -58.5013, -34.9253 ], [ -58.4961, -34.9323 ], [ -58.5024, -34.9377 ], [ -58.512, -34.932 ], [ -58.5083, -34.929 ], [ -58.5013, -34.9253 ] ] ] ] } },
{ "type": "Feature", "properties": { "partido": "EZEIZA", "nom_empren": "VILLA MARIA III", "r_arba": 0, "r_urbasig": 1, "edificado": 1, "sup_ha": 304.57, "CLASE": "CATASTRO", "SUBCLASE": "PARCELARIO", "CODIGO_IDE": "110107", "GNA": "CONJUNTO INM", "NAM": "VILLA MARIA II", "TCI": "VIVIENDA", "ARA": 3.04, "FNA": "VILLA MARIA III", "OBJETO": "CONJUNTO INMOBILIARIO", "ARAm2": 3035581.77, "SAG": "OPISU - PBA", "fecha_re_5": "03/11/2015", "expte_min": "4129-5143/07", "tipo_min": "BC", "unidades_5": "438 V.U y 23 V.M", "n10_min": "3014497 m2", "n_resolu_5": "1111/13", "organism_5": "MUNICIPIO", "n15_min": "RPUC_290.pdf", "actualiz_4": "Mayo de 2016", "actualiz_5": "Mayo de 2016", "ocupacio12": 1.0, "subdivis_4": "30-163-1983", "subdivis_5": "30-163-1983", "relevami_5": "Junio 2022", "tipo_uc": null, "tipo_valor": null }, "geometry": { "type": "MultiPolygon", "coordinates": [ [ [ [ -58.5922, -34.9806 ], [ -58.5787, -34.9681 ], [ -58.5659, -34.9778 ], [ -58.5658, -34.9776 ], [ -58.5652, -34.9781 ], [ -58.5787, -34.9904 ], [ -58.5922, -34.9806 ] ] ] ] } },
{ "type": "Feature", "properties": { "partido": "EZEIZA", "nom_empren": "VILLA  MARIA", "r_arba": 0, "r_urbasig": 1, "edificado": 1, "sup_ha": 306.69, "CLASE": "CATASTRO", "SUBCLASE": "PARCELARIO", "CODIGO_IDE": "110107", "GNA": "CONJUNTO INM", "NAM": "VILLA  MARIA", "TCI": "VIVIENDA", "ARA": 3.08, "FNA": "VILLA  MARIA", "OBJETO": "CONJUNTO INMOBILIARIO", "ARAm2": 3075332.47, "SAG": "OPISU - PBA", "fecha_re_5": "17/05/2010", "expte_min": "4129- 15774/09", "tipo_min": "BC", "unidades_5": "556 V.U  y  14  V.M", "n10_min": "2718424,00 M2", "n_resolu_5": "51/04", "organism_5": "STyU", "n15_min": "RPUC_191.pdf", "actualiz_4": "Febrero 2022", "actualiz_5": "Mayo de 2016", "ocupacio12": 20.0, "subdivis_4": "130-38-2004", "subdivis_5": "30-163-1983", "relevami_5": "Junio 2022", "tipo_uc": null, "tipo_valor": null }, "geometry": { "type": "MultiPolygon", "coordinates": [ [ [ [ -58.5884, -34.9771 ], [ -58.6022, -34.9678 ], [ -58.5994, -34.9652 ], [ -58.5946, -34.961 ], [ -58.6013, -34.9562 ], [ -58.601, -34.956 ], [ -58.5977, -34.9584 ], [ -58.593, -34.9542 ], [ -58.5914, -34.9526 ], [ -58.5882, -34.956 ], [ -58.5891, -34.9568 ], [ -58.5764, -34.966 ], [ -58.5884, -34.9771 ] ] ] ] } },
{ "type": "Feature", "properties": { "partido": "EZEIZA", "nom_empren": "VILLA MARIA II EQUESTRIAN & GOLF STATES RESORT", "r_arba": 0, "r_urbasig": 1, "edificado": 1, "sup_ha": 50.67, "CLASE": "CATASTRO", "SUBCLASE": "PARCELARIO", "CODIGO_IDE": "110107", "GNA": "CONJUNTO INM", "NAM": "VILLA MARIA II", "TCI": "VIVIENDA", "ARA": 0.51, "FNA": "VILLA MARIA II EQUESTRIAN & GO", "OBJETO": "CONJUNTO INMOBILIARIO", "ARAm2": 509453.74, "SAG": "OPISU - PBA", "fecha_re_5": "17/05/2010", "expte_min": "4129- 15774/09", "tipo_min": "BC", "unidades_5": "556 V.U  y  14  V.M", "n10_min": "2718424,00 M2", "n_resolu_5": "51/04", "organism_5": "STyU", "n15_min": "RPUC_191.pdf", "actualiz_4": "Febrero 2022", "actualiz_5": "Mayo de 2016", "ocupacio12": 20.0, "subdivis_4": "130-38-2004", "subdivis_5": "30-158-1947", "relevami_5": "Junio 2022", "tipo_uc": null, "tipo_valor": null }, "geometry": { "type": "MultiPolygon", "coordinates": [ [ [ [ -58.6059, -34.9604 ], [ -58.6013, -34.9562 ], [ -58.5946, -34.961 ], [ -58.5994, -34.9652 ], [ -58.6059, -34.9604 ] ] ] ] } },
{ "type": "Feature", "properties": { "partido": "EZEIZA", "nom_empren": "LAGUNA AZUL", "r_arba": 0, "r_urbasig": 1, "edificado": 1, "sup_ha": 31.57, "CLASE": "CATASTRO", "SUBCLASE": "PARCELARIO", "CODIGO_IDE": "110107", "GNA": "CONJUNTO INM", "NAM": "LAGUNA AZUL", "TCI": "VIVIENDA", "ARA": 0.31, "FNA": "LAGUNA AZUL", "OBJETO": "CONJUNTO INMOBILIARIO", "ARAm2": 313013.2, "SAG": "OPISU - PBA", "fecha_re_5": "10/12/2015", "expte_min": "4129-13949/09 CUERPO 2", "tipo_min": "BC", "unidades_5": "561 PARCELAS", "n10_min": "35,336 ha", "n_resolu_5": "501/12", "organism_5": "MUNICIPIO", "n15_min": "RPUC_301.pdf", "actualiz_4": "Mayo de 2016", "actualiz_5": "Mayo de 2016", "ocupacio12": 100.0, "subdivis_4": null, "subdivis_5": null, "relevami_5": "Junio 2022", "tipo_uc": null, "tipo_valor": null }, "geometry": { "type": "MultiPolygon", "coordinates": [ [ [ [ -58.6022, -34.9385 ], [ -58.6027, -34.9377 ], [ -58.6103, -34.928 ], [ -58.6107, -34.927 ], [ -58.6104, -34.9266 ], [ -58.6095, -34.927 ], [ -58.609, -34.9273 ], [ -58.6083, -34.9276 ], [ -58.6071, -34.9284 ], [ -58.6053, -34.9291 ], [ -58.6049, -34.9294 ], [ -58.6035, -34.9306 ], [ -58.6034, -34.9311 ], [ -58.6034, -34.9326 ], [ -58.6035, -34.9329 ], [ -58.6033, -34.9334 ], [ -58.6027, -34.9344 ], [ -58.6028, -34.9351 ], [ -58.6026, -34.9362 ], [ -58.6024, -34.9368 ], [ -58.6022, -34.9372 ], [ -58.6021, -34.9374 ], [ -58.602, -34.9378 ], [ -58.6017, -34.9382 ], [ -58.6018, -34.9383 ], [ -58.6021, -34.9385 ], [ -58.6022, -34.9385 ] ] ] ] } },
{ "type": "Feature", "properties": { "partido": "CAÑUELAS", "nom_empren": "BARRIO ALTOS DEL CARMEN", "r_arba": 0, "r_urbasig": 1, "edificado": 1, "sup_ha": 8.94, "CLASE": "CATASTRO", "SUBCLASE": "PARCELARIO", "CODIGO_IDE": "110107", "GNA": "CONJUNTO INM", "NAM": "BARRIO ALTOS D", "TCI": "VIVIENDA", "ARA": 0.09, "FNA": "BARRIO ALTOS DEL CARMEN", "OBJETO": "CONJUNTO INMOBILIARIO", "ARAm2": 87662.35, "SAG": "OPISU - PBA", "fecha_re_5": "17/10/2005", "expte_min": "4017-11114/05", "tipo_min": "BC", "unidades_5": null, "n10_min": "HA;  A;  CA;", "n_resolu_5": "327/04", "organism_5": "MUNICIPIO", "n15_min": "RPUC_168.pdf", "actualiz_4": "Mayo de 2016", "actualiz_5": "Mayo de 2016", "ocupacio12": 100.0, "subdivis_4": "15-28-1994", "subdivis_5": "15-28-1994", "relevami_5": "Junio 2022", "tipo_uc": null, "tipo_valor": null }, "geometry": { "type": "MultiPolygon", "coordinates": [ [ [ [ -58.7605, -35.0399 ], [ -58.7586, -35.0383 ], [ -58.7558, -35.0405 ], [ -58.7577, -35.0421 ], [ -58.7605, -35.0399 ] ] ] ] } },
{ "type": "Feature", "properties": { "partido": "CAÑUELAS", "nom_empren": "EL METEJÓN BARRIO PRIVADO", "r_arba": 0, "r_urbasig": 1, "edificado": 1, "sup_ha": 101.43, "CLASE": "CATASTRO", "SUBCLASE": "PARCELARIO", "CODIGO_IDE": "110107", "GNA": "CONJUNTO INM", "NAM": "EL METEJÓN BAR", "TCI": "VIVIENDA", "ARA": 1.01, "FNA": "EL METEJÓN BARRIO PRIVADO", "OBJETO": "CONJUNTO INMOBILIARIO", "ARAm2": 1014018.35, "SAG": "OPISU - PBA", "fecha_re_5": "23/06/2010", "expte_min": "4017-0458/03", "tipo_min": "BC", "unidades_5": null, "n10_min": "HA;  A;  CA;", "n_resolu_5": "810/04", "organism_5": "MUNICIPIO", "n15_min": "RPUC_199.pdf", "actualiz_4": "Diciembre 2021", "actualiz_5": "Diciembre 2021", "ocupacio12": 30.0, "subdivis_4": null, "subdivis_5": null, "relevami_5": "Junio 2022", "tipo_uc": null, "tipo_valor": null }, "geometry": { "type": "MultiPolygon", "coordinates": [ [ [ [ -58.6715, -34.956 ], [ -58.6672, -34.9517 ], [ -58.6654, -34.9507 ], [ -58.6622, -34.9545 ], [ -58.6577, -34.9519 ], [ -58.6566, -34.9542 ], [ -58.6561, -34.9539 ], [ -58.6549, -34.9535 ], [ -58.6542, -34.9553 ], [ -58.6662, -34.9623 ], [ -58.67, -34.9579 ], [ -58.6715, -34.956 ] ] ] ] } },
{ "type": "Feature", "properties": { "partido": "CAÑUELAS", "nom_empren": "CHACRAS DE URIBELARREA", "r_arba": 0, "r_urbasig": 1, "edificado": 1, "sup_ha": 73.94, "CLASE": "CATASTRO", "SUBCLASE": "PARCELARIO", "CODIGO_IDE": "110107", "GNA": "CONJUNTO INM", "NAM": "CHACRAS DE URI", "TCI": "VIVIENDA", "ARA": 0.74, "FNA": "CHACRAS DE URIBELARREA", "OBJETO": "CONJUNTO INMOBILIARIO", "ARAm2": 739250.83, "SAG": "OPISU - PBA", "fecha_re_5": "23/06/2010", "expte_min": "4017-0424/01", "tipo_min": "BC", "unidades_5": null, "n10_min": "HA;  A;  CA;", "n_resolu_5": "809/04", "organism_5": "MUNICIPIO", "n15_min": "RPUC_200.pdf", "actualiz_4": "Diciembre 2021", "actualiz_5": "Diciembre 2021", "ocupacio12": 50.0, "subdivis_4": null, "subdivis_5": null, "relevami_5": "Junio 2022", "tipo_uc": null, "tipo_valor": null }, "geometry": { "type": "MultiPolygon", "coordinates": [ [ [ [ -58.9209, -35.098 ], [ -58.9165, -35.0942 ], [ -58.9113, -35.0982 ], [ -58.9067, -35.0942 ], [ -58.9038, -35.0965 ], [ -58.9082, -35.1004 ], [ -58.9094, -35.0995 ], [ -58.914, -35.1035 ], [ -58.9209, -35.098 ] ] ] ] } },
{ "type": "Feature", "properties": { "partido": "CAÑUELAS", "nom_empren": "LAS CAÑUELAS", "r_arba": 0, "r_urbasig": 1, "edificado": 1, "sup_ha": 53.38, "CLASE": "CATASTRO", "SUBCLASE": "PARCELARIO", "CODIGO_IDE": "110107", "GNA": "CONJUNTO INM", "NAM": "LAS CAÑUELAS", "TCI": "VIVIENDA", "ARA": 0.54, "FNA": "LAS CAÑUELAS", "OBJETO": "CONJUNTO INMOBILIARIO", "ARAm2": 537367.81, "SAG": "OPISU - PBA", "fecha_re_5": "29/10/2003", "expte_min": "4017-207/99", "tipo_min": "CC", "unidades_5": null, "n10_min": "HA;  A;  CA;", "n_resolu_5": "89/99", "organism_5": "STyU", "n15_min": "RPUC_106.pdf", "actualiz_4": "Diciembre  2021", "actualiz_5": "Diciembre  2021", "ocupacio12": 60.0, "subdivis_4": "15-10-2000", "subdivis_5": "15-10-2000", "relevami_5": "Junio 2022", "tipo_uc": null, "tipo_valor": null }, "geometry": { "type": "MultiPolygon", "coordinates": [ [ [ [ -58.7381, -34.9706 ], [ -58.7403, -34.9751 ], [ -58.7497, -34.968 ], [ -58.7459, -34.9647 ], [ -58.7381, -34.9706 ] ] ] ] } },
{ "type": "Feature", "properties": { "partido": "EZEIZA", "nom_empren": "LARES DE CANNING", "r_arba": 0, "r_urbasig": 0, "edificado": 1, "sup_ha": 24.22, "CLASE": "CATASTRO", "SUBCLASE": "PARCELARIO", "CODIGO_IDE": "110107", "GNA": "CONJUNTO INM", "NAM": "LARES DE CANNI", "TCI": "VIVIENDA", "ARA": 0.24, "FNA": "LARES DE CANNING", "OBJETO": "CONJUNTO INMOBILIARIO", "ARAm2": 242487.29, "SAG": "OPISU - PBA", "fecha_re_5": null, "expte_min": null, "tipo_min": null, "unidades_5": null, "n10_min": null, "n_resolu_5": null, "organism_5": null, "n15_min": null, "actualiz_4": null, "actualiz_5": null, "ocupacio12": null, "subdivis_4": null, "subdivis_5": null, "relevami_5": null, "tipo_uc": null, "tipo_valor": null }, "geometry": { "type": "MultiPolygon", "coordinates": [ [ [ [ -58.515, -34.9377 ], [ -58.5171, -34.9362 ], [ -58.5194, -34.9344 ], [ -58.5221, -34.9321 ], [ -58.5211, -34.9306 ], [ -58.513, -34.9351 ], [ -58.515, -34.9377 ] ] ] ] } },
{ "type": "Feature", "properties": { "partido": "CAÑUELAS", "nom_empren": "LAS DOS TORRES S.A.", "r_arba": 0, "r_urbasig": 1, "edificado": 1, "sup_ha": 29.38, "CLASE": "CATASTRO", "SUBCLASE": "PARCELARIO", "CODIGO_IDE": "110107", "GNA": "CONJUNTO INM", "NAM": "LAS DOS TORRES", "TCI": "VIVIENDA", "ARA": 0.29, "FNA": "LAS DOS TORRES S.A.", "OBJETO": "CONJUNTO INMOBILIARIO", "ARAm2": 294276.71, "SAG": "OPISU - PBA", "fecha_re_5": "29/10/2003", "expte_min": "4017-023/97", "tipo_min": "CC", "unidades_5": null, "n10_min": "HA;  A;  CA;", "n_resolu_5": "195/98", "organism_5": "STyU", "n15_min": "RPUC_102.pdf", "actualiz_4": "Mayo de 2016", "actualiz_5": "Mayo de 2016", "ocupacio12": 100.0, "subdivis_4": "15-133-2015", "subdivis_5": "15-133-2015", "relevami_5": "Junio 2022", "tipo_uc": null, "tipo_valor": null }, "geometry": { "type": "MultiPolygon", "coordinates": [ [ [ [ -58.6882, -34.9935 ], [ -58.6862, -34.9951 ], [ -58.6847, -34.9937 ], [ -58.6851, -34.9934 ], [ -58.6837, -34.9921 ], [ -58.6836, -34.9921 ], [ -58.6799, -34.9949 ], [ -58.68, -34.9949 ], [ -58.681, -34.9949 ], [ -58.6843, -34.996 ], [ -58.6845, -34.9961 ], [ -58.6857, -34.9966 ], [ -58.6859, -34.9964 ], [ -58.686, -34.9963 ], [ -58.6863, -34.9961 ], [ -58.6865, -34.9959 ], [ -58.6868, -34.9957 ], [ -58.6869, -34.9957 ], [ -58.6879, -34.9966 ], [ -58.6918, -34.9936 ], [ -58.6887, -34.9908 ], [ -58.6868, -34.9923 ], [ -58.6882, -34.9935 ] ] ] ] } },
{ "type": "Feature", "properties": { "partido": "CAÑUELAS", "nom_empren": "LA CUPLA", "r_arba": 0, "r_urbasig": 1, "edificado": 1, "sup_ha": 90.11, "CLASE": "CATASTRO", "SUBCLASE": "PARCELARIO", "CODIGO_IDE": "110107", "GNA": "CONJUNTO INM", "NAM": "LA CUPLA", "TCI": "VIVIENDA", "ARA": 0.9, "FNA": "LA CUPLA", "OBJETO": "CONJUNTO INMOBILIARIO", "ARAm2": 899248.42, "SAG": "OPISU - PBA", "fecha_re_5": "29/10/2003", "expte_min": "4017-262/99", "tipo_min": "CC", "unidades_5": null, "n10_min": "HA;  A;  CA;", "n_resolu_5": "104/99", "organism_5": "STyU", "n15_min": "RPUC_112.pdf", "actualiz_4": "Mayo de 2016", "actualiz_5": "Mayo de 2016", "ocupacio12": 1.0, "subdivis_4": "15-8-2001", "subdivis_5": "15-8-2001", "relevami_5": "Junio 2022", "tipo_uc": null, "tipo_valor": null }, "geometry": { "type": "MultiPolygon", "coordinates": [ [ [ [ -58.7475, -34.9964 ], [ -58.7477, -34.9933 ], [ -58.7476, -34.9925 ], [ -58.7464, -34.9889 ], [ -58.7349, -34.9977 ], [ -58.7348, -34.999 ], [ -58.7355, -35.0001 ], [ -58.7356, -35.0014 ], [ -58.7368, -35.0025 ], [ -58.7379, -35.0032 ], [ -58.7466, -34.9965 ], [ -58.7475, -34.9964 ] ] ] ] } },
{ "type": "Feature", "properties": { "partido": "CAÑUELAS", "nom_empren": "CHACRAS LA TRINIDAD", "r_arba": 0, "r_urbasig": 1, "edificado": 1, "sup_ha": 339.62, "CLASE": "CATASTRO", "SUBCLASE": "PARCELARIO", "CODIGO_IDE": "110107", "GNA": "CONJUNTO INM", "NAM": "CHACRAS LA TRI", "TCI": "VIVIENDA", "ARA": 3.4, "FNA": "CHACRAS LA TRINIDAD", "OBJETO": "CONJUNTO INMOBILIARIO", "ARAm2": 3396402.38, "SAG": "OPISU - PBA", "fecha_re_5": "13/08/2015", "expte_min": "4017-6403/08", "tipo_min": "CC", "unidades_5": null, "n10_min": "HA;  A;  CA", "n_resolu_5": "1259/11", "organism_5": "MUNICIPIO", "n15_min": "RPUC_281.pdf", "actualiz_4": "Mayo de 2016", "actualiz_5": "Mayo de 2016", "ocupacio12": 10.0, "subdivis_4": null, "subdivis_5": null, "relevami_5": "Junio 2022", "tipo_uc": null, "tipo_valor": null }, "geometry": { "type": "MultiPolygon", "coordinates": [ [ [ [ -58.6616, -35.0289 ], [ -58.6557, -35.013 ], [ -58.6367, -35.0268 ], [ -58.6511, -35.0396 ], [ -58.6511, -35.0395 ], [ -58.6616, -35.0289 ] ] ] ] } },
{ "type": "Feature", "properties": { "partido": "CAÑUELAS", "nom_empren": "PUESTO VIEJO", "r_arba": 0, "r_urbasig": 0, "edificado": 1, "sup_ha": 220.34, "CLASE": "CATASTRO", "SUBCLASE": "PARCELARIO", "CODIGO_IDE": "110107", "GNA": "CONJUNTO INM", "NAM": "PUESTO VIEJO", "TCI": "VIVIENDA", "ARA": 2.21, "FNA": "PUESTO VIEJO", "OBJETO": "CONJUNTO INMOBILIARIO", "ARAm2": 2207778.19, "SAG": "OPISU - PBA", "fecha_re_5": null, "expte_min": null, "tipo_min": null, "unidades_5": null, "n10_min": null, "n_resolu_5": null, "organism_5": null, "n15_min": null, "actualiz_4": null, "actualiz_5": null, "ocupacio12": null, "subdivis_4": null, "subdivis_5": null, "relevami_5": null, "tipo_uc": null, "tipo_valor": null }, "geometry": { "type": "MultiPolygon", "coordinates": [ [ [ [ -58.6555, -35.0916 ], [ -58.6569, -35.0904 ], [ -58.6594, -35.0903 ], [ -58.6589, -35.0836 ], [ -58.6564, -35.0786 ], [ -58.6531, -35.0786 ], [ -58.6461, -35.0836 ], [ -58.6508, -35.0876 ], [ -58.636, -35.0991 ], [ -58.6419, -35.1028 ], [ -58.6555, -35.0916 ] ] ] ] } },
{ "type": "Feature", "properties": { "partido": "EZEIZA", "nom_empren": "SIN NOMBRE", "r_arba": 0, "r_urbasig": 0, "edificado": 0, "sup_ha": 15.26, "CLASE": "CATASTRO", "SUBCLASE": "PARCELARIO", "CODIGO_IDE": "110107", "GNA": "CONJUNTO INM", "NAM": "SIN NOMBRE", "TCI": "VIVIENDA", "ARA": 0.15, "FNA": "SIN NOMBRE", "OBJETO": "CONJUNTO INMOBILIARIO", "ARAm2": 149390.99, "SAG": "OPISU - PBA", "fecha_re_5": null, "expte_min": null, "tipo_min": null, "unidades_5": null, "n10_min": null, "n_resolu_5": null, "organism_5": null, "n15_min": null, "actualiz_4": null, "actualiz_5": null, "ocupacio12": null, "subdivis_4": null, "subdivis_5": null, "relevami_5": null, "tipo_uc": null, "tipo_valor": null }, "geometry": { "type": "MultiPolygon", "coordinates": [ [ [ [ -58.5615, -34.9639 ], [ -58.5584, -34.9665 ], [ -58.5614, -34.9689 ], [ -58.5643, -34.9664 ], [ -58.5615, -34.9639 ] ] ] ] } }
]
}
